{"type":"FeatureCollection","features":[{"type":"Feature","properties":{"blockName":"Chandigarh","districtName":"Chandigarh","state":"Chandigarh"},"geometry":{"type":"Polygon","coordinates":[[[76.84147600021731,30.75995800036145],[76.82527200030262,30.762835999981462],[76.81471299990505,30.758971999857977],[76.80640399984475,30.76272999958985],[76.80464200042803,30.76571799978592],[76.81718399964194,30.77524000002603],[76.81547499997134,30.778045999922995],[76.80943300013291,30.78199600041512],[76.79422000005303,30.770101999607675],[76.7825699997058,30.773240999572522],[76.78595700031536,30.779335000010292],[76.79061900036663,30.781715000047257],[76.78665199998989,30.784165999761115],[76.78090700035784,30.791385999964007],[76.7726590004126,30.795318999672133],[76.76422099979936,30.7931369997728],[76.75903299977318,30.790941000127077],[76.75626399978381,30.78777099963196],[76.75325799965702,30.78738199967961],[76.75149500019415,30.78614600023775],[76.75249500044396,30.782376999998576],[76.74840499979098,30.779292999872098],[76.74375899957823,30.777315000387034],[76.74449200010577,30.773315000287084],[76.73597700043825,30.76704399978081],[76.73153699983271,30.765411000017707],[76.7239891778583,30.76615576727488],[76.72107700040328,30.76644299994456],[76.70381200012378,30.7564240001675],[76.70612299967672,30.753728999993427],[76.7064969998367,30.748986999850217],[76.70385000007752,30.74298700014998],[76.70861799962103,30.74040799992929],[76.71443199973703,30.741602000132275],[76.7243039999297,30.728581999559708],[76.72929399981831,30.724904999965815],[76.7310869997653,30.716900000434748],[76.72832500009872,30.709579000070846],[76.7385860002438,30.70624400006062],[76.74002800019213,30.70379400039286],[76.73770900027023,30.700034999715513],[76.73938800035597,30.692153999607456],[76.74599500016916,30.69338999994858],[76.75157200014775,30.685368999679667],[76.75812500016866,30.686668000228053],[76.7837910002545,30.674107000138008],[76.80746500020967,30.66545500044799],[76.81603199957715,30.671605999917006],[76.82364700000909,30.6810740003649],[76.832954000227,30.68194600010787],[76.83084099991225,30.68674300008945],[76.8342739999452,30.692893999558464],[76.84951799965603,30.710381000183077],[76.84758799968648,30.720522000190215],[76.83804300018437,30.726959000257693],[76.83599099998474,30.736226999576445],[76.84147600021731,30.75995800036145]]]}}]}