{"type":"FeatureCollection","features":[{"type":"Feature","properties":{"blockName":"Rajouri Garden","districtName":"West","state":"Delhi"},"geometry":{"type":"Polygon","coordinates":[[[77.11532018557818,28.650208090031356],[77.11339610044973,28.65208770008735],[77.10997040021385,28.651297800353234],[77.10473610039077,28.642745899703584],[77.09913350031087,28.640544499629016],[77.0900891003318,28.646033900244333],[77.08351960044928,28.640763700384525],[77.09263509992996,28.63444459963864],[77.09081439996464,28.630421700101408],[77.08826840036642,28.63121650024135],[77.08656230011013,28.62904569959943],[77.09338160018075,28.62434830043378],[77.09483209962178,28.616972200406792],[77.10226309966237,28.61182709984081],[77.10831629965759,28.61460179973335],[77.11402509977859,28.6201020003071],[77.11426579972692,28.62254160021473],[77.11629219982524,28.622486600376362],[77.11852969958602,28.627493799799083],[77.11996999981568,28.62690250005039],[77.12600309996316,28.636367600184656],[77.12097989980259,28.64467920018501],[77.11532018557818,28.650208090031356]]]}},{"type":"Feature","properties":{"blockName":"Kotwali","districtName":"Central","state":"Delhi"},"geometry":{"type":"Polygon","coordinates":[[[77.28406331927648,28.610022814431186],[77.27822980036507,28.618406299810943],[77.27764299992458,28.619249600388798],[77.27133029965364,28.628490399712234],[77.26994090015245,28.63178160004088],[77.26852340043462,28.638799500096923],[77.272413599608,28.64250569977827],[77.27155570033534,28.646748700292335],[77.2649921998302,28.655128299831233],[77.2575585000248,28.660228599770107],[77.24076850006628,28.66338149965651],[77.23488749955851,28.670901799678347],[77.21916140027844,28.666655899750026],[77.2136493997001,28.667312500171818],[77.21154930016013,28.66048500008276],[77.20855590043453,28.656709799917394],[77.20983270031894,28.650213500352834],[77.21137759979644,28.643829800405],[77.22195090031386,28.642040799743143],[77.22194320031849,28.63668699980525],[77.22423999957635,28.6342058997825],[77.2410748999867,28.625806599694897],[77.24000199979253,28.612919699684426],[77.25424159977007,28.61332409962756],[77.2551391996144,28.609722599918086],[77.2573614001086,28.602947800100935],[77.26074840341613,28.599673874849486],[77.2805396595777,28.61036692909056],[77.2822653839404,28.60904138325327],[77.28406331927648,28.610022814431186]]]}},{"type":"Feature","properties":{"blockName":"Seema Puri","districtName":"Shahdara","state":"Delhi"},"geometry":{"type":"Polygon","coordinates":[[[77.31642899979857,28.71223099956103],[77.31166799967849,28.711292000325614],[77.30312300042618,28.704344000075594],[77.30344815840584,28.690708256181154],[77.30541049979479,28.69007939984448],[77.3038548003588,28.683015799839325],[77.31193510911805,28.685379911553753],[77.31489166721673,28.685688445565347],[77.31742355015678,28.687699460062106],[77.31600137036702,28.69409890174296],[77.32234318169253,28.694873700960557],[77.32433942932124,28.704024115720415],[77.3273249617776,28.708917084156155],[77.32618235872894,28.709521897117895],[77.32820899984551,28.711476200366405],[77.32834255604142,28.71155552397658],[77.32737700014849,28.711761000369904],[77.31642899979857,28.71223099956103]]]}},{"type":"Feature","properties":{"blockName":"Shahdara","districtName":"Shahdara","state":"Delhi"},"geometry":{"type":"Polygon","coordinates":[[[77.30012540086659,28.68843180408453],[77.29889542778182,28.690640410426624],[77.28817830498485,28.69388461937973],[77.288152184176,28.697417353328262],[77.28529736727972,28.69760765436979],[77.28385136624763,28.689318959202637],[77.278299230725,28.690374095088487],[77.27858841492349,28.696078046064997],[77.27445649956786,28.695562300160077],[77.27375909960284,28.69429370029411],[77.27136330027616,28.67359439956192],[77.2728036041031,28.673477420246797],[77.2720286897723,28.671388555937142],[77.2791100010258,28.669465721765675],[77.28281516199019,28.670509288772735],[77.28257532269305,28.672553072766163],[77.2799282680752,28.674175605319988],[77.2833194298479,28.681697667113724],[77.28885606555502,28.680663415284414],[77.29282993225564,28.67658519575025],[77.29298449693704,28.679699189166286],[77.29731560043467,28.682648700177424],[77.30012540086659,28.68843180408453]]]}},{"type":"Feature","properties":{"blockName":"Vivek Vihar","districtName":"East","state":"Delhi"},"geometry":{"type":"Polygon","coordinates":[[[77.28406331927648,28.610022814431186],[77.28426393203489,28.610132322049083],[77.284782482026,28.613879233140153],[77.28347640741032,28.616019791380324],[77.29003626296321,28.618532340695026],[77.2925552370346,28.619565358654427],[77.29212713725764,28.618135880866248],[77.29200555161498,28.61630680731338],[77.29307670172847,28.61341642043152],[77.29120666315703,28.61100583714972],[77.2912607825591,28.605580229044392],[77.2956233200602,28.60282207577825],[77.30815167386072,28.608838137370185],[77.30681371737921,28.612254469368338],[77.31997980562357,28.614254334070324],[77.32153962665251,28.615613700711776],[77.3224653429013,28.617356994229965],[77.32095317424967,28.620557908021112],[77.31827065576618,28.625981632046717],[77.31730391244565,28.6287114548698],[77.32290486856488,28.630803384968317],[77.32849593034297,28.633050199906847],[77.32366900002438,28.63774299993952],[77.32130399977984,28.63918900007235],[77.325447000179,28.645907999654526],[77.32555399971739,28.657803999654902],[77.32770499998583,28.666164000268452],[77.32807199982301,28.67388300010043],[77.33555599960977,28.677037999903803],[77.33729599981058,28.679695000124184],[77.33775300020085,28.686379999937117],[77.33111599990355,28.69421599976863],[77.33003200027667,28.698194999799455],[77.33345153655921,28.709861546773027],[77.33370200044703,28.710415000352043],[77.32834255604142,28.71155552397658],[77.32820899984551,28.711476200366405],[77.32618235872894,28.709521897117895],[77.3273249617776,28.708917084156155],[77.32433942932124,28.704024115720415],[77.32234318169253,28.694873700960557],[77.31600137036702,28.69409890174296],[77.31742355015678,28.687699460062106],[77.31489166721673,28.685688445565347],[77.31193510911805,28.685379911553753],[77.3038548003588,28.683015799839325],[77.30541049979479,28.69007939984448],[77.30344815840584,28.690708256181154],[77.30012540086659,28.68843180408453],[77.29731560043467,28.682648700177424],[77.29298449693704,28.679699189166286],[77.29282993225564,28.67658519575025],[77.28885606555502,28.680663415284414],[77.2833194298479,28.681697667113724],[77.2799282680752,28.674175605319988],[77.28257532269305,28.672553072766163],[77.28281516199019,28.670509288772735],[77.2791100010258,28.669465721765675],[77.2720286897723,28.671388555937142],[77.2728036041031,28.673477420246797],[77.27136330027616,28.67359439956192],[77.2606337002851,28.669061099690055],[77.25661029982552,28.6701719000132],[77.25414800013016,28.66639240018918],[77.2575585000248,28.660228599770107],[77.2649921998302,28.655128299831233],[77.27155570033534,28.646748700292335],[77.272413599608,28.64250569977827],[77.26852340043462,28.638799500096923],[77.26994090015245,28.63178160004088],[77.27133029965364,28.628490399712234],[77.27764299992458,28.619249600388798],[77.27822980036507,28.618406299810943],[77.28406331927648,28.610022814431186]]]}},{"type":"Feature","properties":{"blockName":"Gandhi Nagar","districtName":"East","state":"Delhi"},"geometry":{"type":"Polygon","coordinates":[[[77.26074840341613,28.599673874849486],[77.25134476025255,28.596984180675463],[77.25657118741043,28.590417713306863],[77.26071515727875,28.589867941552313],[77.27019153940807,28.58252162527282],[77.27877959280403,28.590268276559755],[77.28622976099473,28.59526534062303],[77.28898408584695,28.595500355057368],[77.28670455267303,28.599356163256402],[77.28424216574342,28.60358500034755],[77.28199783473235,28.606665170261465],[77.28688319400425,28.61031427468407],[77.284782482026,28.613879233140153],[77.28426393203489,28.610132322049083],[77.28406331927648,28.610022814431186],[77.2822653839404,28.60904138325327],[77.2805396595777,28.61036692909056],[77.26074840341613,28.599673874849486]]]}},{"type":"Feature","properties":{"blockName":"Punjabi Bagh","districtName":"West","state":"Delhi"},"geometry":{"type":"Polygon","coordinates":[[[77.05158263762866,28.650329470628606],[77.05651787689857,28.64539423225807],[77.05651787689857,28.63947194477447],[77.05964352822633,28.638978422016635],[77.08053603930682,28.65559372507039],[77.09185479955943,28.655673899630813],[77.09921920030592,28.661445000286562],[77.11222570025592,28.661185199637316],[77.11415050034537,28.657959700180072],[77.12450910031481,28.665107500111105],[77.14136520044372,28.667590399677238],[77.1371541996067,28.67670430016335],[77.13527770030566,28.67783010027898],[77.13608450009968,28.67883070037658],[77.13406000026885,28.67843160013831],[77.1245467000702,28.682600400288266],[77.12739200034059,28.685836300405015],[77.12421370000231,28.6873744999333],[77.11874909999102,28.681563300306095],[77.10862319960103,28.686344699748133],[77.10429709993127,28.68384850010824],[77.0973518003454,28.689031300254328],[77.0935602001432,28.689516899984994],[77.09047793031232,28.68563875982096],[77.08799556224545,28.68743030556419],[77.08456032469928,28.68754858170172],[77.08456032469928,28.68540511235608],[77.08184217057976,28.685262200190436],[77.08155611242472,28.683690235615927],[77.0789810548319,28.68340448323039],[77.07883795920452,28.684690549729112],[77.06868082356124,28.68340448323039],[77.06853772793386,28.68483346279413],[77.06066946042733,28.684690549729112],[77.06009721011822,28.685976689972335],[77.05151372797621,28.68611960213798],[77.05065528731171,28.687405742381145],[77.04823194265009,28.687449783980412],[77.03978280663125,28.688691808879923],[77.0263639657245,28.69769471324048],[77.01549148504404,28.697837625406123],[77.01356897642717,28.696078093729113],[77.01148573737692,28.69397927932033],[77.0116288330043,28.691121248247043],[77.0076232166382,28.687405742381145],[77.00476196868993,28.687119917150483],[77.00461887306261,28.683547396295353],[77.00233000582517,28.680832275589125],[76.99832425815805,28.680832277387765],[76.99617848744731,28.684547710408538],[76.99388948800953,28.684547710408538],[76.99202964325349,28.689120618221978],[76.98802402688739,28.69255022691152],[76.98387531579323,28.69369345408967],[76.98115716257303,28.700409904093874],[76.96885412311934,28.703267935167105],[76.96871102839128,28.70141021910638],[76.9644999996753,28.700214000275935],[76.96409599993052,28.695374000110064],[76.9557950002391,28.678325999945002],[76.95710000016493,28.672006999923155],[76.96552633387324,28.662494409289593],[76.97432031223269,28.661239480018025],[76.97892661277302,28.65580162134779],[76.98604544104433,28.653710120225924],[76.98771726543953,28.652025233177994],[76.99009403331303,28.650767467444723],[76.99342137020011,28.645316897756686],[76.99670215188286,28.64358859233971],[76.99847567970892,28.6404081579102],[77.00498232417499,28.63502229264475],[77.00541844770328,28.63447834310108],[77.00656331794283,28.633820393696283],[77.01169097256042,28.62612801379686],[77.01414792488686,28.624340449352303],[77.02146429823881,28.624317507646936],[77.02180669802078,28.627627373404607],[77.02526136541974,28.632727119361107],[77.02526136541974,28.640788009059406],[77.02994888013677,28.644428469198544],[77.03990257294544,28.650329470628606],[77.04624048391128,28.651138888349067],[77.05158263762866,28.650329470628606]]]}},{"type":"Feature","properties":{"blockName":"Chanakya Puri","districtName":"New Delhi","state":"Delhi"},"geometry":{"type":"Polygon","coordinates":[[[77.22194320031849,28.63668699980525],[77.21921890023214,28.64198379981258],[77.21373110041003,28.636390600345976],[77.19760570034288,28.645684199766038],[77.19694049970434,28.644855600405663],[77.18968780015189,28.634413099984613],[77.18605870024885,28.6338856997653],[77.17898940034058,28.625466200005178],[77.1810685996362,28.623668600025894],[77.17686290030264,28.619505999802072],[77.17503899965016,28.611698200011972],[77.16983559963325,28.603616599826296],[77.17172380001341,28.60185520025732],[77.16816180032686,28.596580099991684],[77.17554870031233,28.587018300254385],[77.1834179004158,28.583622200304376],[77.19017210036219,28.5819238000434],[77.20104140014058,28.581572200196945],[77.19916819955284,28.589524199981895],[77.20340610001159,28.58731030023023],[77.21300839981785,28.587892100440115],[77.21317889958658,28.589369899701182],[77.23973779965979,28.593061099590102],[77.23994819964975,28.609284899878276],[77.24188979997433,28.60985769967317],[77.2440547999891,28.607289600135005],[77.2551391996144,28.609722599918086],[77.25424159977007,28.61332409962756],[77.24000199979253,28.612919699684426],[77.2410748999867,28.625806599694897],[77.22423999957635,28.6342058997825],[77.22194320031849,28.63668699980525]]]}},{"type":"Feature","properties":{"blockName":"Model Town","districtName":"North ","state":"Delhi"},"geometry":{"type":"Polygon","coordinates":[[[77.17067874822573,28.741579732418757],[77.17976857655862,28.750687352939053],[77.18285212882273,28.752531190661955],[77.18474198035818,28.75574115343153],[77.18128452865813,28.75722294118583],[77.18126449176293,28.75992136687762],[77.17736186305962,28.760642658232143],[77.17682969463476,28.763228987028185],[77.17558717780605,28.764033114037034],[77.17357427563235,28.76406182129608],[77.16708476235198,28.762395513342312],[77.16278705158123,28.763509832712657],[77.16235201443396,28.755484304357196],[77.16206591221214,28.748336429782455],[77.15456675615093,28.746028874632884],[77.16015770011785,28.732707299902017],[77.15835309981577,28.730695899596128],[77.16131430021483,28.72659390018839],[77.1578381003481,28.719481000248038],[77.16262640028822,28.71759039957732],[77.16521640011683,28.71387189986831],[77.16259860044511,28.712479199855238],[77.16445759983844,28.708998099582686],[77.1623627001785,28.707071999972868],[77.18965790039186,28.69110309992817],[77.20590119978061,28.69253720023164],[77.2175655002477,28.708533999944166],[77.22086789983376,28.7158772998975],[77.21838519991712,28.717318799822806],[77.21413229966595,28.724341600284674],[77.20049829955695,28.72924309968937],[77.19238709998473,28.72518079995399],[77.19491699991966,28.72794870007249],[77.19422824873476,28.730685212952267],[77.18246013862455,28.733060238839016],[77.17898297468457,28.73224851255884],[77.18229469304572,28.73581967813567],[77.18314790235388,28.737154570626956],[77.18157591709496,28.737630098850047],[77.17490026123812,28.739711155245686],[77.17067874822573,28.741579732418757]]]}},{"type":"Feature","properties":{"blockName":"Patel Nagar","districtName":"West","state":"Delhi"},"geometry":{"type":"Polygon","coordinates":[[[77.12600309996316,28.636367600184656],[77.13070529970986,28.6394418003988],[77.13577300012389,28.64008349995362],[77.13855389994256,28.638140000260876],[77.14362430012142,28.642473299902917],[77.15037559975417,28.637050100182023],[77.1549810998979,28.64015780014239],[77.16427580008815,28.632833400341212],[77.1654320998116,28.62788350032332],[77.17597560039371,28.630238299557902],[77.17898940034058,28.625466200005178],[77.18605870024885,28.6338856997653],[77.18968780015189,28.634413099984613],[77.19694049970434,28.644855600405663],[77.1752945995662,28.64173289975355],[77.17742270039736,28.644742800240067],[77.17081540021059,28.648361100184673],[77.16516350019543,28.657523799683645],[77.15610670036398,28.662864699746137],[77.15950979973752,28.664532800048732],[77.15594360021703,28.67270570030786],[77.15198679995092,28.670320399666764],[77.14136520044372,28.667590399677238],[77.12450910031481,28.665107500111105],[77.11415050034537,28.657959700180072],[77.11222570025592,28.661185199637316],[77.09921920030592,28.661445000286562],[77.09185479955943,28.655673899630813],[77.08053603930682,28.65559372507039],[77.05964352822633,28.638978422016635],[77.05651787689857,28.63947194477447],[77.05651787689857,28.64539423225807],[77.05158263762866,28.650329470628606],[77.04624048391128,28.651138888349067],[77.03990257294544,28.650329470628606],[77.02994888013677,28.644428469198544],[77.02526136541974,28.640788009059406],[77.02526136541974,28.632727119361107],[77.02180669802078,28.627627373404607],[77.02146429823881,28.624317507646936],[77.03009896169777,28.625275743380882],[77.02982591943072,28.619184761067913],[77.03405130042722,28.616490500136536],[77.03300050017299,28.614490399812155],[77.03654309968437,28.603125499842008],[77.05548719987445,28.595902700049635],[77.05757500028608,28.599307000018086],[77.06119950015687,28.600279300249554],[77.05217980005779,28.607147699706616],[77.05647890028109,28.610404900265962],[77.05173859985655,28.61629719985592],[77.05271509992195,28.61773609984118],[77.06054689991953,28.61767590012272],[77.06530730019182,28.623331400124073],[77.08386429979765,28.614682700046615],[77.0860601996186,28.61655970026999],[77.09483209962178,28.616972200406792],[77.09338160018075,28.62434830043378],[77.08656230011013,28.62904569959943],[77.08826840036642,28.63121650024135],[77.09081439996464,28.630421700101408],[77.09263509992996,28.63444459963864],[77.08351960044928,28.640763700384525],[77.0900891003318,28.646033900244333],[77.09913350031087,28.640544499629016],[77.10473610039077,28.642745899703584],[77.10997040021385,28.651297800353234],[77.11339610044973,28.65208770008735],[77.11532018557818,28.650208090031356],[77.12097989980259,28.64467920018501],[77.12600309996316,28.636367600184656]]]}},{"type":"Feature","properties":{"blockName":"Vasant Vihar","districtName":"New Delhi","state":"Delhi"},"geometry":{"type":"Polygon","coordinates":[[[77.1834179004158,28.583622200304376],[77.17929840020105,28.58163880039035],[77.16893429997799,28.584860900410263],[77.16350550017876,28.588798799624954],[77.1591925000339,28.584408699701783],[77.16166020015817,28.582731699708233],[77.15623140035888,28.574421800325865],[77.16339820026678,28.57278240008776],[77.15929979994587,28.56596050007704],[77.16269010016805,28.564113600162557],[77.16288329972457,28.562436299795422],[77.16445306096006,28.560848109652568],[77.162798223859,28.559113525169096],[77.16084480014746,28.558535100114852],[77.15112450029551,28.564075899683075],[77.14264870027733,28.553050500080587],[77.1167922003998,28.557592699643408],[77.11490390019492,28.557498500155702],[77.11033339986659,28.55344629980692],[77.10138559966578,28.556405400289066],[77.09121460007378,28.56307710002818],[77.08958389987714,28.56181439971482],[77.08443399962943,28.561738999655176],[77.08312510024325,28.560231299734767],[77.08456279963355,28.558798900049226],[77.08405850029959,28.556725700130983],[77.08138700030986,28.553220099627936],[77.0716560003242,28.550732199831202],[77.06998229994326,28.547989700164578],[77.06994959969433,28.54338560026531],[77.0883851998172,28.53826199979153],[77.08660683903446,28.534565859027225],[77.084112196121,28.533742434365877],[77.08485273836322,28.52453521033175],[77.08467152227297,28.522649231277057],[77.07954067955876,28.518297384017103],[77.07868420211429,28.517023636431702],[77.07753226410279,28.515310480993946],[77.08218400019149,28.514969000319184],[77.09568850781847,28.50553436561853],[77.10002099986929,28.500124000122582],[77.11737796841857,28.488519922756268],[77.11336238576553,28.478613713252344],[77.11302199956566,28.4777740000701],[77.11119799998778,28.47113599972664],[77.11585012997955,28.470907208600863],[77.12076669033053,28.469465247323342],[77.13102401314774,28.477269691742947],[77.15705648426939,28.48703533721107],[77.16212181227189,28.486088905978306],[77.16434591123488,28.48851261126805],[77.16616573615983,28.48851261126805],[77.17138246323015,28.495137173941487],[77.17057365075345,28.49756087923123],[77.16713620357297,28.498166786667923],[77.15663640734437,28.50529464683052],[77.14740680907704,28.5051026181913],[77.138965605978,28.500915219162096],[77.13283567672516,28.50137703272395],[77.11938764202614,28.493346931315898],[77.11990607690399,28.497039661850977],[77.12602644186688,28.504903796073393],[77.11876374904784,28.510473667126064],[77.11906240220816,28.513784609372294],[77.12057645583883,28.515791388062155],[77.12985246901627,28.520978075078176],[77.13540452809656,28.526301188349237],[77.13944182488035,28.536766105271568],[77.1409450497743,28.538227347114457],[77.15261062008409,28.53447727670499],[77.15736048479857,28.529812941114415],[77.16727451210909,28.54155166138014],[77.17465613397349,28.540563265082653],[77.17755587200594,28.543645305586438],[77.17690363689337,28.546232683891276],[77.18024089959789,28.546703300017327],[77.18520730037665,28.550284299680754],[77.18775630011322,28.558076499830634],[77.18992130012793,28.56038700025988],[77.19287280043943,28.56058339960424],[77.19409869959537,28.562946999604378],[77.19923290037809,28.56594569993416],[77.20128439965538,28.56017560022383],[77.20377509994097,28.55980689976866],[77.20497220010702,28.56117930028455],[77.21154220001256,28.58023640028972],[77.20104140014058,28.581572200196945],[77.19017210036219,28.5819238000434],[77.1834179004158,28.583622200304376]]]}},{"type":"Feature","properties":{"blockName":"Kalkaji","districtName":"South East","state":"Delhi"},"geometry":{"type":"Polygon","coordinates":[[[77.29385622418545,28.525602109349904],[77.28960909038727,28.5226297870351],[77.2876437587525,28.52489103159587],[77.28253207519515,28.52430987619988],[77.2819215218608,28.52978450095401],[77.27911468289636,28.53435260099178],[77.27699520026835,28.534257500383376],[77.27197410002475,28.537311300376246],[77.27021449999921,28.539158700313806],[77.27450609987665,28.549978200133864],[77.28029969977138,28.553860899860695],[77.2766089000807,28.56034440027389],[77.26669549959769,28.56748700032483],[77.25540870035132,28.560645899788483],[77.24978679992091,28.552447299603273],[77.24673990042612,28.553728999893508],[77.2457098996922,28.559157000195455],[77.23819969995623,28.557479600003603],[77.22516149980345,28.559804899676408],[77.22331180029943,28.556240700248168],[77.22514909995107,28.55193609977124],[77.22895279963205,28.551279799723034],[77.23058669961654,28.545216299792457],[77.2327463999265,28.543665900061285],[77.23369779991361,28.532092199995077],[77.24494479966285,28.525265399578586],[77.24240173275382,28.50812388161188],[77.24410158721855,28.506709453078827],[77.24507149255538,28.50027132256355],[77.24230845776918,28.492682951956738],[77.24429260501978,28.48727817844525],[77.24324792555137,28.484164838836307],[77.24631345270376,28.4784236388399],[77.24907740839575,28.476359078708583],[77.25244099965249,28.47915099971891],[77.2637860003237,28.480095000084248],[77.2699129995853,28.482974999796454],[77.27036905568741,28.491429636068915],[77.2785558270898,28.501320233342142],[77.29005906077708,28.499819766668963],[77.29357255462975,28.49698837980992],[77.30320325502623,28.501359936611834],[77.30861720342125,28.50170980076672],[77.30538644742666,28.514927053240967],[77.29385622418545,28.525602109349904]]]}},{"type":"Feature","properties":{"blockName":"Najafgarh","districtName":"South West","state":"Delhi"},"geometry":{"type":"Polygon","coordinates":[[[76.95710000016493,28.672006999923155],[76.95238500036754,28.66995799986188],[76.93955200032462,28.66927699993363],[76.93291500002726,28.664081999584653],[76.92727699993367,28.652127999607558],[76.92797899993099,28.64812999959986],[76.94192365195505,28.634234546786956],[76.94367199966314,28.632491999706076],[76.93572199997038,28.624100000314797],[76.93341100041738,28.623502999763673],[76.92009699977677,28.63268899979755],[76.91375000026238,28.632808999935435],[76.90701299985011,28.62767399965543],[76.90341200016371,28.627623000001506],[76.8876570002704,28.632526000374696],[76.87586022876661,28.608298964125936],[76.86444900022121,28.58724400041035],[76.85985599975464,28.585021999565697],[76.84464299967476,28.58632100011414],[76.84251400042086,28.57742099977935],[76.84716800010318,28.55189699994662],[76.8663099997068,28.54270000030482],[76.86877400002015,28.536804000004622],[76.88456478303834,28.524713552188757],[76.88966775576239,28.526828940203472],[76.8941457059596,28.526816221991112],[76.89562829411057,28.529238723088667],[76.89242503218952,28.53327148279277],[76.89276146676832,28.537494174816345],[76.90818094039815,28.532492694182565],[76.91163955672022,28.532017034658452],[76.91376249904016,28.533297065807005],[76.91578242491903,28.538783367358576],[76.91156781959927,28.54185610077849],[76.91241766004703,28.54952794735692],[76.9090212876024,28.549667517641865],[76.90859737237088,28.560521874285143],[76.92114718039812,28.56559951130845],[76.93719891519783,28.569224369109406],[76.93044839257931,28.57419559295232],[76.93042677827327,28.58053089768282],[76.9339775921922,28.585602018218594],[76.95519811929785,28.58377476669216],[76.9573320540311,28.582966609821256],[76.95852660282054,28.578168643967786],[76.96491557099688,28.576867594763712],[76.97653436936571,28.591171122149603],[76.98000001478891,28.59351591282916],[76.9852393238358,28.59653176323036],[76.9874065505719,28.596092565819333],[76.9882794838112,28.593660575075546],[77.0005312106469,28.59804291744672],[77.02105580997772,28.596231446324225],[77.02065625018588,28.600003639156682],[77.01834509774812,28.602582992810937],[77.01018771708954,28.604030924687493],[77.00974029987498,28.605142699875728],[77.01197070038756,28.609842000208175],[77.01751229495653,28.610893941702102],[77.00297226475828,28.62160414961187],[76.99879520523461,28.626550729332735],[76.9957566946158,28.631021636039748],[76.99735352004899,28.63243217320627],[77.00541844770328,28.63447834310108],[77.00498232417499,28.63502229264475],[76.99847567970892,28.6404081579102],[76.99670215188286,28.64358859233971],[76.99342137020011,28.645316897756686],[76.99009403331303,28.650767467444723],[76.98771726543953,28.652025233177994],[76.98604544104433,28.653710120225924],[76.97892661277302,28.65580162134779],[76.97432031223269,28.661239480018025],[76.96552633387324,28.662494409289593],[76.95710000016493,28.672006999923155]]]}},{"type":"Feature","properties":{"blockName":"Hauz Khas","districtName":"South","state":"Delhi"},"geometry":{"type":"Polygon","coordinates":[[[77.18024089959789,28.546703300017327],[77.18819760013918,28.544891100443976],[77.1975279998174,28.547063500080526],[77.19831490031248,28.548429500121358],[77.20039449980635,28.54760669958955],[77.19612280012717,28.541879199865207],[77.18851610043777,28.53715550002636],[77.18658639994248,28.53350139986975],[77.19436160020774,28.529797899953167],[77.19823989955177,28.52913949998799],[77.19880200011227,28.53078550035059],[77.20269899995895,28.528135399728967],[77.20143900030968,28.519388099781054],[77.20738290030067,28.51820900044504],[77.20706440000214,28.515410400169856],[77.20859143894381,28.514365176611648],[77.20146879035246,28.51608796828515],[77.19778707201584,28.510207133252663],[77.20328268065123,28.508965577799245],[77.20890779435928,28.504595799856304],[77.21261937018784,28.503812637842998],[77.20958090003859,28.50083432784203],[77.21018038271853,28.49872454710021],[77.20731319924482,28.4913975617481],[77.21236898544038,28.486365190301342],[77.20958261234773,28.478052697274222],[77.21096645673663,28.47589559780363],[77.21626610399755,28.472221744038336],[77.22541423897599,28.47176852439793],[77.22997594033745,28.470068940629176],[77.23793290168214,28.464994417958053],[77.24218000040673,28.47035399963744],[77.2465210000442,28.474236999737798],[77.24907740839575,28.476359078708583],[77.24631345270376,28.4784236388399],[77.24324792555137,28.484164838836307],[77.24429260501978,28.48727817844525],[77.24230845776918,28.492682951956738],[77.24507149255538,28.50027132256355],[77.24410158721855,28.506709453078827],[77.24240173275382,28.50812388161188],[77.24494479966285,28.525265399578586],[77.23369779991361,28.532092199995077],[77.2327463999265,28.543665900061285],[77.23058669961654,28.545216299792457],[77.22895279963205,28.551279799723034],[77.22514909995107,28.55193609977124],[77.22331180029943,28.556240700248168],[77.222633500136,28.558508199593803],[77.21486830033183,28.563255899640126],[77.20891520027635,28.558258599954456],[77.20497220010702,28.56117930028455],[77.20377509994097,28.55980689976866],[77.20128439965538,28.56017560022383],[77.19923290037809,28.56594569993416],[77.19409869959537,28.562946999604378],[77.19287280043943,28.56058339960424],[77.18992130012793,28.56038700025988],[77.18775630011322,28.558076499830634],[77.18520730037665,28.550284299680754],[77.18024089959789,28.546703300017327]]]}},{"type":"Feature","properties":{"blockName":"Defence Colony","districtName":"South East","state":"Delhi"},"geometry":{"type":"Polygon","coordinates":[[[77.2551391996144,28.609722599918086],[77.2440547999891,28.607289600135005],[77.24188979997433,28.60985769967317],[77.23994819964975,28.609284899878276],[77.23973779965979,28.593061099590102],[77.21317889958658,28.589369899701182],[77.21300839981785,28.587892100440115],[77.20340610001159,28.58731030023023],[77.19916819955284,28.589524199981895],[77.20104140014058,28.581572200196945],[77.21154220001256,28.58023640028972],[77.20497220010702,28.56117930028455],[77.20891520027635,28.558258599954456],[77.21486830033183,28.563255899640126],[77.222633500136,28.558508199593803],[77.22331180029943,28.556240700248168],[77.22516149980345,28.559804899676408],[77.23819969995623,28.557479600003603],[77.2457098996922,28.559157000195455],[77.24673990042612,28.553728999893508],[77.24978679992091,28.552447299603273],[77.25540870035132,28.560645899788483],[77.26669549959769,28.56748700032483],[77.2766089000807,28.56034440027389],[77.28029969977138,28.553860899860695],[77.27450609987665,28.549978200133864],[77.27021449999921,28.539158700313806],[77.27197410002475,28.537311300376246],[77.27699520026835,28.534257500383376],[77.27911468289636,28.53435260099178],[77.27532110598429,28.541765121763035],[77.27592788306544,28.543166277201976],[77.27877228761105,28.540582906276143],[77.282039347438,28.541406934382564],[77.28520782358225,28.539085850731453],[77.29183430001297,28.539964581000675],[77.29878855055125,28.54302736522078],[77.30109417305772,28.538732788587367],[77.2862157270742,28.530299377214533],[77.2870668616464,28.52707589943327],[77.28960909038727,28.5226297870351],[77.29385622418545,28.525602109349904],[77.29624935612293,28.526733605771312],[77.30299105639222,28.53002386271112],[77.30462768402043,28.53019538680769],[77.30937154396162,28.53004137880663],[77.31318561732246,28.530568727764603],[77.32285736907238,28.537039229377],[77.31301099955806,28.544969999765726],[77.30836854717074,28.551317787086248],[77.3051379998189,28.555734999770493],[77.30375699998564,28.56126400023345],[77.30167290478079,28.567495714755466],[77.29976135440302,28.567517055667622],[77.2965007616009,28.57403872240917],[77.29406171657502,28.573727417586326],[77.29076411487205,28.57741810935829],[77.28557499429058,28.580047903288175],[77.27477443779014,28.580066638864366],[77.27019153940807,28.58252162527282],[77.26071515727875,28.589867941552313],[77.25657118741043,28.590417713306863],[77.25134476025255,28.596984180675463],[77.26074840341613,28.599673874849486],[77.2573614001086,28.602947800100935],[77.2551391996144,28.609722599918086]]]}},{"type":"Feature","properties":{"blockName":"Narela","districtName":"North ","state":"Delhi"},"geometry":{"type":"Polygon","coordinates":[[[77.05726351739747,28.745738230834718],[77.07120157559228,28.74566462132526],[77.07289850995835,28.744255678656714],[77.072406245352,28.738859725695818],[77.0845243859917,28.731256118774922],[77.09164933504883,28.739862946417873],[77.09897856510872,28.742481920604178],[77.09923979388145,28.744104043067182],[77.09456738867408,28.74588693103709],[77.09342329544876,28.748546718256478],[77.09422136372501,28.765940220864536],[77.09838103575623,28.76964966709852],[77.10386941833906,28.767623685184958],[77.10019059761805,28.761612855848682],[77.10160781225079,28.75952948999401],[77.10476026337551,28.76025556664115],[77.1108900442402,28.75761216237146],[77.11509448991882,28.75345634663313],[77.1216765982964,28.75215760868673],[77.1213667377848,28.754710217402646],[77.10414092276545,28.767883099125754],[77.11731152380781,28.783280773189176],[77.12098589917997,28.78639436101099],[77.12794148071481,28.789094881223832],[77.12595235211938,28.793529034437427],[77.12192571230185,28.796104815085187],[77.12205134309505,28.801207319262403],[77.11963097429009,28.805389470747514],[77.1121326752828,28.81192645564147],[77.11305976659503,28.81502701768278],[77.11868135226263,28.816469157026006],[77.12003432742233,28.82476021561149],[77.12859526895653,28.82601585804548],[77.13592350166834,28.83305143607498],[77.12881534565173,28.837115406750684],[77.12038639581556,28.837897407739206],[77.1161776109081,28.845951974304228],[77.12180445041508,28.85485594334716],[77.12463067786354,28.86070282987174],[77.11997199990793,28.860889000327177],[77.10973399992423,28.867220000003044],[77.10535585019238,28.867810958908706],[77.09361300023983,28.869395999625738],[77.08612100008412,28.879321999610625],[77.08041400040582,28.874797999628015],[77.07592000000807,28.86780500000083],[77.05999000013844,28.8680040001845],[77.04931259320165,28.85004402271352],[77.04785900009284,28.84759899989399],[77.0417099998167,28.831610000001547],[77.03483600028125,28.83110199995741],[77.02895399972738,28.831892000415564],[77.01937681978444,28.830490692991134],[77.01674126659623,28.83011542118976],[77.01272493480798,28.831045484761376],[76.99986299997755,28.834022999761658],[76.99363699974782,28.833956000269268],[76.98967699969381,28.83157500018615],[76.98379500003927,28.820711000112624],[76.98066385385386,28.819980132776948],[76.97093200041155,28.826554999813425],[76.96810899973059,28.82521800021061],[76.96585099992376,28.814906999558445],[76.96980898099974,28.8045187003778],[76.974201781587,28.79968776717675],[76.97876569887796,28.795439672003283],[76.9908771485616,28.789515761243422],[76.99568262285482,28.78727423341917],[77.00003851616464,28.785669737668286],[77.01605784029715,28.780284045072676],[77.01635404820081,28.764554769387132],[77.01892850684516,28.75972876896759],[77.01868253057438,28.757866952897587],[77.02179957808812,28.75750655858087],[77.03110880502737,28.75396750509634],[77.03586149990838,28.75902768358077],[77.0388000679688,28.760347492642723],[77.04100740536751,28.761389522708384],[77.04376963885778,28.763660941299463],[77.04742900724295,28.76693505630783],[77.05138996057826,28.768146493465963],[77.05655254396481,28.760475341164124],[77.05841334020357,28.75796281882907],[77.05894225757919,28.757151987374357],[77.05726351739747,28.745738230834718]]]}},{"type":"Feature","properties":{"blockName":"Saraswati Vihar","districtName":"North West","state":"Delhi"},"geometry":{"type":"Polygon","coordinates":[[[77.14136520044372,28.667590399677238],[77.15198679995092,28.670320399666764],[77.15594360021703,28.67270570030786],[77.15950979973752,28.664532800048732],[77.15610670036398,28.662864699746137],[77.16516350019543,28.657523799683645],[77.17661799962104,28.672202999968533],[77.18399089986019,28.677592899592696],[77.17647209990753,28.687259400201185],[77.17717380043058,28.689672599610844],[77.17845699989067,28.687560600241568],[77.18498870036831,28.685154900278462],[77.18965790039186,28.69110309992817],[77.1623627001785,28.707071999972868],[77.16445759983844,28.708998099582686],[77.16259860044511,28.712479199855238],[77.16521640011683,28.71387189986831],[77.16262640028822,28.71759039957732],[77.1578381003481,28.719481000248038],[77.16131430021483,28.72659390018839],[77.15835309981577,28.730695899596128],[77.1523837004475,28.726680299856014],[77.14539710039594,28.729371100196147],[77.14213639967517,28.7263907999955],[77.13935680027618,28.719744200334617],[77.13280359970639,28.70890829957841],[77.13349030043707,28.705181900224545],[77.12562780028281,28.704009300289044],[77.12116679960815,28.709856700326498],[77.12238560041516,28.713271499879852],[77.11797239960663,28.7092585999045],[77.11312289990195,28.709070399679263],[77.1090566998069,28.7041018998828],[77.10464709988383,28.705560500416823],[77.10361719987395,28.69989530032791],[77.10124610042726,28.69779669995779],[77.09982990022979,28.698191999661105],[77.09875700003556,28.695867399660813],[77.09990499991585,28.693119399740567],[77.0973518003454,28.689031300254328],[77.10429709993127,28.68384850010824],[77.10862319960103,28.686344699748133],[77.11874909999102,28.681563300306095],[77.12421370000231,28.6873744999333],[77.12739200034059,28.685836300405015],[77.1245467000702,28.682600400288266],[77.13406000026885,28.67843160013831],[77.13608450009968,28.67883070037658],[77.13527770030566,28.67783010027898],[77.1371541996067,28.67670430016335],[77.14136520044372,28.667590399677238]]]}},{"type":"Feature","properties":{"blockName":"Civil Lines","districtName":"Central","state":"Delhi"},"geometry":{"type":"Polygon","coordinates":[[[77.23488749955851,28.670901799678347],[77.23906935966329,28.680321273607944],[77.23634414226842,28.680212048247483],[77.23582261102473,28.686690479182346],[77.235622814941,28.687809871628303],[77.23430530004964,28.690922623979986],[77.23503561789948,28.69452236911212],[77.23469880110883,28.696227996325035],[77.2347136273321,28.698983770884354],[77.23579399099992,28.706550653989552],[77.23853163702546,28.709812174892022],[77.23825600291224,28.71445744665391],[77.24124568304188,28.724251783193267],[77.24011948992256,28.728108622914647],[77.23261086220157,28.727600819822044],[77.22861573822581,28.72733056095666],[77.23082080393704,28.732568107332327],[77.23057368912453,28.735139712427838],[77.2267080333491,28.741774178435662],[77.22616602274383,28.74669114887746],[77.22578610594411,28.750930089851806],[77.22546432491873,28.75132514314089],[77.22493409183494,28.75170563910399],[77.22190279737623,28.751784229958275],[77.22031479069511,28.751894012898447],[77.22008770378454,28.752854542802936],[77.22065245644575,28.757590048941665],[77.22068189935021,28.758579374238764],[77.21963178527875,28.760549529836965],[77.21709821790847,28.765874534382306],[77.21718976619479,28.7663864608665],[77.21811249939236,28.768824245942255],[77.20680422973146,28.778131134644184],[77.20757068324048,28.784021822649038],[77.21062377906424,28.78641274315362],[77.20954502967942,28.787517592662823],[77.20691476090752,28.784252458284357],[77.20505525159865,28.783249796041332],[77.2027852998018,28.784059889152616],[77.19847205414203,28.7782716654051],[77.19465270625744,28.77576966244004],[77.19068941378549,28.77257881296191],[77.18614580498496,28.771070758708618],[77.1743495739737,28.773413165285376],[77.17386211624375,28.76900038895684],[77.17694497692918,28.76631975904968],[77.17682969463476,28.763228987028185],[77.17736186305962,28.760642658232143],[77.18126449176293,28.75992136687762],[77.18128452865813,28.75722294118583],[77.18474198035818,28.75574115343153],[77.18285212882273,28.752531190661955],[77.17976857655862,28.750687352939053],[77.17067874822573,28.741579732418757],[77.17490026123812,28.739711155245686],[77.18157591709496,28.737630098850047],[77.18314790235388,28.737154570626956],[77.18229469304572,28.73581967813567],[77.17898297468457,28.73224851255884],[77.18246013862455,28.733060238839016],[77.19422824873476,28.730685212952267],[77.19491699991966,28.72794870007249],[77.19238709998473,28.72518079995399],[77.20049829955695,28.72924309968937],[77.21413229966595,28.724341600284674],[77.21838519991712,28.717318799822806],[77.22086789983376,28.7158772998975],[77.2175655002477,28.708533999944166],[77.20590119978061,28.69253720023164],[77.18965790039186,28.69110309992817],[77.18498870036831,28.685154900278462],[77.17845699989067,28.687560600241568],[77.17717380043058,28.689672599610844],[77.17647209990753,28.687259400201185],[77.18399089986019,28.677592899592696],[77.17661799962104,28.672202999968533],[77.16516350019543,28.657523799683645],[77.17081540021059,28.648361100184673],[77.17742270039736,28.644742800240067],[77.18191619987277,28.65203070015673],[77.18991989988353,28.65936940007782],[77.20983270031894,28.650213500352834],[77.20855590043453,28.656709799917394],[77.21154930016013,28.66048500008276],[77.2136493997001,28.667312500171818],[77.21916140027844,28.666655899750026],[77.23488749955851,28.670901799678347]]]}},{"type":"Feature","properties":{"blockName":"Seelam Pur","districtName":"North East","state":"Delhi"},"geometry":{"type":"Polygon","coordinates":[[[77.2575585000248,28.660228599770107],[77.25414800013016,28.66639240018918],[77.25661029982552,28.6701719000132],[77.2606337002851,28.669061099690055],[77.27136330027616,28.67359439956192],[77.27375909960284,28.69429370029411],[77.27445649956786,28.695562300160077],[77.27858841492349,28.696078046064997],[77.2773835599034,28.69838070080874],[77.27867362029139,28.702285901573134],[77.27185496143738,28.70151675909119],[77.27176208215445,28.704801555347558],[77.2709258718316,28.70535473013672],[77.26938098044792,28.707077076645817],[77.26950025573228,28.710437137164206],[77.27036619674266,28.713034390924463],[77.27268651327205,28.71345108190195],[77.27268110924587,28.714884020281374],[77.27144945712678,28.714732219216614],[77.27036855656371,28.714436823400717],[77.26878509595548,28.715000284635494],[77.26399877902048,28.71357958962642],[77.26329703892725,28.70756124285714],[77.25568906220053,28.709019840693145],[77.2554673433433,28.701562003084007],[77.23579399099992,28.706550653989552],[77.2347136273321,28.698983770884354],[77.23469880110883,28.696227996325035],[77.23503561789948,28.69452236911212],[77.23430530004964,28.690922623979986],[77.235622814941,28.687809871628303],[77.23582261102473,28.686690479182346],[77.23634414226842,28.680212048247483],[77.23906935966329,28.680321273607944],[77.23488749955851,28.670901799678347],[77.24076850006628,28.66338149965651],[77.2575585000248,28.660228599770107]]]}},{"type":"Feature","properties":{"blockName":"Preet Vihar","districtName":"East","state":"Delhi"},"geometry":{"type":"Polygon","coordinates":[[[77.284782482026,28.613879233140153],[77.28688319400425,28.61031427468407],[77.28199783473235,28.606665170261465],[77.28424216574342,28.60358500034755],[77.28670455267303,28.599356163256402],[77.28898408584695,28.595500355057368],[77.28622976099473,28.59526534062303],[77.27877959280403,28.590268276559755],[77.27019153940807,28.58252162527282],[77.27477443779014,28.580066638864366],[77.28557499429058,28.580047903288175],[77.29076411487205,28.57741810935829],[77.29684385206218,28.584000109817282],[77.3037380917396,28.588137057779022],[77.30048900666236,28.591814017802733],[77.29740554343113,28.5910276254246],[77.29422030032663,28.59480797690668],[77.29248604589435,28.598498726235277],[77.29601186495569,28.600901315443423],[77.2956233200602,28.60282207577825],[77.2912607825591,28.605580229044392],[77.29120666315703,28.61100583714972],[77.29307670172847,28.61341642043152],[77.29200555161498,28.61630680731338],[77.29212713725764,28.618135880866248],[77.2925552370346,28.619565358654427],[77.29003626296321,28.618532340695026],[77.28347640741032,28.616019791380324],[77.284782482026,28.613879233140153]]]}},{"type":"Feature","properties":{"blockName":"Delhi Cantonment","districtName":"New Delhi","state":"Delhi"},"geometry":{"type":"Polygon","coordinates":[[[77.10226309966237,28.61182709984081],[77.10201190012913,28.60634599996797],[77.09803270044881,28.601085600020497],[77.10222740017446,28.596753900272347],[77.08050269963991,28.571102999803657],[77.06931679983052,28.57737810031915],[77.06192889979894,28.569636899823138],[77.05899140013304,28.57046419966315],[77.05037080027228,28.558705300409315],[77.06998229994326,28.547989700164578],[77.0716560003242,28.550732199831202],[77.08138700030986,28.553220099627936],[77.08405850029959,28.556725700130983],[77.08456279963355,28.558798900049226],[77.08312510024325,28.560231299734767],[77.08443399962943,28.561738999655176],[77.08958389987714,28.56181439971482],[77.09121460007378,28.56307710002818],[77.10138559966578,28.556405400289066],[77.11033339986659,28.55344629980692],[77.11490390019492,28.557498500155702],[77.1167922003998,28.557592699643408],[77.14264870027733,28.553050500080587],[77.15112450029551,28.564075899683075],[77.16084480014746,28.558535100114852],[77.162798223859,28.559113525169096],[77.16445306096006,28.560848109652568],[77.16288329972457,28.562436299795422],[77.16269010016805,28.564113600162557],[77.15929979994587,28.56596050007704],[77.16339820026678,28.57278240008776],[77.15623140035888,28.574421800325865],[77.16166020015817,28.582731699708233],[77.1591925000339,28.584408699701783],[77.16350550017876,28.588798799624954],[77.16893429997799,28.584860900410263],[77.17929840020105,28.58163880039035],[77.1834179004158,28.583622200304376],[77.17554870031233,28.587018300254385],[77.16816180032686,28.596580099991684],[77.17172380001341,28.60185520025732],[77.16983559963325,28.603616599826296],[77.17503899965016,28.611698200011972],[77.17686290030264,28.619505999802072],[77.1810685996362,28.623668600025894],[77.17898940034058,28.625466200005178],[77.17597560039371,28.630238299557902],[77.1654320998116,28.62788350032332],[77.16427580008815,28.632833400341212],[77.1549810998979,28.64015780014239],[77.15037559975417,28.637050100182023],[77.14362430012142,28.642473299902917],[77.13855389994256,28.638140000260876],[77.13577300012389,28.64008349995362],[77.13070529970986,28.6394418003988],[77.12600309996316,28.636367600184656],[77.11996999981568,28.62690250005039],[77.11852969958602,28.627493799799083],[77.11629219982524,28.622486600376362],[77.11426579972692,28.62254160021473],[77.11402509977859,28.6201020003071],[77.10831629965759,28.61460179973335],[77.10226309966237,28.61182709984081]]]}},{"type":"Feature","properties":{"blockName":"Alipur","districtName":"North ","state":"Delhi"},"geometry":{"type":"Polygon","coordinates":[[[77.17682969463476,28.763228987028185],[77.17694497692918,28.76631975904968],[77.17386211624375,28.76900038895684],[77.1743495739737,28.773413165285376],[77.18614580498496,28.771070758708618],[77.19068941378549,28.77257881296191],[77.19465270625744,28.77576966244004],[77.19847205414203,28.7782716654051],[77.2027852998018,28.784059889152616],[77.20505525159865,28.783249796041332],[77.20691476090752,28.784252458284357],[77.20954502967942,28.787517592662823],[77.20716900014929,28.789950999838823],[77.20468899999742,28.796961000250008],[77.20487999981219,28.81002200001535],[77.22140803535262,28.808406778050426],[77.22392300024632,28.808160999630502],[77.22701430286781,28.82629359387431],[77.2276379997939,28.82995199998487],[77.22094000028085,28.839964000338398],[77.22180899988547,28.849605999817072],[77.21515699979574,28.85759000017839],[77.19721199963413,28.86152099979438],[77.19399299957735,28.856999999950062],[77.1749110000427,28.855353999587464],[77.16092699998114,28.84316999979569],[77.15264899955173,28.83719400030293],[77.14945999997906,28.836398999614175],[77.14406600034567,28.839446999879215],[77.14585900029266,28.84742900014828],[77.1453629999026,28.85322999966479],[77.1388400003658,28.860133999684365],[77.12463067786354,28.86070282987174],[77.12180445041508,28.85485594334716],[77.1161776109081,28.845951974304228],[77.12038639581556,28.837897407739206],[77.12881534565173,28.837115406750684],[77.13592350166834,28.83305143607498],[77.12859526895653,28.82601585804548],[77.12003432742233,28.82476021561149],[77.11868135226263,28.816469157026006],[77.11305976659503,28.81502701768278],[77.1121326752828,28.81192645564147],[77.11963097429009,28.805389470747514],[77.12205134309505,28.801207319262403],[77.12192571230185,28.796104815085187],[77.12595235211938,28.793529034437427],[77.12794148071481,28.789094881223832],[77.12098589917997,28.78639436101099],[77.11731152380781,28.783280773189176],[77.10414092276545,28.767883099125754],[77.1213667377848,28.754710217402646],[77.1216765982964,28.75215760868673],[77.11509448991882,28.75345634663313],[77.1108900442402,28.75761216237146],[77.10476026337551,28.76025556664115],[77.10160781225079,28.75952948999401],[77.10019059761805,28.761612855848682],[77.10386941833906,28.767623685184958],[77.09838103575623,28.76964966709852],[77.09422136372501,28.765940220864536],[77.09342329544876,28.748546718256478],[77.09456738867408,28.74588693103709],[77.09923979388145,28.744104043067182],[77.09897856510872,28.742481920604178],[77.10501759088919,28.73847318269128],[77.10399655819464,28.73705162523237],[77.11057130022539,28.73593399995417],[77.11669959990667,28.731822799582574],[77.1212164997417,28.7228716997692],[77.12238560041516,28.713271499879852],[77.12116679960815,28.709856700326498],[77.12562780028281,28.704009300289044],[77.13349030043707,28.705181900224545],[77.13280359970639,28.70890829957841],[77.13935680027618,28.719744200334617],[77.14213639967517,28.7263907999955],[77.14539710039594,28.729371100196147],[77.1523837004475,28.726680299856014],[77.15835309981577,28.730695899596128],[77.16015770011785,28.732707299902017],[77.15456675615093,28.746028874632884],[77.16206591221214,28.748336429782455],[77.16235201443396,28.755484304357196],[77.16278705158123,28.763509832712657],[77.16708476235198,28.762395513342312],[77.17357427563235,28.76406182129608],[77.17558717780605,28.764033114037034],[77.17682969463476,28.763228987028185]]]}},{"type":"Feature","properties":{"blockName":"Rohini","districtName":"North West","state":"Delhi"},"geometry":{"type":"Polygon","coordinates":[[[77.0973518003454,28.689031300254328],[77.09990499991585,28.693119399740567],[77.09875700003556,28.695867399660813],[77.09982990022979,28.698191999661105],[77.10124610042726,28.69779669995779],[77.10361719987395,28.69989530032791],[77.10464709988383,28.705560500416823],[77.1090566998069,28.7041018998828],[77.11312289990195,28.709070399679263],[77.11797239960663,28.7092585999045],[77.12238560041516,28.713271499879852],[77.1212164997417,28.7228716997692],[77.11669959990667,28.731822799582574],[77.11057130022539,28.73593399995417],[77.10399655819464,28.73705162523237],[77.10501759088919,28.73847318269128],[77.09897856510872,28.742481920604178],[77.09164933504883,28.739862946417873],[77.0845243859917,28.731256118774922],[77.072406245352,28.738859725695818],[77.07289850995835,28.744255678656714],[77.07120157559228,28.74566462132526],[77.05726351739747,28.745738230834718],[77.05629774624407,28.744143624928427],[77.05723093226175,28.743088337956465],[77.06024653804735,28.738840064717238],[77.05887803519323,28.729832268944108],[77.06213405764072,28.727922680887048],[77.05988036558648,28.72386129396358],[77.05570822535435,28.721003269185587],[77.04961991492718,28.719516341805786],[77.04363212262444,28.723227446389615],[77.03061106265045,28.722965716694546],[77.01249999817645,28.72504852407019],[77.00521021867672,28.71227968166204],[77.01089140781227,28.698721685057762],[77.01356897642717,28.696078093729113],[77.01549148504404,28.697837625406123],[77.0263639657245,28.69769471324048],[77.03978280663125,28.688691808879923],[77.04823194265009,28.687449783980412],[77.05065528731171,28.687405742381145],[77.05151372797621,28.68611960213798],[77.06009721011822,28.685976689972335],[77.06066946042733,28.684690549729112],[77.06853772793386,28.68483346279413],[77.06868082356124,28.68340448323039],[77.07883795920452,28.684690549729112],[77.0789810548319,28.68340448323039],[77.08155611242472,28.683690235615927],[77.08184217057976,28.685262200190436],[77.08456032469928,28.68540511235608],[77.08456032469928,28.68754858170172],[77.08799556224545,28.68743030556419],[77.09047793031232,28.68563875982096],[77.0935602001432,28.689516899984994],[77.0973518003454,28.689031300254328]]]}},{"type":"Feature","properties":{"blockName":"Dwarka","districtName":"South West","state":"Delhi"},"geometry":{"type":"Polygon","coordinates":[[[77.09483209962178,28.616972200406792],[77.0860601996186,28.61655970026999],[77.08386429979765,28.614682700046615],[77.06530730019182,28.623331400124073],[77.06054689991953,28.61767590012272],[77.05271509992195,28.61773609984118],[77.05173859985655,28.61629719985592],[77.05647890028109,28.610404900265962],[77.05217980005779,28.607147699706616],[77.06119950015687,28.600279300249554],[77.05757500028608,28.599307000018086],[77.05548719987445,28.595902700049635],[77.03654309968437,28.603125499842008],[77.03300050017299,28.614490399812155],[77.03405130042722,28.616490500136536],[77.02982591943072,28.619184761067913],[77.03009896169777,28.625275743380882],[77.02146429823881,28.624317507646936],[77.01414792488686,28.624340449352303],[77.01169097256042,28.62612801379686],[77.00656331794283,28.633820393696283],[77.00541844770328,28.63447834310108],[76.99735352004899,28.63243217320627],[76.9957566946158,28.631021636039748],[76.99879520523461,28.626550729332735],[77.00297226475828,28.62160414961187],[77.01751229495653,28.610893941702102],[77.01197070038756,28.609842000208175],[77.00974029987498,28.605142699875728],[77.01018771708954,28.604030924687493],[77.01834509774812,28.602582992810937],[77.02065625018588,28.600003639156682],[77.02105580997772,28.596231446324225],[77.01730439508185,28.591957153000237],[77.02560926005935,28.59097310672354],[77.02425899905364,28.585563189989273],[77.02578624034277,28.584028944780016],[77.03614555887049,28.581950350728164],[77.04325173008334,28.57749975790756],[77.03846983781284,28.570583045970864],[77.03439509056102,28.567438965735732],[77.02778557084747,28.559197746678706],[77.02439353763174,28.553960132853888],[77.0190348840527,28.549449316033133],[77.02081390044123,28.54833999959135],[77.03437510043062,28.550111799819774],[77.03804330015822,28.555425900085254],[77.04106880028496,28.553814400414296],[77.04321779956183,28.55595080018935],[77.04531749980282,28.55478519967727],[77.04682219958488,28.557199900055366],[77.048281800165,28.556412600261353],[77.05037080027228,28.558705300409315],[77.05899140013304,28.57046419966315],[77.06192889979894,28.569636899823138],[77.06931679983052,28.57737810031915],[77.08050269963991,28.571102999803657],[77.10222740017446,28.596753900272347],[77.09803270044881,28.601085600020497],[77.10201190012913,28.60634599996797],[77.10226309966237,28.61182709984081],[77.09483209962178,28.616972200406792]]]}},{"type":"Feature","properties":{"blockName":"Kapeshera","districtName":"South West","state":"Delhi"},"geometry":{"type":"Polygon","coordinates":[[[77.06998229994326,28.547989700164578],[77.05037080027228,28.558705300409315],[77.048281800165,28.556412600261353],[77.04682219958488,28.557199900055366],[77.04531749980282,28.55478519967727],[77.04321779956183,28.55595080018935],[77.04106880028496,28.553814400414296],[77.03804330015822,28.555425900085254],[77.03437510043062,28.550111799819774],[77.02081390044123,28.54833999959135],[77.0190348840527,28.549449316033133],[77.02439353763174,28.553960132853888],[77.02778557084747,28.559197746678706],[77.03439509056102,28.567438965735732],[77.03846983781284,28.570583045970864],[77.04325173008334,28.57749975790756],[77.03614555887049,28.581950350728164],[77.02578624034277,28.584028944780016],[77.02425899905364,28.585563189989273],[77.02560926005935,28.59097310672354],[77.01730439508185,28.591957153000237],[77.02105580997772,28.596231446324225],[77.0005312106469,28.59804291744672],[76.9882794838112,28.593660575075546],[76.9874065505719,28.596092565819333],[76.9852393238358,28.59653176323036],[76.98000001478891,28.59351591282916],[76.97653436936571,28.591171122149603],[76.96491557099688,28.576867594763712],[76.95852660282054,28.578168643967786],[76.9573320540311,28.582966609821256],[76.95519811929785,28.58377476669216],[76.9339775921922,28.585602018218594],[76.93042677827327,28.58053089768282],[76.93044839257931,28.57419559295232],[76.93719891519783,28.569224369109406],[76.92114718039812,28.56559951130845],[76.90859737237088,28.560521874285143],[76.9090212876024,28.549667517641865],[76.91241766004703,28.54952794735692],[76.91156781959927,28.54185610077849],[76.91578242491903,28.538783367358576],[76.91376249904016,28.533297065807005],[76.91163955672022,28.532017034658452],[76.90818094039815,28.532492694182565],[76.89276146676832,28.537494174816345],[76.89242503218952,28.53327148279277],[76.89562829411057,28.529238723088667],[76.8941457059596,28.526816221991112],[76.88966775576239,28.526828940203472],[76.88456478303834,28.524713552188757],[76.88586400032341,28.523261999641647],[76.88899199978101,28.518853999612418],[76.88333100042541,28.509254000271937],[76.8888929997122,28.50390600006193],[76.89633900044458,28.50608099963847],[76.90700500038054,28.51260900030519],[76.91802179077308,28.509738313972036],[76.93222799982237,28.514083999976663],[76.93744013315569,28.51248847676186],[76.94829574884977,28.50968357943367],[76.95083531379873,28.509145335189146],[76.95421600026827,28.508428999998387],[76.9780959998306,28.522356000129378],[76.99990905156153,28.514538985885565],[77.00833176909595,28.511591035198194],[77.01518999991862,28.50919000001852],[77.0205919999209,28.512773999820297],[77.02100934380621,28.518328231662622],[77.00787399978532,28.52689699999661],[77.00562300030128,28.53165600002444],[77.00988800003125,28.536766000050932],[77.01578500037755,28.537518999702115],[77.02533700020246,28.528069000084315],[77.02931305225559,28.528007985580132],[77.0355219428834,28.525741382858598],[77.04283985137812,28.523068059043737],[77.04602836531689,28.519544250866545],[77.04927511215675,28.515956086304413],[77.05133825585585,28.51367586604846],[77.0584490001213,28.50994899994646],[77.06664300027433,28.508568000113144],[77.07717100014162,28.515337000202464],[77.07753226410279,28.515310480993946],[77.07868420211429,28.517023636431702],[77.07954067955876,28.518297384017103],[77.08467152227297,28.522649231277057],[77.08485273836322,28.52453521033175],[77.084112196121,28.533742434365877],[77.08660683903446,28.534565859027225],[77.0883851998172,28.53826199979153],[77.06994959969433,28.54338560026531],[77.06998229994326,28.547989700164578]]]}},{"type":"Feature","properties":{"blockName":"Mehrauli","districtName":"South","state":"Delhi"},"geometry":{"type":"Polygon","coordinates":[[[77.11119799998778,28.47113599972664],[77.11240399984479,28.46510500039551],[77.11569999985517,28.460542999559834],[77.11927366914455,28.45032889096558],[77.12166862041056,28.445794895018423],[77.12215399980732,28.44487600012735],[77.12792999996958,28.43706499965009],[77.13483767102178,28.433781487625595],[77.15205399999218,28.430328000137138],[77.1614990002787,28.42292200035007],[77.16397900043057,28.415901000330962],[77.17537699994864,28.403052999596298],[77.18913300028777,28.40695799981188],[77.20487200034262,28.40710100011114],[77.19955398622756,28.411111772290496],[77.18739835734834,28.425050227086388],[77.18111107911307,28.435361187269052],[77.18633535239468,28.443035374782767],[77.18859891091108,28.44974475341769],[77.18512769238913,28.452609836075112],[77.18971309088647,28.462620529713718],[77.18126301057953,28.47164062731315],[77.17768540765547,28.46983174084221],[77.17312810307953,28.47067534808889],[77.16849758109856,28.477587369161824],[77.17522828625647,28.488382783338807],[77.17419157478139,28.498068407131314],[77.17677118833973,28.499994209065562],[77.17637540030455,28.502766300024803],[77.17405219964934,28.50447860020728],[77.17903589978698,28.509747100348477],[77.18231460043853,28.521517900330878],[77.18742949997153,28.520694800324804],[77.18902199966561,28.524678500212644],[77.18907820009889,28.525781399991672],[77.1818837001727,28.52935340013937],[77.18270809969908,28.53215170004097],[77.18658639994248,28.53350139986975],[77.18851610043777,28.53715550002636],[77.19612280012717,28.541879199865207],[77.20039449980635,28.54760669958955],[77.19831490031248,28.548429500121358],[77.1975279998174,28.547063500080526],[77.18819760013918,28.544891100443976],[77.18024089959789,28.546703300017327],[77.17690363689337,28.546232683891276],[77.17755587200594,28.543645305586438],[77.17465613397349,28.540563265082653],[77.16727451210909,28.54155166138014],[77.15736048479857,28.529812941114415],[77.15261062008409,28.53447727670499],[77.1409450497743,28.538227347114457],[77.13944182488035,28.536766105271568],[77.13540452809656,28.526301188349237],[77.12985246901627,28.520978075078176],[77.12057645583883,28.515791388062155],[77.11906240220816,28.513784609372294],[77.11876374904784,28.510473667126064],[77.12602644186688,28.504903796073393],[77.11990607690399,28.497039661850977],[77.11938764202614,28.493346931315898],[77.13283567672516,28.50137703272395],[77.138965605978,28.500915219162096],[77.14740680907704,28.5051026181913],[77.15663640734437,28.50529464683052],[77.16713620357297,28.498166786667923],[77.17057365075345,28.49756087923123],[77.17138246323015,28.495137173941487],[77.16616573615983,28.48851261126805],[77.16434591123488,28.48851261126805],[77.16212181227189,28.486088905978306],[77.15705648426939,28.48703533721107],[77.13102401314774,28.477269691742947],[77.12076669033053,28.469465247323342],[77.11585012997955,28.470907208600863],[77.11119799998778,28.47113599972664]]]}},{"type":"Feature","properties":{"blockName":"Saket","districtName":"South","state":"Delhi"},"geometry":{"type":"Polygon","coordinates":[[[77.20487200034262,28.40710100011114],[77.21556100043989,28.407965000384536],[77.2232757725589,28.40988078656909],[77.2249760002423,28.410303000283307],[77.2324300004442,28.413521000293997],[77.25034300002949,28.423400999956243],[77.25291399988123,28.42822500028359],[77.25402799999227,28.436206999653336],[77.25302899978857,28.442035999561767],[77.24961899991695,28.44815800039146],[77.24285900024273,28.454006000276763],[77.23618299994553,28.454816999904665],[77.23549699978679,28.458569000259217],[77.23738899980253,28.46430799961456],[77.23793290168214,28.464994417958053],[77.22997594033745,28.470068940629176],[77.22541423897599,28.47176852439793],[77.21626610399755,28.472221744038336],[77.21096645673663,28.47589559780363],[77.20958261234773,28.478052697274222],[77.21236898544038,28.486365190301342],[77.20731319924482,28.4913975617481],[77.21018038271853,28.49872454710021],[77.20958090003859,28.50083432784203],[77.21261937018784,28.503812637842998],[77.20890779435928,28.504595799856304],[77.20328268065123,28.508965577799245],[77.19778707201584,28.510207133252663],[77.20146879035246,28.51608796828515],[77.20859143894381,28.514365176611648],[77.20706440000214,28.515410400169856],[77.20738290030067,28.51820900044504],[77.20143900030968,28.519388099781054],[77.20269899995895,28.528135399728967],[77.19880200011227,28.53078550035059],[77.19823989955177,28.52913949998799],[77.19436160020774,28.529797899953167],[77.18658639994248,28.53350139986975],[77.18270809969908,28.53215170004097],[77.1818837001727,28.52935340013937],[77.18907820009889,28.525781399991672],[77.18902199966561,28.524678500212644],[77.18742949997153,28.520694800324804],[77.18231460043853,28.521517900330878],[77.17903589978698,28.509747100348477],[77.17405219964934,28.50447860020728],[77.17637540030455,28.502766300024803],[77.17677118833973,28.499994209065562],[77.17419157478139,28.498068407131314],[77.17522828625647,28.488382783338807],[77.16849758109856,28.477587369161824],[77.17312810307953,28.47067534808889],[77.17768540765547,28.46983174084221],[77.18126301057953,28.47164062731315],[77.18971309088647,28.462620529713718],[77.18512769238913,28.452609836075112],[77.18859891091108,28.44974475341769],[77.18633535239468,28.443035374782767],[77.18111107911307,28.435361187269052],[77.18739835734834,28.425050227086388],[77.19955398622756,28.411111772290496],[77.20487200034262,28.40710100011114]]]}},{"type":"Feature","properties":{"blockName":"Sarita Vihar","districtName":"South East","state":"Delhi"},"geometry":{"type":"MultiPolygon","coordinates":[[[[77.2699129995853,28.482974999796454],[77.28096000000403,28.491564000178528],[77.2879030000235,28.492680000381768],[77.2956389997401,28.490794999789443],[77.30612200023018,28.485669999970582],[77.31672700005106,28.48519299955734],[77.33158900013228,28.493881000008173],[77.336570999652,28.497954999923365],[77.33889799994279,28.502824999674033],[77.34436800038299,28.50558300005548],[77.34764899970162,28.503455999994458],[77.34675599988952,28.510168000153158],[77.34044600028272,28.518595000259097],[77.33418692658546,28.526785370748314],[77.3297059249885,28.53185150634198],[77.32483699992764,28.5359989997541],[77.32285736907238,28.537039229377],[77.31318561732246,28.530568727764603],[77.30937154396162,28.53004137880663],[77.30462768402043,28.53019538680769],[77.30299105639222,28.53002386271112],[77.29624935612293,28.526733605771312],[77.29385622418545,28.525602109349904],[77.30538644742666,28.514927053240967],[77.30861720342125,28.50170980076672],[77.30320325502623,28.501359936611834],[77.29357255462975,28.49698837980992],[77.29005906077708,28.499819766668963],[77.2785558270898,28.501320233342142],[77.27036905568741,28.491429636068915],[77.2699129995853,28.482974999796454]]],[[[77.2876437587525,28.52489103159587],[77.2870668616464,28.52707589943327],[77.2862157270742,28.530299377214533],[77.30109417305772,28.538732788587367],[77.29878855055125,28.54302736522078],[77.29183430001297,28.539964581000675],[77.28520782358225,28.539085850731453],[77.282039347438,28.541406934382564],[77.27877228761105,28.540582906276143],[77.27592788306544,28.543166277201976],[77.27532110598429,28.541765121763035],[77.27911468289636,28.53435260099178],[77.2819215218608,28.52978450095401],[77.28253207519515,28.52430987619988],[77.2876437587525,28.52489103159587]]]]}},{"type":"Feature","properties":{"blockName":"Yamuna Vihar","districtName":"North East","state":"Delhi"},"geometry":{"type":"Polygon","coordinates":[[[77.30312300042618,28.704344000075594],[77.29508999960387,28.707035000065275],[77.29440882071054,28.71063003364918],[77.29221496324999,28.707579044037686],[77.29129506201758,28.705912847599905],[77.28876275459749,28.706754646309946],[77.28719415438678,28.70971440779374],[77.28056242141867,28.7098857763076],[77.27268651327205,28.71345108190195],[77.27036619674266,28.713034390924463],[77.26950025573228,28.710437137164206],[77.26938098044792,28.707077076645817],[77.2709258718316,28.70535473013672],[77.27176208215445,28.704801555347558],[77.27185496143738,28.70151675909119],[77.27867362029139,28.702285901573134],[77.2773835599034,28.69838070080874],[77.27858841492349,28.696078046064997],[77.278299230725,28.690374095088487],[77.28385136624763,28.689318959202637],[77.28529736727972,28.69760765436979],[77.288152184176,28.697417353328262],[77.28817830498485,28.69388461937973],[77.29889542778182,28.690640410426624],[77.30012540086659,28.68843180408453],[77.30344815840584,28.690708256181154],[77.30312300042618,28.704344000075594]]]}},{"type":"Feature","properties":{"blockName":"Karawal Nagar","districtName":"North East","state":"Delhi"},"geometry":{"type":"Polygon","coordinates":[[[77.23579399099992,28.706550653989552],[77.2554673433433,28.701562003084007],[77.25568906220053,28.709019840693145],[77.26329703892725,28.70756124285714],[77.26399877902048,28.71357958962642],[77.26878509595548,28.715000284635494],[77.27036855656371,28.714436823400717],[77.27144945712678,28.714732219216614],[77.27268110924587,28.714884020281374],[77.27268651327205,28.71345108190195],[77.28056242141867,28.7098857763076],[77.28719415438678,28.70971440779374],[77.28876275459749,28.706754646309946],[77.29129506201758,28.705912847599905],[77.29221496324999,28.707579044037686],[77.29440882071054,28.71063003364918],[77.29385400016201,28.713557999602074],[77.29462399969788,28.718510000436197],[77.29144538819418,28.723717639857227],[77.28706400000368,28.728986999750305],[77.28132599979511,28.732780000196897],[77.27657300004398,28.733878999616195],[77.27012600041462,28.732725000358528],[77.26637300001397,28.734540999567514],[77.26207699975379,28.740112000168722],[77.26341200016373,28.7473999999101],[77.2586819996746,28.75215099956904],[77.25608799966153,28.751964999984807],[77.24820699955342,28.753848999631657],[77.24755086228254,28.754819449058402],[77.23926499997981,28.767072999719232],[77.2311400003108,28.77254700034382],[77.22732499974899,28.776332999568353],[77.23232300000649,28.778380999583533],[77.23493199981198,28.78227600023729],[77.22330499962607,28.78109399968838],[77.21868100042786,28.78184500014669],[77.21062377906424,28.78641274315362],[77.20757068324048,28.784021822649038],[77.20680422973146,28.778131134644184],[77.21811249939236,28.768824245942255],[77.21718976619479,28.7663864608665],[77.21709821790847,28.765874534382306],[77.21963178527875,28.760549529836965],[77.22068189935021,28.758579374238764],[77.22065245644575,28.757590048941665],[77.22008770378454,28.752854542802936],[77.22031479069511,28.751894012898447],[77.22190279737623,28.751784229958275],[77.22493409183494,28.75170563910399],[77.22546432491873,28.75132514314089],[77.22578610594411,28.750930089851806],[77.22616602274383,28.74669114887746],[77.2267080333491,28.741774178435662],[77.23057368912453,28.735139712427838],[77.23082080393704,28.732568107332327],[77.22861573822581,28.72733056095666],[77.23261086220157,28.727600819822044],[77.24011948992256,28.728108622914647],[77.24124568304188,28.724251783193267],[77.23825600291224,28.71445744665391],[77.23853163702546,28.709812174892022],[77.23579399099992,28.706550653989552]]]}},{"type":"Feature","properties":{"blockName":"Kanjhawala","districtName":"North West","state":"Delhi"},"geometry":{"type":"Polygon","coordinates":[[[77.01356897642717,28.696078093729113],[77.01089140781227,28.698721685057762],[77.00521021867672,28.71227968166204],[77.01249999817645,28.72504852407019],[77.03061106265045,28.722965716694546],[77.04363212262444,28.723227446389615],[77.04961991492718,28.719516341805786],[77.05570822535435,28.721003269185587],[77.05988036558648,28.72386129396358],[77.06213405764072,28.727922680887048],[77.05887803519323,28.729832268944108],[77.06024653804735,28.738840064717238],[77.05723093226175,28.743088337956465],[77.05629774624407,28.744143624928427],[77.05726351739747,28.745738230834718],[77.05894225757919,28.757151987374357],[77.05841334020357,28.75796281882907],[77.05655254396481,28.760475341164124],[77.05138996057826,28.768146493465963],[77.04742900724295,28.76693505630783],[77.04376963885778,28.763660941299463],[77.04100740536751,28.761389522708384],[77.0388000679688,28.760347492642723],[77.03586149990838,28.75902768358077],[77.03110880502737,28.75396750509634],[77.02179957808812,28.75750655858087],[77.01868253057438,28.757866952897587],[77.01892850684516,28.75972876896759],[77.01635404820081,28.764554769387132],[77.01605784029715,28.780284045072676],[77.00003851616464,28.785669737668286],[76.99568262285482,28.78727423341917],[76.9908771485616,28.789515761243422],[76.97876569887796,28.795439672003283],[76.974201781587,28.79968776717675],[76.96980898099974,28.8045187003778],[76.96585099992376,28.814906999558445],[76.95829000018341,28.8125499996828],[76.9523699996758,28.815574999786463],[76.94740299994857,28.804048999761562],[76.94751000038627,28.798390999644994],[76.95311699994966,28.789997000161463],[76.9523470004138,28.782639999936123],[76.953971999808,28.77340700043277],[76.9565809996135,28.76890899985051],[76.95438072099353,28.76514267419509],[76.9481660000609,28.754503000113402],[76.96026599957628,28.741514000071106],[76.95915200036455,28.736358999768072],[76.96027634267915,28.730636147740086],[76.95117200018774,28.71188899997742],[76.96086100003521,28.70461499998231],[76.9644999996753,28.700214000275935],[76.96871102839128,28.70141021910638],[76.96885412311934,28.703267935167105],[76.98115716257303,28.700409904093874],[76.98387531579323,28.69369345408967],[76.98802402688739,28.69255022691152],[76.99202964325349,28.689120618221978],[76.99388948800953,28.684547710408538],[76.99617848744731,28.684547710408538],[76.99832425815805,28.680832277387765],[77.00233000582517,28.680832275589125],[77.00461887306261,28.683547396295353],[77.00476196868993,28.687119917150483],[77.0076232166382,28.687405742381145],[77.0116288330043,28.691121248247043],[77.01148573737692,28.69397927932033],[77.01356897642717,28.696078093729113]]]}},{"type":"Feature","properties":{"blockName":"Karol Bagh","districtName":"Central","state":"Delhi"},"geometry":{"type":"Polygon","coordinates":[[[77.20983270031894,28.650213500352834],[77.18991989988353,28.65936940007782],[77.18191619987277,28.65203070015673],[77.17742270039736,28.644742800240067],[77.1752945995662,28.64173289975355],[77.19694049970434,28.644855600405663],[77.19760570034288,28.645684199766038],[77.21373110041003,28.636390600345976],[77.21921890023214,28.64198379981258],[77.22194320031849,28.63668699980525],[77.22195090031386,28.642040799743143],[77.21137759979644,28.643829800405],[77.20983270031894,28.650213500352834]]]}}]}