{"type":"FeatureCollection","features":[{"type":"Feature","properties":{"blockName":"Diu","districtName":"Daman","state":"Dadra and Nagar Haveli and Daman and Diu"},"geometry":{"type":"MultiPolygon","coordinates":[[[[73.06468199967458,20.500981999919418],[73.06738776743157,20.506955008267084],[73.068253996225,20.520001617080993],[73.06298329724143,20.52114084767203],[73.05697830000861,20.520367101560566],[73.05373780705423,20.522971324167315],[73.05360788559551,20.52525031954667],[73.04552921719966,20.523499191134817],[73.04034399967588,20.518750000012517],[73.04499800025758,20.51367199966313],[73.04601300029981,20.503292000325587],[73.05096400018851,20.50079700038134],[73.0578539995625,20.499855000108198],[73.06468199967458,20.500981999919418]]],[[[72.85860409660182,20.46751648639679],[72.85587996109138,20.468255613106123],[72.84132095070134,20.45785371257881],[72.83260514770944,20.4470432986094],[72.82874999961285,20.43833000022937],[72.82792000000808,20.424170000145466],[72.83037156269751,20.4102537253292],[72.82706842926467,20.40537116924412],[72.82792000000808,20.398279999622332],[72.82620221396104,20.38802347090649],[72.82113465294196,20.373469092924324],[72.82118396456838,20.36754746554317],[72.82539970573191,20.365334028942357],[72.82970176562407,20.36662615237509],[72.83507625086833,20.372870296427095],[72.84152200044002,20.375411999963887],[72.85405700023045,20.37296699962741],[72.86430399972988,20.3733730003637],[72.86899600026527,20.371310999702928],[72.88085899964318,20.369650000447223],[72.89354700019396,20.372146999584402],[72.8963780003445,20.376695999820583],[72.89564499981697,20.380364999944845],[72.88873300032776,20.384198999584214],[72.88685600010439,20.387180000356807],[72.88632199976053,20.39336799973347],[72.89061137111793,20.398202528424008],[72.89347097600478,20.398079747582358],[72.89581391857752,20.39938633121426],[72.901073019904,20.401793276738374],[72.90476337083294,20.405384443237494],[72.9059655998326,20.406653749071324],[72.90330499962607,20.41033599980659],[72.9026109999977,20.415241000271976],[72.89962800003224,20.41921400002616],[72.89583599963174,20.42136200015625],[72.86887400003513,20.415825000223606],[72.86510499979596,20.416176000222265],[72.86031300004498,20.419614999632586],[72.85932200021017,20.424371999568166],[72.8615490003861,20.428369999575864],[72.86811099992275,20.434410000221362],[72.87340500034054,20.44420599960722],[72.87704500002678,20.444621999905394],[72.8848799998122,20.44006200006129],[72.88877899975108,20.439156999695854],[72.8928070002429,20.4416690004241],[72.89315222659405,20.444038469399914],[72.89503972010704,20.444729413131938],[72.89433216859476,20.445361956689],[72.89100164361105,20.44809997053727],[72.88990897631828,20.44859839639895],[72.88806525460785,20.451081534285436],[72.88720523923047,20.454659307181316],[72.88853918113836,20.461047460571876],[72.8872308177481,20.462354717796018],[72.88417828220201,20.463292344666],[72.87801484510908,20.46177790162892],[72.86087763669366,20.464539433647985],[72.85826807571118,20.466016694215114],[72.85860409660182,20.46751648639679]]]]}},{"type":"Feature","properties":{"blockName":"Daman","districtName":"Diu","state":"Dadra and Nagar Haveli and Daman and Diu"},"geometry":{"type":"Polygon","coordinates":[[[70.98841509917753,20.721533154031874],[70.986621958037,20.721192338855417],[70.98526612842915,20.724785500950134],[70.98159428284993,20.72602601948529],[70.97989504532012,20.72367403692732],[70.97819188314895,20.72446817426686],[70.97502448259388,20.729278666777077],[70.96467337037978,20.730618805013876],[70.96044902810024,20.737323028734863],[70.93889865484908,20.732768672136558],[70.93434864287565,20.73474951437862],[70.93335567442489,20.7366000682386],[70.92746564742174,20.737375816240956],[70.91757202123188,20.741550445796463],[70.90890451992772,20.73779219425444],[70.90684592589884,20.73992427818297],[70.89443442820635,20.733737413750703],[70.88643347562447,20.733989691571082],[70.88160214852041,20.73112139023999],[70.87971749956301,20.73166757549825],[70.87599907359845,20.727361347248404],[70.87407999049924,20.72539025095938],[70.87139011466212,20.725686371628797],[70.87396719483024,20.7232712242876],[70.86983871758281,20.719378287577968],[70.87022456900871,20.716412589669346],[70.86761272824486,20.712036210702593],[70.86902646969588,20.706616235950605],[70.87395352603443,20.70551247821834],[70.87387612408389,20.70882585223137],[70.88805937254205,20.70861517704884],[70.89742878211268,20.704759702498336],[70.89888515592526,20.70311129015397],[70.89744091126909,20.700150898245397],[70.89973618347813,20.69914328523447],[70.91032022729672,20.701085803766887],[70.913240484261,20.69923253305501],[70.91697938239264,20.702022136512426],[70.91577961213943,20.706067907607917],[70.91848937738291,20.709111792575243],[70.9296863424508,20.711758975796158],[70.93746608699036,20.709863012468077],[70.93862627718102,20.70799594345806],[70.94443800650885,20.70575800752607],[70.94807005438958,20.705017525538437],[70.9493105045762,20.706249021175438],[70.95401252715646,20.703821954219848],[70.95998121426169,20.707146701059457],[70.96397089554046,20.705799148811707],[70.96875182283839,20.707707451737576],[70.97042887948925,20.706536864484747],[70.96970189542617,20.7051230115178],[70.9753747982084,20.704377538292817],[70.97567718895118,20.701966689711014],[70.97678584888786,20.70199360372186],[70.97972753219989,20.70623391346436],[70.9844034024951,20.707619989970624],[70.98671174095415,20.710127417646277],[70.98897481023937,20.709254525775805],[70.9942184702063,20.71090623503477],[70.99709062603165,20.713983456071674],[70.99791219179428,20.71621054707913],[70.9944606198618,20.71576485656294],[70.98994281261076,20.718691359318825],[70.98726172494872,20.71877678681932],[70.98841509917753,20.721533154031874]]]}}]}