{"type":"FeatureCollection","features":[{"type":"Feature","properties":{"blockName":"Pernem","districtName":"North Goa","state":"Goa"},"geometry":{"type":"Polygon","coordinates":[[[73.85926129037631,15.798929825650987],[73.85686492717468,15.799588931583969],[73.85410225031865,15.797012923407749],[73.85141799974093,15.789842000108251],[73.84713684009313,15.785322956289463],[73.84832800023707,15.780290000283344],[73.84322395372254,15.780469951926761],[73.84093483917155,15.778091955579328],[73.8384478395962,15.768200955409839],[73.83640299979868,15.76542600010987],[73.83003200007681,15.762956999565915],[73.8315659997711,15.758272000252646],[73.82970400023947,15.750909999796704],[73.82426500032955,15.739838000023724],[73.81154600014787,15.741991000384417],[73.80374099994725,15.735600999786357],[73.79391500007722,15.734288000390961],[73.78861200014376,15.727179999957059],[73.78423299965328,15.72575299980116],[73.77748100034796,15.725335000310054],[73.7667160003432,15.732612999590287],[73.7490840002265,15.734830000204397],[73.73951000028632,15.73265799986683],[73.73482500007373,15.727731000185543],[73.7317729996243,15.720813000419696],[73.7277530004007,15.719340999987196],[73.71381780924457,15.727508346033403],[73.70505792778118,15.727215176938898],[73.70250499710801,15.725606017303903],[73.70070275213038,15.727580952798803],[73.69865093988903,15.726863887358547],[73.69625895458717,15.72826640886774],[73.69540340973964,15.725024177523835],[73.69663215255184,15.722561650299951],[73.69337397353013,15.721788250427437],[73.69334154307779,15.72175739558736],[73.69237417382914,15.72591463405314],[73.68749312680643,15.727660317969367],[73.67826796759266,15.727584402598154],[73.67586997212157,15.726203489999136],[73.6806392648902,15.724080298567003],[73.67912943807318,15.721179957089419],[73.6828171863641,15.721846953674003],[73.68287514227404,15.71972973374028],[73.68721780116067,15.721594428540072],[73.68871884339995,15.720626483725312],[73.69426810019274,15.700404329995877],[73.69847448840699,15.694668588884326],[73.69812811991687,15.692245755936938],[73.70040506843924,15.69135578773944],[73.702250084274,15.687782265938893],[73.70604553087662,15.673606008810282],[73.71117054778261,15.663943147758118],[73.71530574566367,15.651282374182244],[73.71482794935042,15.649229454875467],[73.72237822827265,15.630055151623992],[73.72810151737116,15.625755451552891],[73.73233095071288,15.618019148764745],[73.73204687466358,15.60746535903911],[73.73819639294925,15.608059844186528],[73.74262661972278,15.603832761672663],[73.75135496106265,15.609116588060147],[73.75528930795525,15.616179348098512],[73.74793952928593,15.621849283117967],[73.74931667732284,15.62430252664035],[73.75468192293243,15.631115538651216],[73.76506516972188,15.632237525641358],[73.77580336992963,15.63818039860655],[73.77806923610643,15.649259544392521],[73.78486315910754,15.650910061150455],[73.79056517384373,15.65015937185757],[73.7950080837561,15.647532819084404],[73.79973616868926,15.647602869976538],[73.80702955087315,15.651929383334448],[73.81355643368255,15.652670223252244],[73.82553073135824,15.65124485806382],[73.84032584706023,15.646716017929919],[73.84177286522561,15.648810282668478],[73.83962403592056,15.658131459799108],[73.84152388342056,15.66362567898193],[73.8487370226955,15.667701746438524],[73.85248961660255,15.672715588253823],[73.86101365715461,15.67962455702775],[73.87470171641115,15.679332439240738],[73.88321539587389,15.683452713771771],[73.88292009268821,15.688997923615318],[73.8844904294898,15.693271000156585],[73.89291639267742,15.701865303840748],[73.89720891705792,15.702230375531428],[73.90200381172656,15.700417270340779],[73.9065440930355,15.69417867780379],[73.91284864005274,15.68964025179622],[73.9332046731572,15.702050281795096],[73.94911999968826,15.698856999650843],[73.95055400016702,15.703359999564384],[73.94789900003889,15.706904000219481],[73.9507369996129,15.713394000033134],[73.94264999989764,15.725329000033355],[73.94159699990166,15.734730000089485],[73.93716399961892,15.743612999640277],[73.91586300027728,15.744906999958118],[73.90887155917517,15.74751179543307],[73.90021499992235,15.744410999568004],[73.89815096589444,15.744857018336802],[73.87690707080475,15.749593878854455],[73.87273664737842,15.753125911331779],[73.87215238212679,15.75542331943069],[73.87581592246693,15.766701923155267],[73.87833392257255,15.769200923284018],[73.87833901003734,15.76971548568116],[73.87836484036512,15.772355956362333],[73.87170399993971,15.77945100026352],[73.87132283937757,15.781275955820774],[73.8665309997059,15.784956999665837],[73.86735483985404,15.795285956182],[73.85926129037631,15.798929825650987]]]}},{"type":"Feature","properties":{"blockName":"Bardez","districtName":"North Goa","state":"Goa"},"geometry":{"type":"Polygon","coordinates":[[[73.73204687466358,15.60746535903911],[73.73362743585756,15.592865551803811],[73.73172765940399,15.590262933587553],[73.73709522526451,15.583470874881016],[73.74155032278924,15.570434856483473],[73.74100704054257,15.565078945836717],[73.74550184043767,15.560721343815032],[73.74834397689307,15.561051482240146],[73.7507222340439,15.556235566818032],[73.76695521910813,15.499999999700265],[73.76457216947011,15.49524790286847],[73.76831924423777,15.490446702153633],[73.7747532954283,15.489539352758982],[73.77812182845969,15.492223546679384],[73.78512380511955,15.492525960804471],[73.78747034677912,15.494718677924709],[73.7849725256616,15.496457666388267],[73.78803804382073,15.498914942470662],[73.7966810475923,15.498031052790907],[73.80408004705657,15.494535586747986],[73.80949580668619,15.495327877779403],[73.81256250835315,15.5017606897041],[73.81167849546625,15.505876964950005],[73.81538660710629,15.510334636334449],[73.82049236862798,15.510383911088695],[73.82610838389485,15.505274949779164],[73.8261399995614,15.503250000287323],[73.83934488455884,15.502330384139952],[73.84326373703192,15.503329313297229],[73.84444210521906,15.514029117849532],[73.84858214145271,15.520529530913166],[73.8725001076939,15.529696005766084],[73.87332043419076,15.533405500563447],[73.86845681063335,15.545612197444996],[73.8701580167791,15.553328654893562],[73.86840635866656,15.560979548167666],[73.86988800522732,15.563904878207609],[73.88247135796684,15.568976211882728],[73.88524406406236,15.568921120313519],[73.88827671739665,15.565348183971537],[73.89152258380028,15.564653130337717],[73.89069368136836,15.560521714105846],[73.8952429990652,15.557754688128398],[73.89687728395955,15.558523677725589],[73.89782816233986,15.56738679056798],[73.90285371512692,15.563690782903336],[73.90478038850421,15.5654352122653],[73.90549191591924,15.567124000572221],[73.90234184440067,15.56914085976291],[73.9002413608502,15.576190652476669],[73.89691615085974,15.576394099807885],[73.8954546122406,15.572926881470437],[73.89324352287036,15.572372479106662],[73.88843063366687,15.574143999645912],[73.88779455577418,15.582644659623384],[73.88970511959565,15.58892812203527],[73.89458562972311,15.591294821099154],[73.8964861759963,15.599612717253137],[73.88687774910892,15.611657325725048],[73.88793794008393,15.61479224816378],[73.89645652354977,15.610718523441165],[73.90266024037783,15.614347873355712],[73.90699560756127,15.615183608836503],[73.90623709416661,15.622808746426529],[73.90869665632567,15.625509611979055],[73.90885533900274,15.633203294996122],[73.91062168574229,15.636198523942767],[73.90588045991535,15.635674696729893],[73.9000548369612,15.631212620466101],[73.89539157875839,15.631302505905978],[73.88993053196856,15.63461180149352],[73.88606300830122,15.644221328251774],[73.88159195680345,15.645640206630276],[73.88215313735748,15.649149059081878],[73.88967637816239,15.649981737767007],[73.892389187611,15.652177986524919],[73.8967470216578,15.650868361385847],[73.90112175936179,15.653050429633652],[73.90396598584164,15.666969171290248],[73.90055240127236,15.677108716194368],[73.89517425219003,15.682638608784828],[73.88321539587389,15.683452713771771],[73.87470171641115,15.679332439240738],[73.86101365715461,15.67962455702775],[73.85248961660255,15.672715588253823],[73.8487370226955,15.667701746438524],[73.84152388342056,15.66362567898193],[73.83962403592056,15.658131459799108],[73.84177286522561,15.648810282668478],[73.84032584706023,15.646716017929919],[73.82553073135824,15.65124485806382],[73.81355643368255,15.652670223252244],[73.80702955087315,15.651929383334448],[73.79973616868926,15.647602869976538],[73.7950080837561,15.647532819084404],[73.79056517384373,15.65015937185757],[73.78486315910754,15.650910061150455],[73.77806923610643,15.649259544392521],[73.77580336992963,15.63818039860655],[73.76506516972188,15.632237525641358],[73.75468192293243,15.631115538651216],[73.74931667732284,15.62430252664035],[73.74793952928593,15.621849283117967],[73.75528930795525,15.616179348098512],[73.75135496106265,15.609116588060147],[73.74262661972278,15.603832761672663],[73.73819639294925,15.608059844186528],[73.73204687466358,15.60746535903911]]]}},{"type":"Feature","properties":{"blockName":"Tiswadi","districtName":"North Goa","state":"Goa"},"geometry":{"type":"Polygon","coordinates":[[[73.8261399995614,15.503250000287323],[73.82631412449729,15.501782877777657],[73.81987558389113,15.49897301439313],[73.81872412162096,15.500812353707204],[73.81610243328072,15.493773891551882],[73.80619042944483,15.484029440406403],[73.80616462789533,15.474126623145196],[73.80225591168102,15.464044068279179],[73.79729332582639,15.46035020819562],[73.79068390054164,15.46489290058696],[73.78888646333968,15.464787267118709],[73.78738452807357,15.463449150557892],[73.78800507107724,15.461491274302944],[73.79072994403174,15.461168826879884],[73.79860638817433,15.454083898553108],[73.80067364357387,15.453738521115895],[73.80294291458392,15.450309909774546],[73.8042264620816,15.450506974617213],[73.80298564227365,15.452737667409451],[73.80404542945308,15.454332426200551],[73.81273818641824,15.455801174684495],[73.81667275004742,15.453063450417972],[73.81920112563148,15.45459307131324],[73.82990944946158,15.453595186268899],[73.83772910321562,15.450928294405287],[73.84119441319166,15.447838786830573],[73.84204341367268,15.450703002541559],[73.84853542167241,15.451634130910463],[73.85527248773519,15.443065548736115],[73.85951447111603,15.44115285262211],[73.86150255200124,15.42842063510426],[73.86506777126067,15.428737231538037],[73.86891022182931,15.431111332921716],[73.88303875733283,15.432484567109157],[73.88712010650778,15.428930452678287],[73.89575809116303,15.414795463639791],[73.90422090317219,15.414746591781807],[73.90518315797641,15.411884474189208],[73.91627828741309,15.411864975088577],[73.92442940159566,15.422435099200527],[73.92752705073286,15.432995805611995],[73.92987231895239,15.435055666785615],[73.94295079884034,15.438679973302158],[73.94493693179402,15.440704045954988],[73.94453557425743,15.455751542899407],[73.94898880748752,15.46096255477812],[73.9549901597681,15.46186120233267],[73.9561780841513,15.46323879553404],[73.95633667689617,15.469475222503547],[73.95105337031686,15.47515333775641],[73.95058687128716,15.481240594178132],[73.95424575943429,15.484949756226342],[73.95467105872245,15.487335119819988],[73.95262908326566,15.497538759406268],[73.95660961574123,15.501502062670113],[73.96079963269693,15.50209720881918],[73.96097125032298,15.503466332205505],[73.95862130742745,15.50885719590292],[73.95299050820546,15.510457741831374],[73.94926851912692,15.513951144829548],[73.94839041838316,15.518119173361185],[73.94308928993883,15.524867321769534],[73.94724271527912,15.524889553909816],[73.95234985276358,15.527448168298406],[73.95714170322708,15.537280585730514],[73.96063315379706,15.53992811069378],[73.95317325224386,15.547444211780999],[73.94992417436123,15.548509934485935],[73.94472592476166,15.546566888051473],[73.9330358443288,15.537607505482015],[73.9267929926026,15.53719648832731],[73.92054573779563,15.540719331531989],[73.90617659047734,15.556669417759451],[73.90478038850421,15.5654352122653],[73.90285371512692,15.563690782903336],[73.89782816233986,15.56738679056798],[73.89687728395955,15.558523677725589],[73.8952429990652,15.557754688128398],[73.89069368136836,15.560521714105846],[73.89152258380028,15.564653130337717],[73.88827671739665,15.565348183971537],[73.88524406406236,15.568921120313519],[73.88247135796684,15.568976211882728],[73.86988800522732,15.563904878207609],[73.86840635866656,15.560979548167666],[73.8701580167791,15.553328654893562],[73.86845681063335,15.545612197444996],[73.87332043419076,15.533405500563447],[73.8725001076939,15.529696005766084],[73.84858214145271,15.520529530913166],[73.84444210521906,15.514029117849532],[73.84326373703192,15.503329313297229],[73.83934488455884,15.502330384139952],[73.8261399995614,15.503250000287323]]]}},{"type":"Feature","properties":{"blockName":"Bicholim","districtName":"North Goa","state":"Goa"},"geometry":{"type":"Polygon","coordinates":[[[73.88321539587389,15.683452713771771],[73.89517425219003,15.682638608784828],[73.90055240127236,15.677108716194368],[73.90396598584164,15.666969171290248],[73.90112175936179,15.653050429633652],[73.8967470216578,15.650868361385847],[73.892389187611,15.652177986524919],[73.88967637816239,15.649981737767007],[73.88215313735748,15.649149059081878],[73.88159195680345,15.645640206630276],[73.88606300830122,15.644221328251774],[73.88993053196856,15.63461180149352],[73.89539157875839,15.631302505905978],[73.9000548369612,15.631212620466101],[73.90588045991535,15.635674696729893],[73.91062168574229,15.636198523942767],[73.90885533900274,15.633203294996122],[73.90869665632567,15.625509611979055],[73.90623709416661,15.622808746426529],[73.90699560756127,15.615183608836503],[73.90266024037783,15.614347873355712],[73.89645652354977,15.610718523441165],[73.88793794008393,15.61479224816378],[73.88687774910892,15.611657325725048],[73.8964861759963,15.599612717253137],[73.89458562972311,15.591294821099154],[73.88970511959565,15.58892812203527],[73.88779455577418,15.582644659623384],[73.88843063366687,15.574143999645912],[73.89324352287036,15.572372479106662],[73.8954546122406,15.572926881470437],[73.89691615085974,15.576394099807885],[73.9002413608502,15.576190652476669],[73.90234184440067,15.56914085976291],[73.90549191591924,15.567124000572221],[73.90478038850421,15.5654352122653],[73.90617659047734,15.556669417759451],[73.92054573779563,15.540719331531989],[73.9267929926026,15.53719648832731],[73.9330358443288,15.537607505482015],[73.94472592476166,15.546566888051473],[73.94992417436123,15.548509934485935],[73.95317325224386,15.547444211780999],[73.96063315379706,15.53992811069378],[73.96497804749896,15.537113155347868],[73.9706943713482,15.526194319112562],[73.99397434863732,15.51365766996554],[74.0004219130409,15.500313022228227],[74.01264142346298,15.498059823901826],[74.01884592180193,15.495493045467697],[74.02043897997498,15.493080721997785],[74.02255744636909,15.480559043864844],[74.03002474484617,15.479382224310257],[74.0304386056572,15.478152145105469],[74.02598584367178,15.473398832390274],[74.02607538826862,15.471767912758992],[74.03330028707865,15.467093208884535],[74.03455861668687,15.459383791328946],[74.04559789642582,15.44544748771142],[74.05065593812111,15.44321013993607],[74.05252996338714,15.44418381163365],[74.05257110647142,15.449045946813044],[74.04917691488276,15.455762188174504],[74.05063518536559,15.458661899227309],[74.0592548229518,15.461130247762753],[74.06399649304376,15.4584262345831],[74.06695615380352,15.458614701007718],[74.06728183698726,15.463465788015753],[74.06562194299835,15.466783152320659],[74.0671741512661,15.469797060186238],[74.07676783376854,15.461206968027227],[74.07979480068957,15.462111925225202],[74.08420613090829,15.466750475454148],[74.09490624033077,15.467865305639407],[74.09073457943737,15.475792952682696],[74.08725858821333,15.47664234616741],[74.08423813328329,15.479943099994102],[74.0737519473945,15.484997663111699],[74.07106373170592,15.490948793651967],[74.07119459385547,15.497998246421957],[74.06895229711085,15.501704893965723],[74.06274743994248,15.50719591426008],[74.0561708246239,15.508745180845494],[74.05256918192225,15.511489588873474],[74.03797296298194,15.530261264745604],[74.03996440193566,15.536298716712452],[74.0392272249565,15.540217149202135],[74.04637613914758,15.553663841213336],[74.0552179551446,15.562841081850479],[74.0552455679287,15.568003930537031],[74.0497506760529,15.572222840911422],[74.043841032138,15.57225560950883],[74.03317269576337,15.56596342367311],[74.02609949099877,15.567845675037915],[74.02369675430185,15.565182456904893],[74.01931354498419,15.563687183816512],[74.01665288812035,15.56703038114722],[74.00331321723127,15.567697327369785],[73.99950733129833,15.570979672973579],[73.99806735392531,15.575922875740162],[73.9996462441789,15.58413306548863],[74.00490728174572,15.590385289049891],[74.00990803662665,15.592347283300512],[74.01712284144605,15.59207349549547],[74.02125073323481,15.601500142417706],[74.02152854550604,15.60493494379267],[74.02019500019918,15.606793999843262],[74.00536299970275,15.611514999917347],[73.99451400032092,15.611227000126007],[73.9849930001269,15.618477999959794],[73.9822850002526,15.622777000358326],[73.96796399993872,15.631094999934362],[73.96121199973408,15.646464000013623],[73.96767400005513,15.661917000369328],[73.96353900002487,15.670514000220976],[73.9632639999337,15.689369000079353],[73.95765700037032,15.697137000372322],[73.94911999968826,15.698856999650843],[73.9332046731572,15.702050281795096],[73.91284864005274,15.68964025179622],[73.9065440930355,15.69417867780379],[73.90200381172656,15.700417270340779],[73.89720891705792,15.702230375531428],[73.89291639267742,15.701865303840748],[73.8844904294898,15.693271000156585],[73.88292009268821,15.688997923615318],[73.88321539587389,15.683452713771771]]]}},{"type":"Feature","properties":{"blockName":"Quepem","districtName":"South Goa","state":"Goa"},"geometry":{"type":"Polygon","coordinates":[[[74.09925251269334,15.270870932947275],[74.0898639349727,15.270558561528446],[74.08306286056262,15.278731163212683],[74.07689276219128,15.275500012415705],[74.07442336324766,15.2763349726809],[74.06999128027343,15.268597294829362],[74.06792107509762,15.267083546968195],[74.06364208821185,15.268203630992844],[74.06263624326806,15.26733250089427],[74.06327517920619,15.260807575908927],[74.05921283000816,15.26072790406954],[74.05747453941854,15.254372983326562],[74.05260517548851,15.254669298249553],[74.04784226340979,15.249748021853748],[74.04379470446207,15.247951028017553],[74.04588384936022,15.245550752765098],[74.04648794826028,15.23087355527042],[74.05576013212448,15.226004964757351],[74.06019340400246,15.228051663453527],[74.06331505604504,15.225377931346486],[74.06298665870742,15.223404311559761],[74.05430279513791,15.216885406636266],[74.04534715464752,15.217442435020416],[74.04453276637412,15.21619411216858],[74.04684498360916,15.211064830677458],[74.04707266407223,15.206155538647238],[74.04515368889167,15.198931344905702],[74.04181336309631,15.19413468576721],[74.0337591634547,15.192228288504737],[74.03496565703949,15.184991200283719],[74.03798209110067,15.180240754607212],[74.03803516189328,15.175628130034227],[74.0232621785068,15.171940272026006],[74.0234948403147,15.167011233581604],[74.01762799783387,15.16523101569885],[74.0170268963742,15.162078644613814],[74.00834328461497,15.152987570719858],[74.00459289224824,15.15273907185076],[73.99873088002613,15.155984228689249],[73.98811677456956,15.153911314755419],[73.97898139557498,15.14931159275585],[73.9758852195273,15.14625134642256],[73.96945208744393,15.143892398615378],[73.96758145891727,15.141651954474185],[73.9620009875556,15.14134513906697],[73.95809619957998,15.137170790999278],[73.95511168155889,15.137081255395685],[73.94845460659485,15.14188532674649],[73.94372620510035,15.140108168357358],[73.94133699420695,15.13505978987746],[73.93570109582896,15.132287303216515],[73.9395125152904,15.12866579628951],[73.9406086629595,15.12096116312722],[73.93755227201979,15.117532557181846],[73.93888958188876,15.112723573734002],[73.94656865901646,15.104719056239503],[73.95086864956858,15.094464277604402],[73.95584511825768,15.087948086834785],[73.95817926905806,15.088336131707138],[73.96442860399691,15.093508812681591],[73.97316303284776,15.095525460531633],[73.97674935739695,15.09830240423264],[73.9915749133516,15.09709812837599],[73.99508714095884,15.099241741613127],[74.00277745421619,15.09937105782808],[74.00107106797549,15.095792500723405],[74.000409447538,15.085310049719055],[74.00697369627909,15.076446168855682],[74.01397105492032,15.07214985563138],[74.01351356350023,15.069280413060653],[74.00929429339698,15.064671493694505],[74.01354541119184,15.053350351137851],[74.02771499085418,15.051552243940932],[74.04013973556039,15.052544838273718],[74.04504485743428,15.051722442436812],[74.05190835378755,15.048250577302326],[74.06026121108607,15.052007671416959],[74.07449268748758,15.054416713260764],[74.08655640745229,15.05239009912384],[74.09161372159605,15.049476182379976],[74.09751384438846,15.043531767077411],[74.10877199842906,15.058507657302584],[74.11997378296377,15.063997873603057],[74.13655114451979,15.067831155583406],[74.15679248888233,15.066198510153185],[74.1607567930916,15.067089083594396],[74.16759904835743,15.061635592008997],[74.16954286910817,15.058309046525324],[74.16629490728423,15.052186949468194],[74.16242421350671,15.050416577363194],[74.16180272621489,15.048477578777295],[74.16634637008895,15.047524119342711],[74.16540325465655,15.045346893944043],[74.1671333344359,15.043760439492758],[74.17934781225176,15.040386386422654],[74.18330875389591,15.042194541744777],[74.18770061559098,15.055107765810817],[74.19228320010967,15.059344074469493],[74.19040814062322,15.06782437919179],[74.19829538742226,15.069409145615623],[74.19833223354578,15.071765208397721],[74.19481774504294,15.077268196869852],[74.19182798757163,15.079158078082912],[74.1775739067105,15.083400247623388],[74.17487684978687,15.081933159287928],[74.16977097495061,15.086453235528438],[74.16990660080904,15.089635798653262],[74.17365562530694,15.092176281809998],[74.17702079127656,15.109182256655856],[74.17105117427235,15.114821732536996],[74.16871096563858,15.119939159164915],[74.16190898920854,15.124108570853934],[74.15693413929915,15.123803522614537],[74.14281361945302,15.115634270904934],[74.13467152277263,15.117727118311905],[74.12952001993301,15.122950340286025],[74.1220983359695,15.116583720262554],[74.11868796917452,15.115936558225656],[74.11201077817492,15.117397580633906],[74.11011310343702,15.116418486024372],[74.1068162319836,15.109339578658705],[74.10218961395958,15.108289517647165],[74.10148506258565,15.11770579448688],[74.09838783702912,15.123522622071391],[74.10178563040256,15.126979821961243],[74.09803102651074,15.12964726780723],[74.09454300325706,15.135996806107755],[74.0848677909159,15.135824351212875],[74.08158647323722,15.13739396046293],[74.07871409977594,15.143012187162753],[74.07877344603776,15.149614842351127],[74.07655643912841,15.155131246909548],[74.06724863941321,15.15730084335928],[74.0627736875557,15.161022948450352],[74.06627417721154,15.168691562865376],[74.06570187743972,15.176418956069995],[74.07749325570921,15.182199473526907],[74.08474756145085,15.18368434145924],[74.09223590586242,15.190673705127438],[74.09747133973059,15.190126143906468],[74.10266832668196,15.191588910999485],[74.10730255926575,15.18327866178089],[74.12159054636669,15.170040057602648],[74.12340512464687,15.169729922797728],[74.13239422801126,15.172208438168923],[74.14891745127943,15.168091930897958],[74.15397782401743,15.172146442504356],[74.16575509372268,15.173858265146862],[74.17189174360914,15.177559080587173],[74.17335841375984,15.18012675564529],[74.17491603684567,15.186358200370705],[74.1733918541508,15.192250471182376],[74.1598738162237,15.192690141636774],[74.15836766133856,15.195909096727462],[74.1499890096851,15.203836954212136],[74.13385154701132,15.212273963772475],[74.12597608492842,15.222743750523705],[74.12594913674332,15.226306423802441],[74.13046066133052,15.230710630491274],[74.1337121844698,15.233004697608749],[74.13972583947594,15.233700791758167],[74.14323757515405,15.237860534835875],[74.14763357462982,15.23885667699409],[74.14774504649677,15.240823762306832],[74.14310993797329,15.240106895616805],[74.14204416850362,15.2462179768782],[74.13746319017412,15.24748388237532],[74.13718616121241,15.250837442593934],[74.13342234466552,15.254301763315766],[74.13089078188415,15.253913839851862],[74.12842160956967,15.25043379898068],[74.12644064322114,15.250144062598451],[74.12635473278476,15.259722971937663],[74.12044657544914,15.26124420935281],[74.12010393195095,15.268050153591787],[74.11815323858116,15.271378784603257],[74.11562402482895,15.271453678344642],[74.11215924815082,15.26714383841744],[74.10213930768293,15.267700404550055],[74.09925251269334,15.270870932947275]]]}},{"type":"Feature","properties":{"blockName":"Sanguem","districtName":"South Goa","state":"Goa"},"geometry":{"type":"Polygon","coordinates":[[[74.17934781225176,15.040386386422654],[74.20261710289702,15.04047156750886],[74.21847760315893,15.042944439634255],[74.22093366155929,15.041954116988961],[74.23174310246225,15.03367466415449],[74.2326982121528,15.02158350947144],[74.23555190939317,15.011037185917473],[74.23907823387344,15.004864692651495],[74.24288791314672,15.00067375568932],[74.25270383701252,15.000241079262423],[74.25545675712368,14.99691575415875],[74.25544700037881,14.993366999687339],[74.26441999958337,14.99749600034022],[74.26669300008194,15.004066000245757],[74.2656250002936,15.005093999988162],[74.27021000039127,15.01223500014521],[74.28365299978617,15.02420800009918],[74.2829129998351,15.032716000343214],[74.29624200026814,15.042455999844549],[74.29510499999583,15.046656000174323],[74.28886399997367,15.056868999904452],[74.28912400027247,15.06526699957243],[74.2828519997201,15.068418000090674],[74.28105200034958,15.071916999569908],[74.27759600015531,15.09656500037454],[74.27208699971533,15.098453000205836],[74.27484900028122,15.104383000275277],[74.28205099965396,15.108126000214781],[74.28443900005988,15.119173999780287],[74.28691900021175,15.122507999744414],[74.28350800029403,15.13250000007497],[74.28501695027211,15.137919501783642],[74.28334800011015,15.145657999816876],[74.28639200019069,15.15020900014531],[74.29166399959394,15.148838999919974],[74.29527299964928,15.15240699988317],[74.30475599988955,15.16455399976735],[74.31580860218531,15.186642681114904],[74.31085736217756,15.193597437971448],[74.30945599989451,15.205712000208678],[74.30452700012103,15.211447000278895],[74.30391699986973,15.215921999800514],[74.30052900011333,15.221493000401722],[74.3005140003209,15.22568999969377],[74.29593699969286,15.230620999559505],[74.28804800011517,15.23445500009825],[74.2644120001138,15.240962999842623],[74.25712599956529,15.24434300012939],[74.252837999674,15.252438000213601],[74.25109100004966,15.260075999907542],[74.26156600017083,15.26084500029657],[74.27027099960702,15.276890000073479],[74.27663399985926,15.283737000162489],[74.2828519997201,15.281512000078806],[74.28929099987982,15.285541999763552],[74.29380000007001,15.284750000112467],[74.29503826850134,15.286677457698545],[74.29478456615487,15.288097241694402],[74.28941453075606,15.299619210957871],[74.2862180146497,15.301872806784672],[74.28551637528057,15.310784038752445],[74.28038866130771,15.316288669386608],[74.27030549580206,15.306216945056008],[74.26458347744557,15.307777013398493],[74.26371712814301,15.30998475279415],[74.2594896679139,15.30947573022081],[74.2414505069354,15.315985631132037],[74.22970394997736,15.32641590077327],[74.22931856979619,15.324038683238712],[74.22157772003578,15.316887044101861],[74.20703868538709,15.312615996431134],[74.20391155557388,15.310392604335277],[74.19910977209838,15.312045494404117],[74.18702122994586,15.31251340177215],[74.1826905050628,15.320595994809366],[74.18228462933223,15.32419069384548],[74.17523312340995,15.331631522576743],[74.1772367796537,15.342237520645085],[74.17534375620943,15.343774705738156],[74.1710177473712,15.340967595178427],[74.16859857196658,15.342757350371471],[74.1676700579269,15.339627093615547],[74.16736099421456,15.325476219851737],[74.1699351920555,15.31899624118364],[74.16980111932628,15.314420737027433],[74.16601907442083,15.312356364854395],[74.1503929006119,15.310535877129098],[74.14372042655651,15.307706493060266],[74.14474835974909,15.303648817638873],[74.14333843592016,15.300403105918633],[74.13577447741028,15.296111490752764],[74.13340078431878,15.292328452995775],[74.13101356002784,15.29134618198077],[74.12696479418997,15.293590512991841],[74.10863658660924,15.296520686780298],[74.10239901120548,15.291665313603403],[74.10292957973638,15.289873177005575],[74.10494469604095,15.286160134382726],[74.10469091455411,15.279764884441931],[74.09925251269334,15.270870932947275],[74.10213930768293,15.267700404550055],[74.11215924815082,15.26714383841744],[74.11562402482895,15.271453678344642],[74.11815323858116,15.271378784603257],[74.12010393195095,15.268050153591787],[74.12044657544914,15.26124420935281],[74.12635473278476,15.259722971937663],[74.12644064322114,15.250144062598451],[74.12842160956967,15.25043379898068],[74.13089078188415,15.253913839851862],[74.13342234466552,15.254301763315766],[74.13718616121241,15.250837442593934],[74.13746319017412,15.24748388237532],[74.14204416850362,15.2462179768782],[74.14310993797329,15.240106895616805],[74.14774504649677,15.240823762306832],[74.14763357462982,15.23885667699409],[74.14323757515405,15.237860534835875],[74.13972583947594,15.233700791758167],[74.1337121844698,15.233004697608749],[74.13046066133052,15.230710630491274],[74.12594913674332,15.226306423802441],[74.12597608492842,15.222743750523705],[74.13385154701132,15.212273963772475],[74.1499890096851,15.203836954212136],[74.15836766133856,15.195909096727462],[74.1598738162237,15.192690141636774],[74.1733918541508,15.192250471182376],[74.17491603684567,15.186358200370705],[74.17335841375984,15.18012675564529],[74.17189174360914,15.177559080587173],[74.16575509372268,15.173858265146862],[74.15397782401743,15.172146442504356],[74.14891745127943,15.168091930897958],[74.13239422801126,15.172208438168923],[74.12340512464687,15.169729922797728],[74.12159054636669,15.170040057602648],[74.10730255926575,15.18327866178089],[74.10266832668196,15.191588910999485],[74.09747133973059,15.190126143906468],[74.09223590586242,15.190673705127438],[74.08474756145085,15.18368434145924],[74.07749325570921,15.182199473526907],[74.06570187743972,15.176418956069995],[74.06627417721154,15.168691562865376],[74.0627736875557,15.161022948450352],[74.06724863941321,15.15730084335928],[74.07655643912841,15.155131246909548],[74.07877344603776,15.149614842351127],[74.07871409977594,15.143012187162753],[74.08158647323722,15.13739396046293],[74.0848677909159,15.135824351212875],[74.09454300325706,15.135996806107755],[74.09803102651074,15.12964726780723],[74.10178563040256,15.126979821961243],[74.09838783702912,15.123522622071391],[74.10148506258565,15.11770579448688],[74.10218961395958,15.108289517647165],[74.1068162319836,15.109339578658705],[74.11011310343702,15.116418486024372],[74.11201077817492,15.117397580633906],[74.11868796917452,15.115936558225656],[74.1220983359695,15.116583720262554],[74.12952001993301,15.122950340286025],[74.13467152277263,15.117727118311905],[74.14281361945302,15.115634270904934],[74.15693413929915,15.123803522614537],[74.16190898920854,15.124108570853934],[74.16871096563858,15.119939159164915],[74.17105117427235,15.114821732536996],[74.17702079127656,15.109182256655856],[74.17365562530694,15.092176281809998],[74.16990660080904,15.089635798653262],[74.16977097495061,15.086453235528438],[74.17487684978687,15.081933159287928],[74.1775739067105,15.083400247623388],[74.19182798757163,15.079158078082912],[74.19481774504294,15.077268196869852],[74.19833223354578,15.071765208397721],[74.19829538742226,15.069409145615623],[74.19040814062322,15.06782437919179],[74.19228320010967,15.059344074469493],[74.18770061559098,15.055107765810817],[74.18330875389591,15.042194541744777],[74.17934781225176,15.040386386422654]]]}},{"type":"Feature","properties":{"blockName":"Canacona","districtName":"South Goa","state":"Goa"},"geometry":{"type":"Polygon","coordinates":[[[73.93755227201979,15.117532557181846],[73.93475942200979,15.111836270227741],[73.93276152952103,15.112739034878587],[73.91765595256021,15.10748037421996],[73.92163188500353,15.10748037421996],[73.92167044613421,15.105513934620433],[73.92410232536207,15.104858561773256],[73.9259302279977,15.096062422342982],[73.92314171271994,15.091515117328868],[73.9119924449954,15.084462978283852],[73.91590699870909,15.085425884197264],[73.91786450354408,15.083675058856954],[73.92096105370973,15.085746853134822],[73.92411601574162,15.085892834686604],[73.92936128009904,15.083800567342337],[73.93136533294381,15.078424502888538],[73.93583138331172,15.077852517879421],[73.9416717254698,15.074420926184871],[73.94955764846674,15.074818458005495],[73.9542329342026,15.072370352309974],[73.95396916484515,15.070336626334267],[73.95924797121694,15.069545721158136],[73.96292225755622,15.066049829735903],[73.9661960991707,15.065591409316141],[73.96714872493379,15.064053958923125],[73.96609319244692,15.062382896253723],[73.96869369186044,15.060083331580529],[73.97126179049928,15.051365247907938],[73.97497988641271,15.050180436977655],[73.97925929058385,15.052414740547874],[73.98293585850314,15.047839605113722],[73.98954012797458,15.033289382898772],[73.98896102213354,15.029695173993161],[73.98558815347059,15.029079042164142],[73.98675663271251,15.026217836484022],[73.98494744047207,15.025201293205157],[73.98784981441747,15.024410708187702],[73.98865960355789,15.020176588478819],[73.99140750365342,15.017225916442953],[73.99680016869291,15.021171484176705],[73.99854410342766,15.018220599001495],[74.00161281597872,15.01857611719413],[74.00355320761452,15.015612009286826],[74.00689320875466,15.01730475820807],[74.01287046549965,15.009213643195153],[74.01593003554274,15.012474724329138],[74.02156640606484,15.01031112186081],[74.02527674442626,15.007012182865992],[74.02635874575958,15.003270285495319],[74.02426616185392,15.001800547757114],[74.02686734565151,15.001933094336891],[74.02888440359243,15.000209887176595],[74.02680505411001,14.997634780121075],[74.03051037245581,14.99870751933662],[74.03352428481793,14.995632297492591],[74.03285999968926,14.99414000026087],[74.03539000034829,14.992469999690798],[74.03788701027736,14.983762324771533],[74.03389419306262,14.982220288735391],[74.03943083596437,14.980571832324244],[74.04942630587936,14.959381884866161],[74.04971298726463,14.957226631703747],[74.04659458806987,14.951324125707856],[74.04717688740351,14.949641546320379],[74.04391194547998,14.948956102841919],[74.04297460639305,14.94650810416573],[74.04718610095784,14.934517290440624],[74.04605107739536,14.929415404996973],[74.04407988128156,14.928601680423242],[74.04547242751056,14.924344633398164],[74.0423498662534,14.922279344815934],[74.04209659288352,14.920551232753212],[74.0461790823988,14.916136154160256],[74.0488708522081,14.915944106635266],[74.05068369479676,14.914160864332473],[74.0566255740111,14.913797242348892],[74.05908506242577,14.912171072037381],[74.05995121117951,14.909576025213426],[74.06386006049343,14.909391121003466],[74.06564369669928,14.907275607982967],[74.06840715416689,14.90943483345086],[74.06978860366121,14.90904633621949],[74.06999109681175,14.906774533617863],[74.07439417035471,14.90900148073382],[74.07924332561902,14.909168469549286],[74.08314464490951,14.905160094063149],[74.08315263088929,14.901573349530508],[74.08533055236313,14.899141985614222],[74.08878967050697,14.897798288760043],[74.09219775931922,14.89960961239376],[74.09717599967269,14.906342000183201],[74.10610999977672,14.913752000154716],[74.11039000019838,14.912215000322078],[74.11515873089076,14.912935035323699],[74.11841503482606,14.917290566206702],[74.12521870108225,14.91858648567785],[74.12808318299255,14.917530790413707],[74.12928369608574,14.91708834465146],[74.13063098573144,14.917638850252786],[74.13945570111974,14.913339485628796],[74.14593270123322,14.909348485044575],[74.15153270137313,14.909004485368769],[74.15350070129637,14.913278485513729],[74.14997670156356,14.918012485287989],[74.14210185101967,14.936683518030009],[74.14223185071938,14.939362518365556],[74.14579485045203,14.942100518724033],[74.14604585033578,14.947221518358447],[74.14831185051156,14.950928518436399],[74.16279285100933,14.953306518381169],[74.16653085071823,14.951648518364493],[74.1687438511479,14.944927518690065],[74.17371085087512,14.943207518512224],[74.18049285066456,14.93779051871752],[74.17942485087622,14.927363518111918],[74.18820585111916,14.921371518780632],[74.20113785033158,14.94128151872718],[74.21845310023042,14.94675632424503],[74.22020394175854,14.955504178175318],[74.23708684168446,14.957832853903142],[74.23754100021705,14.960101999907408],[74.24472000032779,14.963432999733186],[74.25583600033121,14.960178999861],[74.26038399962192,14.96944199984847],[74.26392400009257,14.969266999872218],[74.26474800032003,14.974154000406827],[74.26772299991654,14.977841999608643],[74.25544700037881,14.993366999687339],[74.25545675712368,14.99691575415875],[74.25270383701252,15.000241079262423],[74.24288791314672,15.00067375568932],[74.23907823387344,15.004864692651495],[74.23555190939317,15.011037185917473],[74.2326982121528,15.02158350947144],[74.23174310246225,15.03367466415449],[74.22093366155929,15.041954116988961],[74.21847760315893,15.042944439634255],[74.20261710289702,15.04047156750886],[74.17934781225176,15.040386386422654],[74.1671333344359,15.043760439492758],[74.16540325465655,15.045346893944043],[74.16634637008895,15.047524119342711],[74.16180272621489,15.048477578777295],[74.16242421350671,15.050416577363194],[74.16629490728423,15.052186949468194],[74.16954286910817,15.058309046525324],[74.16759904835743,15.061635592008997],[74.1607567930916,15.067089083594396],[74.15679248888233,15.066198510153185],[74.13655114451979,15.067831155583406],[74.11997378296377,15.063997873603057],[74.10877199842906,15.058507657302584],[74.09751384438846,15.043531767077411],[74.09161372159605,15.049476182379976],[74.08655640745229,15.05239009912384],[74.07449268748758,15.054416713260764],[74.06026121108607,15.052007671416959],[74.05190835378755,15.048250577302326],[74.04504485743428,15.051722442436812],[74.04013973556039,15.052544838273718],[74.02771499085418,15.051552243940932],[74.01354541119184,15.053350351137851],[74.00929429339698,15.064671493694505],[74.01351356350023,15.069280413060653],[74.01397105492032,15.07214985563138],[74.00697369627909,15.076446168855682],[74.000409447538,15.085310049719055],[74.00107106797549,15.095792500723405],[74.00277745421619,15.09937105782808],[73.99508714095884,15.099241741613127],[73.9915749133516,15.09709812837599],[73.97674935739695,15.09830240423264],[73.97316303284776,15.095525460531633],[73.96442860399691,15.093508812681591],[73.95817926905806,15.088336131707138],[73.95584511825768,15.087948086834785],[73.95086864956858,15.094464277604402],[73.94656865901646,15.104719056239503],[73.93888958188876,15.112723573734002],[73.93755227201979,15.117532557181846]]]}},{"type":"Feature","properties":{"blockName":"Satari","districtName":"North Goa","state":"Goa"},"geometry":{"type":"Polygon","coordinates":[[[74.09490624033077,15.467865305639407],[74.10106620244335,15.456223308359029],[74.10354072392533,15.443209775710613],[74.11928313420935,15.433374966981205],[74.12547415710674,15.436303266582513],[74.13332400379977,15.434643951757039],[74.13975168958888,15.437343474621684],[74.14625016821077,15.438191513727418],[74.15484917355059,15.439967442743352],[74.16421650298929,15.441620947948422],[74.16960320372493,15.440282718972355],[74.17733441365232,15.436904302391667],[74.18329169285738,15.441592906187736],[74.18392575806735,15.442497208679299],[74.18818220794259,15.448567630691628],[74.19017268372244,15.45600520837371],[74.19387936094381,15.461398125223354],[74.20097855881352,15.468044583690642],[74.22167349873303,15.476223820572898],[74.2283696699244,15.481392390746294],[74.23585247181416,15.48689888207781],[74.24287751608455,15.488937216179636],[74.24993384507093,15.490907807049723],[74.25034444044366,15.490983963439191],[74.25069399972836,15.499061999611627],[74.2616199999631,15.50822000015296],[74.27545200020973,15.515248999641642],[74.27732100006415,15.521741999593644],[74.27637499960662,15.522833000442688],[74.28084599984305,15.528295999660713],[74.27647399967537,15.543855000407973],[74.27248400003663,15.550967000127002],[74.26605999966932,15.556526000174813],[74.26110799973446,15.56570699997809],[74.25804100039193,15.563059000172757],[74.24771900013178,15.568089000107307],[74.2478099998317,15.574752999851114],[74.25082400032738,15.57774500023163],[74.24977899980104,15.584805000250583],[74.25859099967494,15.59240900017528],[74.25890399971985,15.603836000131366],[74.26200899991545,15.611820999639463],[74.26091799996578,15.619281000118121],[74.25591999970828,15.625135000280068],[74.25283100025052,15.626679000435558],[74.24590300002347,15.626035999561793],[74.25061000035129,15.636153000260776],[74.2486340000591,15.65641200011379],[74.23834200028313,15.667822000185197],[74.2352069996034,15.668046999769274],[74.23012499996884,15.664075000061246],[74.22483099955105,15.668706999628398],[74.2172699998107,15.66105700028038],[74.22203800025358,15.65515499970354],[74.21730799976444,15.652507999944305],[74.20640599973717,15.651218999857008],[74.20301099965798,15.656319000321673],[74.20512399997267,15.660689000397099],[74.20470400038937,15.663161000180082],[74.18939999971025,15.667089999703762],[74.18753099985582,15.67431700022945],[74.19119999998009,15.675821000338942],[74.19076499970504,15.681096999926638],[74.18317400037989,15.683145999987971],[74.17601800043042,15.679517999955806],[74.17165399973237,15.673591000024658],[74.16840400004463,15.672328000237087],[74.16639700012149,15.654230000214397],[74.15887500038104,15.654564000328378],[74.1561580000917,15.650763000412212],[74.14785800044643,15.651950000292345],[74.1356050001707,15.649285999749111],[74.11876699979729,15.652457000290383],[74.1154790001558,15.647400000010066],[74.10529299987212,15.64524799969547],[74.10069299998202,15.641041999988374],[74.09505499988842,15.64114700033383],[74.07306700034184,15.628344999921865],[74.06600999956191,15.628845999643204],[74.04920199967262,15.624893999958203],[74.03161599987857,15.623015999688675],[74.02787800016961,15.611465000309579],[74.02019500019918,15.606793999843262],[74.02152854550604,15.60493494379267],[74.02125073323481,15.601500142417706],[74.01712284144605,15.59207349549547],[74.00990803662665,15.592347283300512],[74.00490728174572,15.590385289049891],[73.9996462441789,15.58413306548863],[73.99806735392531,15.575922875740162],[73.99950733129833,15.570979672973579],[74.00331321723127,15.567697327369785],[74.01665288812035,15.56703038114722],[74.01931354498419,15.563687183816512],[74.02369675430185,15.565182456904893],[74.02609949099877,15.567845675037915],[74.03317269576337,15.56596342367311],[74.043841032138,15.57225560950883],[74.0497506760529,15.572222840911422],[74.0552455679287,15.568003930537031],[74.0552179551446,15.562841081850479],[74.04637613914758,15.553663841213336],[74.0392272249565,15.540217149202135],[74.03996440193566,15.536298716712452],[74.03797296298194,15.530261264745604],[74.05256918192225,15.511489588873474],[74.0561708246239,15.508745180845494],[74.06274743994248,15.50719591426008],[74.06895229711085,15.501704893965723],[74.07119459385547,15.497998246421957],[74.07106373170592,15.490948793651967],[74.0737519473945,15.484997663111699],[74.08423813328329,15.479943099994102],[74.08725858821333,15.47664234616741],[74.09073457943737,15.475792952682696],[74.09490624033077,15.467865305639407]]]}},{"type":"Feature","properties":{"blockName":"Mormugao","districtName":"North Goa","state":"Goa"},"geometry":{"type":"MultiPolygon","coordinates":[[[[73.90518315797641,15.411884474189208],[73.90694234071651,15.404531136003186],[73.89893163138976,15.40494648519217],[73.89250587194852,15.409045890955156],[73.88800291160516,15.405817086489378],[73.8865720326732,15.406293527524326],[73.88716825171349,15.402362994656528],[73.88163411881959,15.398094431812638],[73.87235268362952,15.395530202057216],[73.8700323814893,15.400116213892204],[73.86707022601018,15.401842086643057],[73.86156644073873,15.400442407890864],[73.85844570420596,15.397244344950593],[73.85289331777244,15.400644906437321],[73.85001581457823,15.400482928644294],[73.8485568696039,15.398377864846623],[73.84470666148331,15.398904104940527],[73.84288286605147,15.401292601772184],[73.84438242620809,15.404814512379915],[73.84370018611475,15.406939409825952],[73.84041128535262,15.409633094291905],[73.8342175015365,15.408842189115774],[73.83214362712675,15.405237850246635],[73.8279130525454,15.406480777166166],[73.82819598825432,15.403252429556005],[73.82704804503129,15.402776521819078],[73.82264770902464,15.40325808089574],[73.821696907986,15.408778421786792],[73.81664581894944,15.409668816262922],[73.81630447047496,15.403798289259669],[73.81220190179641,15.400707500151043],[73.80864307132072,15.400243855569556],[73.80668282805016,15.405314199990414],[73.79431396991384,15.413914878968512],[73.78619873238563,15.413259613140667],[73.78321125019909,15.411456750328796],[73.78333583328214,15.408597037523293],[73.79074213434211,15.399476942506965],[73.79063808637864,15.394089575373641],[73.80307265887615,15.394623171921921],[73.80532176978392,15.392520028176818],[73.80791953166113,15.376432461688808],[73.8111972511523,15.376403244514165],[73.81627435217968,15.373074020849458],[73.81943775614758,15.37337931460371],[73.82802577087267,15.36892467483392],[73.83133611956634,15.370179864908891],[73.83455588314757,15.36753107459947],[73.83620444028276,15.36318264206534],[73.84081903257237,15.360604656279918],[73.85145855916522,15.360710757395566],[73.8521312160828,15.365215514584406],[73.86158629147423,15.366045341519339],[73.86206089339555,15.368969568091131],[73.86916942712742,15.370310705474708],[73.87273236480684,15.369025977167155],[73.88426975654409,15.351907579870954],[73.89582011110929,15.32555964636066],[73.90183805318367,15.327500008318793],[73.90615723526827,15.325744708851289],[73.90669161062937,15.334196294623325],[73.91374390885437,15.336405337136625],[73.9127816765332,15.338183330096683],[73.91409971213204,15.342871090328629],[73.91062763925419,15.350722920026783],[73.91097663916065,15.355736483951603],[73.91454798909848,15.35897017893069],[73.91666797444753,15.368191429690796],[73.9194715830472,15.367468833419991],[73.92089282484403,15.36546774204271],[73.92449211401993,15.367291978142305],[73.92701783030867,15.372723850025693],[73.93523638645013,15.37065048912882],[73.94192789105938,15.371445419670408],[73.95123428693284,15.37559089950048],[73.95902041935693,15.374036993312643],[73.95687891053336,15.385712653116514],[73.95005346179789,15.401386995513462],[73.94682300527751,15.40369147138432],[73.91627828741309,15.411864975088577],[73.90518315797641,15.411884474189208]]],[[[73.86458581468366,15.403607577227945],[73.86500585113919,15.406943865966696],[73.86195758737284,15.407567920822942],[73.86139353798143,15.404555658716731],[73.86458581468366,15.403607577227945]]]]}},{"type":"Feature","properties":{"blockName":"Salcete","districtName":"South Goa","state":"Goa"},"geometry":{"type":"Polygon","coordinates":[[[74.07442336324766,15.2763349726809],[74.07056368256798,15.2845435121734],[74.07189543642528,15.290590076071226],[74.07026609600359,15.29513758523143],[74.06419931084957,15.298666979097845],[74.05704078650314,15.300307227396672],[74.04599460536679,15.299675772019327],[74.04301899872786,15.301438751697106],[74.03983296781729,15.307442583408545],[74.03681308035942,15.307403550133756],[74.0324394326338,15.304242269465192],[74.02553233804701,15.301931356247167],[74.01811677217137,15.30256240692961],[74.01294444193252,15.30471636416894],[74.00604051026141,15.33520212607732],[74.0062548357921,15.347972842672618],[73.9875942648635,15.35917968679314],[73.97578128667709,15.369157316856729],[73.96458967797133,15.37023076024144],[73.96080057878373,15.371682319983108],[73.95902041935693,15.374036993312643],[73.95123428693284,15.37559089950048],[73.94192789105938,15.371445419670408],[73.93523638645013,15.37065048912882],[73.92701783030867,15.372723850025693],[73.92449211401993,15.367291978142305],[73.92089282484403,15.36546774204271],[73.9194715830472,15.367468833419991],[73.91666797444753,15.368191429690796],[73.91454798909848,15.35897017893069],[73.91097663916065,15.355736483951603],[73.91062763925419,15.350722920026783],[73.91409971213204,15.342871090328629],[73.9127816765332,15.338183330096683],[73.91374390885437,15.336405337136625],[73.90669161062937,15.334196294623325],[73.90615723526827,15.325744708851289],[73.90183805318367,15.327500008318793],[73.89582011110929,15.32555964636066],[73.92021127363142,15.250086734415333],[73.94578205259972,15.152020582783734],[73.94953355113256,15.143496959517108],[73.94845460659485,15.14188532674649],[73.95511168155889,15.137081255395685],[73.95809619957998,15.137170790999278],[73.9620009875556,15.14134513906697],[73.96758145891727,15.141651954474185],[73.96945208744393,15.143892398615378],[73.9758852195273,15.14625134642256],[73.97898139557498,15.14931159275585],[73.98811677456956,15.153911314755419],[73.99873088002613,15.155984228689249],[74.00459289224824,15.15273907185076],[74.00834328461497,15.152987570719858],[74.0170268963742,15.162078644613814],[74.01762799783387,15.16523101569885],[74.0234948403147,15.167011233581604],[74.0232621785068,15.171940272026006],[74.03803516189328,15.175628130034227],[74.03798209110067,15.180240754607212],[74.03496565703949,15.184991200283719],[74.0337591634547,15.192228288504737],[74.04181336309631,15.19413468576721],[74.04515368889167,15.198931344905702],[74.04707266407223,15.206155538647238],[74.04684498360916,15.211064830677458],[74.04453276637412,15.21619411216858],[74.04534715464752,15.217442435020416],[74.05430279513791,15.216885406636266],[74.06298665870742,15.223404311559761],[74.06331505604504,15.225377931346486],[74.06019340400246,15.228051663453527],[74.05576013212448,15.226004964757351],[74.04648794826028,15.23087355527042],[74.04588384936022,15.245550752765098],[74.04379470446207,15.247951028017553],[74.04784226340979,15.249748021853748],[74.05260517548851,15.254669298249553],[74.05747453941854,15.254372983326562],[74.05921283000816,15.26072790406954],[74.06327517920619,15.260807575908927],[74.06263624326806,15.26733250089427],[74.06364208821185,15.268203630992844],[74.06792107509762,15.267083546968195],[74.06999128027343,15.268597294829362],[74.07442336324766,15.2763349726809]]]}},{"type":"Feature","properties":{"blockName":"Ponda","districtName":"North Goa","state":"Goa"},"geometry":{"type":"Polygon","coordinates":[[[73.91627828741309,15.411864975088577],[73.94682300527751,15.40369147138432],[73.95005346179789,15.401386995513462],[73.95687891053336,15.385712653116514],[73.95902041935693,15.374036993312643],[73.96080057878373,15.371682319983108],[73.96458967797133,15.37023076024144],[73.97578128667709,15.369157316856729],[73.9875942648635,15.35917968679314],[74.0062548357921,15.347972842672618],[74.00604051026141,15.33520212607732],[74.01294444193252,15.30471636416894],[74.01811677217137,15.30256240692961],[74.02553233804701,15.301931356247167],[74.0324394326338,15.304242269465192],[74.03681308035942,15.307403550133756],[74.03983296781729,15.307442583408545],[74.04301899872786,15.301438751697106],[74.04599460536679,15.299675772019327],[74.05704078650314,15.300307227396672],[74.06419931084957,15.298666979097845],[74.07026609600359,15.29513758523143],[74.07189543642528,15.290590076071226],[74.07056368256798,15.2845435121734],[74.07442336324766,15.2763349726809],[74.07689276219128,15.275500012415705],[74.08306286056262,15.278731163212683],[74.0898639349727,15.270558561528446],[74.09925251269334,15.270870932947275],[74.10469091455411,15.279764884441931],[74.10494469604095,15.286160134382726],[74.10292957973638,15.289873177005575],[74.10025624333105,15.292682971142256],[74.08999151729472,15.30053946022798],[74.08978926606181,15.30447353282733],[74.08967095844804,15.304762858219362],[74.08886979740328,15.30672208165879],[74.08713746212425,15.311325305618425],[74.08479580288406,15.317943844632794],[74.08424789092749,15.321270900032061],[74.0838712836329,15.324260333747475],[74.08454214010771,15.328480912364284],[74.08555296729565,15.329521492722733],[74.0885794881529,15.331996198565776],[74.09275914042206,15.336244406154492],[74.09460499172707,15.337966249942554],[74.0955400636231,15.338838476314663],[74.09606883261057,15.346020457678037],[74.09919818015197,15.347713047419234],[74.1011896236023,15.347623640418703],[74.10152998102387,15.347973926355678],[74.10249242558501,15.348964445053127],[74.10111318212773,15.35115273391159],[74.09981881938307,15.352752637724109],[74.10147432737836,15.356277040353177],[74.1025700118966,15.361268686001097],[74.10308347981879,15.364467474694266],[74.10074306613967,15.372999199053822],[74.09800173109505,15.374897155279541],[74.09793929206472,15.379173019719133],[74.09682645657574,15.381857388108017],[74.09458953777698,15.383312793350797],[74.0912264951067,15.382814510481296],[74.08995963632822,15.383904931267637],[74.08841353175916,15.389881882243117],[74.08701547538396,15.390966678669315],[74.08340813637648,15.391893934557459],[74.08184181324913,15.395125213957499],[74.0803983276208,15.395429192003633],[74.07645630771248,15.394721165649344],[74.07552239684122,15.401718025166758],[74.07519862471679,15.402499132229195],[74.07377525782192,15.406213882664588],[74.0742335640278,15.41205014100126],[74.07570566158705,15.415743875179771],[74.07683471724846,15.417195894475014],[74.08108617678567,15.417669744563113],[74.09696795230923,15.424571203098594],[74.10190509184656,15.426443981904299],[74.10614101739407,15.425389212042546],[74.10803097594885,15.4226226357261],[74.10910202084165,15.421085584632067],[74.11177210529848,15.428467666049983],[74.11616307576537,15.430628974347712],[74.11928313420935,15.433374966981205],[74.10354072392533,15.443209775710613],[74.10106620244335,15.456223308359029],[74.09490624033077,15.467865305639407],[74.08420613090829,15.466750475454148],[74.07979480068957,15.462111925225202],[74.07676783376854,15.461206968027227],[74.0671741512661,15.469797060186238],[74.06562194299835,15.466783152320659],[74.06728183698726,15.463465788015753],[74.06695615380352,15.458614701007718],[74.06399649304376,15.4584262345831],[74.0592548229518,15.461130247762753],[74.05063518536559,15.458661899227309],[74.04917691488276,15.455762188174504],[74.05257110647142,15.449045946813044],[74.05252996338714,15.44418381163365],[74.05065593812111,15.44321013993607],[74.04559789642582,15.44544748771142],[74.03455861668687,15.459383791328946],[74.03330028707865,15.467093208884535],[74.02607538826862,15.471767912758992],[74.02598584367178,15.473398832390274],[74.0304386056572,15.478152145105469],[74.03002474484617,15.479382224310257],[74.02255744636909,15.480559043864844],[74.02043897997498,15.493080721997785],[74.01884592180193,15.495493045467697],[74.01264142346298,15.498059823901826],[74.0004219130409,15.500313022228227],[73.99397434863732,15.51365766996554],[73.9706943713482,15.526194319112562],[73.96497804749896,15.537113155347868],[73.96063315379706,15.53992811069378],[73.95714170322708,15.537280585730514],[73.95234985276358,15.527448168298406],[73.94724271527912,15.524889553909816],[73.94308928993883,15.524867321769534],[73.94839041838316,15.518119173361185],[73.94926851912692,15.513951144829548],[73.95299050820546,15.510457741831374],[73.95862130742745,15.50885719590292],[73.96097125032298,15.503466332205505],[73.96079963269693,15.50209720881918],[73.95660961574123,15.501502062670113],[73.95262908326566,15.497538759406268],[73.95467105872245,15.487335119819988],[73.95424575943429,15.484949756226342],[73.95058687128716,15.481240594178132],[73.95105337031686,15.47515333775641],[73.95633667689617,15.469475222503547],[73.9561780841513,15.46323879553404],[73.9549901597681,15.46186120233267],[73.94898880748752,15.46096255477812],[73.94453557425743,15.455751542899407],[73.94493693179402,15.440704045954988],[73.94295079884034,15.438679973302158],[73.92987231895239,15.435055666785615],[73.92752705073286,15.432995805611995],[73.92442940159566,15.422435099200527],[73.91627828741309,15.411864975088577]]]}},{"type":"Feature","properties":{"blockName":"Dharbandora","districtName":"South Goa","state":"Goa"},"geometry":{"type":"Polygon","coordinates":[[[74.29503826850134,15.286677457698545],[74.29608900040711,15.288312999845118],[74.31225600041415,15.284379000090837],[74.32806400005364,15.285325999695203],[74.33560199963262,15.295390999794847],[74.33441199961413,15.29924400031041],[74.32186099998523,15.315712999855123],[74.31718400014154,15.332015999838575],[74.31823391006697,15.33485414959938],[74.32228899993743,15.34581600040815],[74.31644400019053,15.359656000124346],[74.31748999986365,15.364422999621809],[74.3224560004441,15.367880999908266],[74.32221199998389,15.369658000016727],[74.3066180003205,15.377274999641543],[74.29943099984081,15.382892999712226],[74.28361499983242,15.38360500017069],[74.27988400044632,15.3849769995889],[74.2762530002758,15.391001000395875],[74.27816000008397,15.403875999677666],[74.2750470004188,15.411399000363645],[74.27094300001949,15.417243000064445],[74.26919600039514,15.426261999591645],[74.27626800006823,15.43564199957865],[74.27359800014767,15.43827599963771],[74.27654999958287,15.439830000254346],[74.27621678997292,15.444141819589333],[74.27611500020714,15.445458999932953],[74.26609000015344,15.467564000378388],[74.25034444044366,15.490983963439191],[74.24993384507093,15.490907807049723],[74.24287751608455,15.488937216179636],[74.23585247181416,15.48689888207781],[74.2283696699244,15.481392390746294],[74.22167349873303,15.476223820572898],[74.20097855881352,15.468044583690642],[74.19387936094381,15.461398125223354],[74.19017268372244,15.45600520837371],[74.18818220794259,15.448567630691628],[74.18392575806735,15.442497208679299],[74.18329169285738,15.441592906187736],[74.17733441365232,15.436904302391667],[74.16960320372493,15.440282718972355],[74.16421650298929,15.441620947948422],[74.15484917355059,15.439967442743352],[74.14625016821077,15.438191513727418],[74.13975168958888,15.437343474621684],[74.13332400379977,15.434643951757039],[74.12547415710674,15.436303266582513],[74.11928313420935,15.433374966981205],[74.11616307576537,15.430628974347712],[74.11177210529848,15.428467666049983],[74.10910202084165,15.421085584632067],[74.10803097594885,15.4226226357261],[74.10614101739407,15.425389212042546],[74.10190509184656,15.426443981904299],[74.09696795230923,15.424571203098594],[74.08108617678567,15.417669744563113],[74.07683471724846,15.417195894475014],[74.07570566158705,15.415743875179771],[74.0742335640278,15.41205014100126],[74.07377525782192,15.406213882664588],[74.07519862471679,15.402499132229195],[74.07552239684122,15.401718025166758],[74.07645630771248,15.394721165649344],[74.0803983276208,15.395429192003633],[74.08184181324913,15.395125213957499],[74.08340813637648,15.391893934557459],[74.08701547538396,15.390966678669315],[74.08841353175916,15.389881882243117],[74.08995963632822,15.383904931267637],[74.0912264951067,15.382814510481296],[74.09458953777698,15.383312793350797],[74.09682645657574,15.381857388108017],[74.09793929206472,15.379173019719133],[74.09800173109505,15.374897155279541],[74.10074306613967,15.372999199053822],[74.10308347981879,15.364467474694266],[74.1025700118966,15.361268686001097],[74.10147432737836,15.356277040353177],[74.09981881938307,15.352752637724109],[74.10111318212773,15.35115273391159],[74.10249242558501,15.348964445053127],[74.10152998102387,15.347973926355678],[74.1011896236023,15.347623640418703],[74.09919818015197,15.347713047419234],[74.09606883261057,15.346020457678037],[74.0955400636231,15.338838476314663],[74.09460499172707,15.337966249942554],[74.09275914042206,15.336244406154492],[74.0885794881529,15.331996198565776],[74.08555296729565,15.329521492722733],[74.08454214010771,15.328480912364284],[74.0838712836329,15.324260333747475],[74.08424789092749,15.321270900032061],[74.08479580288406,15.317943844632794],[74.08713746212425,15.311325305618425],[74.08886979740328,15.30672208165879],[74.08967095844804,15.304762858219362],[74.08978926606181,15.30447353282733],[74.08999151729472,15.30053946022798],[74.10025624333105,15.292682971142256],[74.10239901120548,15.291665313603403],[74.10863658660924,15.296520686780298],[74.12696479418997,15.293590512991841],[74.13101356002784,15.29134618198077],[74.13340078431878,15.292328452995775],[74.13577447741028,15.296111490752764],[74.14333843592016,15.300403105918633],[74.14474835974909,15.303648817638873],[74.14372042655651,15.307706493060266],[74.1503929006119,15.310535877129098],[74.16601907442083,15.312356364854395],[74.16980111932628,15.314420737027433],[74.1699351920555,15.31899624118364],[74.16736099421456,15.325476219851737],[74.1676700579269,15.339627093615547],[74.16859857196658,15.342757350371471],[74.1710177473712,15.340967595178427],[74.17534375620943,15.343774705738156],[74.1772367796537,15.342237520645085],[74.17523312340995,15.331631522576743],[74.18228462933223,15.32419069384548],[74.1826905050628,15.320595994809366],[74.18702122994586,15.31251340177215],[74.19910977209838,15.312045494404117],[74.20391155557388,15.310392604335277],[74.20703868538709,15.312615996431134],[74.22157772003578,15.316887044101861],[74.22931856979619,15.324038683238712],[74.22970394997736,15.32641590077327],[74.2414505069354,15.315985631132037],[74.2594896679139,15.30947573022081],[74.26371712814301,15.30998475279415],[74.26458347744557,15.307777013398493],[74.27030549580206,15.306216945056008],[74.28038866130771,15.316288669386608],[74.28551637528057,15.310784038752445],[74.2862180146497,15.301872806784672],[74.28941453075606,15.299619210957871],[74.29478456615487,15.288097241694402],[74.29503826850134,15.286677457698545]]]}}]}