{"type":"FeatureCollection","features":[{"type":"Feature","properties":{"blockName":"Bitra","districtName":"Lakshadweep","state":"Lakshadweep"},"geometry":{"type":"MultiPolygon","coordinates":[[[[71.88888549766762,12.391880989416165],[71.88836669946369,12.393925666436417],[71.88442230264718,12.393358230198203],[71.8845062255819,12.390384674013546],[71.88639068568165,12.38952159914254],[71.88888549766762,12.391880989416165]]],[[[71.89594268820457,12.389560699866479],[71.89358520539298,12.390410423402386],[71.89199829138812,12.388992309447588],[71.89208221432278,12.386019706544289],[71.89534759511548,12.385882377369853],[71.89594268820457,12.389560699866479]]],[[[72.18152618378639,11.593579292350512],[72.18244934056469,11.596680641298633],[72.18129730182909,11.598077774070077],[72.1767883304172,11.595648765478188],[72.17716979944674,11.593900680372144],[72.18152618378639,11.593579292350512]]]]}},{"type":"Feature","properties":{"blockName":"Minicoy","districtName":"Lakshadweep","state":"Lakshadweep"},"geometry":{"type":"Polygon","coordinates":[[[73.04901123028412,8.258662223882595],[73.06712341351476,8.267678261042988],[73.07103729273695,8.272954940518161],[73.075332641888,8.295789718320918],[73.08160400392171,8.312382698402871],[73.08073425248381,8.31466960871552],[73.07760620086555,8.314002037464093],[73.07431030247852,8.309360504183985],[73.0710830691284,8.2999134066784],[73.06780242953857,8.295063972624291],[73.06623840327973,8.286266326829548],[73.05947875973703,8.275100707631623],[73.05347442620388,8.26937866229548],[73.04705047619859,8.264069556864627],[73.0345611574715,8.25826072695105],[73.0288848876275,8.259021759346751],[73.02485656697706,8.26272869107629],[73.02277374251429,8.261865616205284],[73.02197265611323,8.259138107337833],[73.02306365966024,8.25601768466845],[73.02985382079726,8.249630927925011],[73.04301452659917,8.253149032601812],[73.04901123028412,8.258662223882595]]]}},{"type":"Feature","properties":{"blockName":"Kadmat","districtName":"Lakshadweep","state":"Lakshadweep"},"geometry":{"type":"Polygon","coordinates":[[[72.77200317420716,11.205353737185249],[72.77696990953376,11.215756416525437],[72.78832244832239,11.250251769803356],[72.78678894055724,11.25358009324674],[72.78256988539198,11.252264022666566],[72.76974487312742,11.217120170959163],[72.76129150399976,11.187479973222253],[72.76238250754676,11.18519210782955],[72.77200317420716,11.205353737185249]]]}},{"type":"Feature","properties":{"blockName":"Kalpeni","districtName":"Lakshadweep","state":"Lakshadweep"},"geometry":{"type":"MultiPolygon","coordinates":[[[[72.28597999957736,10.041974000200014],[72.28873399977431,10.044080000191911],[72.2893910003944,10.049315999733665],[72.28523999962636,10.04511900044156],[72.28423299995302,10.042690999989702],[72.28597999957736,10.041974000200014]]],[[[72.32420349059868,10.126379967061894],[72.32306671066021,10.130188942166],[72.32069396995081,10.131917000269368],[72.31867980962556,10.130071639994242],[72.31929016061247,10.126760482810084],[72.32242584207899,10.125308989618247],[72.32420349059868,10.126379967061894]]],[[[73.64834939910554,10.143281393021937],[73.6398267120332,10.133304893406148],[73.63158676911416,10.117894562284278],[73.62341614413981,10.108583848765647],[73.62075593963499,10.101173282221225],[73.6213031815966,10.086762579029823],[73.62410019636701,10.073871991799024],[73.64319285826383,10.055873813825485],[73.64611148116,10.057211516698203],[73.64744918403267,10.060859796442514],[73.64805723005719,10.08056050436386],[73.65340803974931,10.112300533642781],[73.65704871932297,10.120174736674812],[73.66084900967411,10.124735086355201],[73.66465446932835,10.139686950292571],[73.66014033131131,10.157354351322283],[73.64834939910554,10.143281393021937]]]]}},{"type":"Feature","properties":{"blockName":"Amini","districtName":"Lakshadweep","state":"Lakshadweep"},"geometry":{"type":"MultiPolygon","coordinates":[[[[72.73354299960982,11.134556000359169],[72.72723400004912,11.133251999580182],[72.724578999921,11.130050000307335],[72.73307799974992,11.132469000344145],[72.73354299960982,11.134556000359169]]],[[[72.72954599964822,11.12453899977504],[72.73219300030678,11.12824599985305],[72.7307429999895,11.128765000404485],[72.72704300023435,11.123988000445934],[72.72782899960868,11.122795000289102],[72.72954599964822,11.12453899977504]]],[[[72.72061899986699,11.116591000174594],[72.71930699961837,11.117804000354397],[72.72438800010616,11.11912600016484],[72.72325099983385,11.12451599961372],[72.7217180001856,11.124362999752691],[72.72096300044217,11.120814999812467],[72.71877300017388,11.120258000206604],[72.71762100010915,11.117658999962941],[72.71878799996631,11.115281000018172],[72.72061899986699,11.116591000174594]]],[[[72.73016357398978,11.101826667366879],[72.74031829855068,11.102180481344192],[72.741554260221,11.104501724175293],[72.73809814491352,11.109267234395418],[72.7390899658293,11.113469124200776],[72.73776245137611,11.117636680588362],[72.73416900599489,11.116957664564609],[72.72564697272969,11.106158256498361],[72.72424316429067,11.10111427300535],[72.72742462124933,11.100531577970003],[72.73016357398978,11.101826667366879]]]]}},{"type":"Feature","properties":{"blockName":"Chetlat","districtName":"Lakshadweep","state":"Lakshadweep"},"geometry":{"type":"Polygon","coordinates":[[[72.70184326175718,11.687025069951062],[72.70533752450723,11.694822311700364],[72.70314025861609,11.699815749697166],[72.70103454550792,11.698738098384581],[72.69487762490252,11.684621810748013],[72.69618225071036,11.682546615234173],[72.70184326175718,11.687025069951062]]]}},{"type":"Feature","properties":{"blockName":"Kiltan","districtName":"Lakshadweep","state":"Lakshadweep"},"geometry":{"type":"Polygon","coordinates":[[[73.00716400111781,11.480826378034976],[73.0064468385508,11.486888885114013],[72.99971771260243,11.497686385718168],[72.99697113001372,11.496812820255514],[72.99615478481553,11.494708061328026],[73.0011749263818,11.484724998459967],[73.00187683105099,11.479918480053868],[72.99879455582413,11.472969055277702],[73.00201416022537,11.469871521253765],[73.00716400111781,11.480826378034976]]]}},{"type":"Feature","properties":{"blockName":"Andrott","districtName":"Lakshadweep","state":"Lakshadweep"},"geometry":{"type":"Polygon","coordinates":[[[73.68484497051901,10.824313163521708],[73.68417358434351,10.827445984244832],[73.67381286647066,10.82691383380643],[73.65924835222972,10.824480057009055],[73.65707397498403,10.8212060930868],[73.67069244380127,10.822484016224394],[73.67642974883393,10.820453643820656],[73.67980957015561,10.820909500273274],[73.68484497051901,10.824313163521708]]]}},{"type":"Feature","properties":{"blockName":"Agatti","districtName":"Lakshadweep","state":"Lakshadweep"},"geometry":{"type":"MultiPolygon","coordinates":[[[[72.10414886477832,11.198745727433447],[72.10871124242993,11.20447444933643],[72.10972595199115,11.207213402076889],[72.10884094265543,11.2090826033795],[72.10588073690656,11.208824158008554],[72.10153961226337,11.202471732884192],[72.10076141360838,11.198899268686375],[72.10183715835825,11.1978702545087],[72.10414886477832,11.198745727433447]]],[[[72.1017761231696,11.188213348767079],[72.09928894013251,11.190143585258284],[72.0961685183625,11.186061859267454],[72.09747314417035,11.182900428412097],[72.1017761231696,11.188213348767079]]],[[[72.336165999961,10.956709999866632],[72.33625799970696,10.958816999904684],[72.33435099989879,10.959309000110295],[72.33435099989879,10.95706400000364],[72.336165999961,10.956709999866632]]],[[[72.33325199958017,10.951869999700762],[72.33583099980086,10.954966000380637],[72.33432799973747,10.954963000242344],[72.33214599983808,10.951848999631693],[72.33325199958017,10.951869999700762]]],[[[72.32826232884344,10.943245887987416],[72.3251113894791,10.943638801789348],[72.32322692848004,10.941918373534179],[72.32328033471975,10.939772605521398],[72.32788085981389,10.939418792443348],[72.32826232884344,10.943245887987416]]],[[[72.31587219274758,10.936951637308255],[72.31526946981023,10.941468238568405],[72.30998992959161,10.940134048447646],[72.3102798458383,10.938471793738358],[72.31587219274758,10.936951637308255]]],[[[72.28813934285643,10.925368309100236],[72.28636169433679,10.930364608739751],[72.28880310098236,10.936264991436246],[72.28667449922881,10.937068939480014],[72.28269958481803,10.934074402112003],[72.28170776390226,10.930500030452095],[72.28582000748742,10.924702644411582],[72.28813934285643,10.925368309100236]]],[[[72.17926025375777,10.818730353922717],[72.18383026125758,10.835971832434154],[72.19817352338947,10.863839149856915],[72.19685363788511,10.866957664164943],[72.19409179649927,10.86733245842629],[72.18972778321069,10.862864494300993],[72.18520355210228,10.855045318986356],[72.18327331561107,10.844126701286257],[72.17190551802531,10.815679550470918],[72.17533111573846,10.813641548218925],[72.17926025375777,10.818730353922717]]],[[[72.1686477661815,10.802729606186404],[72.16950988777114,10.80657005306557],[72.1670837399227,10.806981086408086],[72.16472625711111,10.805008888449493],[72.16481018094515,10.801909446963464],[72.1686477661815,10.802729606186404]]]]}},{"type":"Feature","properties":{"blockName":"Kavaratti","districtName":"Lakshadweep","state":"Lakshadweep"},"geometry":{"type":"MultiPolygon","coordinates":[[[[72.53420299986863,10.779700000154946],[72.53741499960262,10.781481000447855],[72.53707099992675,10.783106999888162],[72.5348209995895,10.783181999749559],[72.53076899978959,10.779831999946907],[72.53420299986863,10.779700000154946]]],[[[72.62725830082996,10.548921584863308],[72.64680480919463,10.570139885247556],[72.64715576152923,10.574959754988754],[72.64498138428354,10.578905105985882],[72.64160919191073,10.578227996524845],[72.63974761955706,10.575270652418737],[72.63899993939572,10.568979263382346],[72.62430572492934,10.548877715933884],[72.62725830082996,10.548921584863308]]]]}}]}