{"type":"FeatureCollection","features":[{"type":"Feature","properties":{"blockName":"Villianur Taluk","districtName":"Puducherry","state":"Puducherry"},"geometry":{"type":"MultiPolygon","coordinates":[[[[79.77091930358307,11.944492866152927],[79.76287800021959,11.943296999856727],[79.76258900038209,11.929575000186162],[79.755904999716,11.923858000046721],[79.75561499983246,11.921569999755718],[79.75196799982336,11.921566999617369],[79.75194499966204,11.94176400020848],[79.7485889995827,11.951665999985948],[79.7485889995827,11.96156699971732],[79.72944599993303,11.969550000032541],[79.73064400032041,11.981745000331557],[79.73284100001217,11.983160999980214],[79.7370380002036,11.981738000008761],[79.7418819996546,11.976805000050774],[79.7503810003829,11.977949999792713],[79.75311299956536,11.981385999964004],[79.7573699998257,11.981390000148451],[79.76009400043785,11.985205999857044],[79.76403799975395,11.986729999989564],[79.76738700040983,11.990491999905942],[79.76755500006328,11.993816000308243],[79.76457999956739,12.000476999913644],[79.74957299999403,12.008609999951602],[79.73986099998524,11.992199000383607],[79.73186499996984,11.989717000139478],[79.72074899996642,11.991624999993803],[79.71656799961357,12.000332999568343],[79.70558899963271,12.010484000036627],[79.70724499955713,12.025252000279636],[79.70636700043679,12.031611000347425],[79.69381699995466,12.033405000340565],[79.6912539995725,12.02699899990398],[79.68632499979896,12.025755000093227],[79.68370100020104,12.021424000017646],[79.67804700026892,12.020501999767532],[79.67411799984586,12.011004999780937],[79.66716800040297,12.012400000259845],[79.66211700039929,12.011324000102547],[79.66182699961638,12.007410000371294],[79.65915699969582,12.0067529997512],[79.65911899974208,12.000370000375256],[79.65716599961127,11.989912000138759],[79.65903500036501,11.987316000033445],[79.66606900008435,11.986139999761235],[79.6744540000521,11.991197000041552],[79.68023699963788,11.981686000308741],[79.68600500033057,11.98892799972748],[79.68832400025246,11.986556000059409],[79.69237500000628,11.988172999983988],[79.69602200001532,11.987040999942224],[79.69905100030348,11.98894000028082],[79.70179700013153,11.988189999868666],[79.7048570000506,11.989855000208138],[79.70968599970917,11.989335999656703],[79.71395899980803,11.986299999945118],[79.71018999956885,11.975272000402526],[79.71686599986606,11.97069499977448],[79.7164840002365,11.966445999883035],[79.70807600010738,11.965038999750107],[79.70162200015523,11.961524000432348],[79.7003859998141,11.959418999587228],[79.69805900042257,11.960717000089517],[79.69263500030507,11.953571999748021],[79.69314599958824,11.950755000243134],[79.69911999988813,11.941474000324888],[79.70522299984162,11.940454000052114],[79.70776400010857,11.935475999817584],[79.71284499969704,11.9309729999041],[79.70951800005571,11.940214999822444],[79.7095950000093,11.945604000124547],[79.71146399986378,11.946726999751263],[79.72102400005764,11.943016000388184],[79.71910899988052,11.92731000005648],[79.72713177810914,11.919087891592994],[79.73999800000774,11.905902000277138],[79.7326130002898,11.903609999801688],[79.73111699964988,11.901050999604024],[79.73202500015367,11.891220000402768],[79.73049199960616,11.889354999833415],[79.7234339996794,11.888322999906563],[79.70661200004383,11.892727999797387],[79.70671800043544,11.9120670003918],[79.71758299965575,11.912755999789624],[79.7176209996095,11.916826000419633],[79.69787600007737,11.918983000065452],[79.69688036783475,11.91525451338515],[79.69572873289479,11.910941820808432],[79.69486999995058,11.907725999855074],[79.69735700042531,11.906133000137913],[79.69886799995828,11.901752999601285],[79.69500699997315,11.90043700006754],[79.69492299969676,11.893550999978743],[79.6909710000117,11.893614000186005],[79.68377700010853,11.888903999719844],[79.683265999926,11.890519999598325],[79.67542299977168,11.891566000170826],[79.67414100000718,11.879941000077167],[79.68625600021431,11.880885999589282],[79.68598899959272,11.884111999968866],[79.68823199960713,11.884239000429602],[79.6934740003249,11.883871999693099],[79.69713600012636,11.887657999816895],[79.70560500037055,11.888379999837184],[79.71082299998153,11.887714999747516],[79.71027512309848,11.88295679831765],[79.71787889999132,11.882989468888923],[79.72307099193279,11.880128500629837],[79.72789256319129,11.881415104923178],[79.73358858754335,11.880147170555517],[79.73624129889686,11.882170122653065],[79.74044177047136,11.882454975716598],[79.74654862581849,11.882576914792821],[79.7484413767682,11.880952835405083],[79.75042861768662,11.882180326361038],[79.753432019672,11.880509805982797],[79.75082230040891,11.864542697387606],[79.75441863711046,11.861313716654763],[79.75462299995155,11.864327000390801],[79.7585830000055,11.868107000237899],[79.75881199977403,11.874191000214523],[79.76499900000391,11.875010000211375],[79.77012599991502,11.872338000198624],[79.77106084608124,11.874509956469353],[79.76933949152436,11.884863362853935],[79.77108910547787,11.89234292538572],[79.76816632501595,11.894196283331837],[79.76912359487807,11.896420242000602],[79.77217652252853,11.895349379670165],[79.77451163380493,11.898106392595992],[79.77808861170013,11.897321851022639],[79.78118412494746,11.912943963493149],[79.78955098109299,11.915542272158177],[79.79121933860165,11.917988625974374],[79.78926218720022,11.918802201260633],[79.78781486506404,11.921816521914991],[79.78519928042249,11.922597170323229],[79.7946554358997,11.923062568582736],[79.79607166307687,11.93430868519772],[79.79326366308766,11.934288423472026],[79.7928801894692,11.94070608361892],[79.77648025156242,11.939098245987338],[79.77091930358307,11.944492866152927]]],[[[79.64970740387366,12.020207709218482],[79.64890109151224,12.023513590979462],[79.64446170064701,12.025032330078034],[79.63540603935729,12.024517621091377],[79.62249840008116,12.026551068277229],[79.62413396471078,12.023980894902422],[79.62481654834511,12.016612840210485],[79.62230700006808,12.014288000091199],[79.62048112000775,12.009064331154036],[79.61968999989364,12.000388000306032],[79.62212399972287,11.99804500017666],[79.62745700014051,11.998125000268601],[79.62496899961968,11.987954999823444],[79.61904900001139,11.987297000056572],[79.619430999641,11.982755000143186],[79.62602199961566,11.980697999712959],[79.62720500021067,11.975284000056604],[79.61840099980634,11.970144999592094],[79.62853999972128,11.968030000084468],[79.63709253619163,11.967502679904783],[79.64169300013191,11.969718999732095],[79.6415630004322,11.973272999949018],[79.63794700005406,11.977122000280133],[79.6404799999521,11.99022500018367],[79.63624599985309,11.992474999621606],[79.63658100001322,11.996426000159829],[79.64262399989775,11.997409999671788],[79.64440200005231,12.005598999594213],[79.64865099994375,12.005967000376813],[79.6500693522189,12.018723721722438],[79.64970740387366,12.020207709218482]]],[[[79.68893399960444,11.97188899997741],[79.68003800035348,11.97231399979131],[79.67849000001354,11.967234000248936],[79.66384606844139,11.968098596772847],[79.66255199977502,11.968174999576604],[79.66113299998801,11.957410999617991],[79.6543959995758,11.958546999844202],[79.65529599971069,11.953597000001594],[79.65994299996953,11.948988999742596],[79.66416899969965,11.950303000083409],[79.67179099955501,11.947539000324639],[79.67571999997807,11.947928000277045],[79.68485999968931,11.953067999888333],[79.68414299989956,11.962317000129474],[79.68509699982673,11.960182999745712],[79.68893399960444,11.97188899997741]]],[[[79.67249299955233,11.914744999781988],[79.6719210001541,11.922271999753036],[79.6692429998646,11.9229500004422],[79.67101299965026,11.93434099963747],[79.66866300009741,11.937136999972608],[79.6651380003185,11.936158999838028],[79.66131600033322,11.937539999671287],[79.66130099964147,11.940474000075085],[79.65723400004913,11.944901000081131],[79.65817300018387,11.947931000415394],[79.65404499957714,11.946274999591594],[79.65241199981398,11.943079999742224],[79.64540100025602,11.941989999838654],[79.64346299991757,11.94471999982818],[79.64347374321875,11.937217915574365],[79.6400106464742,11.936294545656779],[79.63017436015866,11.939962552030181],[79.62942500006375,11.94408200008428],[79.62052199959066,11.944051999600163],[79.61994988687786,11.938082564258991],[79.62007100037641,11.924432999583303],[79.62734200023317,11.921611999893912],[79.6291730001339,11.919458000386442],[79.62801399974637,11.904386999660346],[79.62652600037467,11.902394000382856],[79.63303400011904,11.90085999978919],[79.64174699992418,11.901174999926354],[79.64197499964655,11.904679999682287],[79.64446999959085,11.90756399957894],[79.65596800012315,11.907320000018046],[79.65679899977408,11.912873999835256],[79.6627200003278,11.911346000417609],[79.66144600003292,11.916072999869073],[79.6700290001383,11.916970999911769],[79.67033399981432,11.91444000010597],[79.67249299955233,11.914744999781988]]]]}},{"type":"Feature","properties":{"blockName":"Karaikal Taluk","districtName":"Karaikal","state":"Puducherry"},"geometry":{"type":"Polygon","coordinates":[[[79.85446607884654,10.987784581193523],[79.85249299955234,10.98798000027682],[79.85157799962502,10.992329000283178],[79.84153000030932,10.994973999950162],[79.84187299993903,11.002110999922763],[79.83097800023461,11.002604000174529],[79.82910200005733,10.998410000121453],[79.82688899962767,10.997495000194135],[79.82161700022442,10.998314000190987],[79.81851200002882,11.001631000270493],[79.80899800015766,10.996330999576003],[79.80672499965908,10.988777000158507],[79.80049099995972,10.982718000435398],[79.81317282936266,10.964171248604316],[79.81437775632844,10.94492687377624],[79.8134464777728,10.943458346525517],[79.80886098934326,10.942378606987177],[79.81169288701716,10.931974021084272],[79.8166182778113,10.925880559340385],[79.80746597717314,10.923874237506084],[79.80653032161712,10.910251537378599],[79.81004470669791,10.907140557590708],[79.80945315244111,10.905449938264098],[79.81103206427838,10.902982475560862],[79.80626725103286,10.897364899970228],[79.80770355557468,10.895234569719662],[79.8105086588476,10.896759511442326],[79.81657505639379,10.893843997502529],[79.8223299629575,10.895836432005808],[79.83209147514151,10.895868012598726],[79.83373828759198,10.88903639631269],[79.83064308191274,10.889486599626935],[79.82905251935836,10.886920338303014],[79.83050457192849,10.885316554815176],[79.82792575157225,10.88466929565152],[79.83017356835558,10.879690698267154],[79.83411559006248,10.87850045723036],[79.83282163830802,10.875397985029053],[79.81188033001325,10.875422966396854],[79.81075991144081,10.874051133353191],[79.81322956489254,10.871394862482987],[79.8147863147367,10.871671722372128],[79.81431503670962,10.8739059495],[79.8163727071348,10.874176295599625],[79.81717813186538,10.870699885291515],[79.8282051286638,10.869203660720416],[79.83004659667313,10.86449531770478],[79.83064644088063,10.860206352840976],[79.81723540429056,10.856281987523744],[79.81367285242027,10.860858791200314],[79.81283899382458,10.857245222588972],[79.81462057058292,10.853338789753366],[79.8138008529271,10.8502168373372],[79.8192686194513,10.845289976151548],[79.82379431555529,10.845313125600342],[79.82569274302574,10.841348948195446],[79.83048223366819,10.84247652447209],[79.83406211727294,10.84628716601992],[79.83588853153054,10.825885572361301],[79.8376837932725,10.823318624854721],[79.82663510932292,10.818556949343758],[79.82743886581108,10.817368238053803],[79.83220292992132,10.818630903293581],[79.83227985253325,10.818650674888772],[79.8323344314889,10.818713533003177],[79.8323089132258,10.81876340130998],[79.83237650896876,10.81902941447595],[79.83239669245347,10.819082521241398],[79.83249116083846,10.81926863683816],[79.83248430980314,10.819328688168468],[79.83250460750168,10.819355309000343],[79.83253168878645,10.819375225386409],[79.83256891712188,10.81940176887656],[79.83284578150767,10.820048750149738],[79.83287278814873,10.820091860950697],[79.83295292313898,10.820322520867705],[79.83300301717554,10.820391949428995],[79.83305005171854,10.82042168281447],[79.8331310437627,10.820431637410195],[79.83327217617006,10.82067788707485],[79.83330057945824,10.820683251530909],[79.83330726232037,10.820704852347092],[79.8333039959827,10.820747791377528],[79.8332912040259,10.820757679423423],[79.83340918698445,10.820883931648154],[79.83319134690322,10.820231336806785],[79.83387417605246,10.820218745398847],[79.83392233654666,10.820241649332672],[79.8339443465544,10.820266823155407],[79.83396578549264,10.820298972119929],[79.83400363885693,10.820349757735187],[79.83403969267772,10.820358906538331],[79.83407175081072,10.820371929620876],[79.83477501075822,10.82066911598696],[79.83483574917057,10.820686506177367],[79.83220087317181,10.818036723016405],[79.83952166759093,10.822872221176112],[79.84782320237895,10.82497831110021],[79.84784977914404,10.824939989189204],[79.84789889022164,10.824885733989504],[79.84817575460744,10.8249340896366],[79.84835380598344,10.824963002840377],[79.84847966070782,10.825004434607024],[79.84855370548917,10.825036198661678],[79.84898235924851,10.825121720590971],[79.84907551552266,10.82517205024999],[79.85064361750898,10.826048864063864],[79.85044015219131,10.827808427217178],[79.85192139135916,10.825451070310692],[79.85446607884654,10.987784581193523]]]}},{"type":"Feature","properties":{"blockName":"Bahour Taluk","districtName":"Puducherry","state":"Puducherry"},"geometry":{"type":"MultiPolygon","coordinates":[[[[79.66291000009647,11.86680100026598],[79.66017199973805,11.86672899964367],[79.65657800037445,11.870802999558805],[79.64923099971094,11.870284999952844],[79.64858999982869,11.877302999833603],[79.64985699980076,11.88032899998342],[79.64206700029189,11.880850999773884],[79.64255500031305,11.886065000099734],[79.63668799955161,11.886735000420003],[79.63623800038346,11.880547000143963],[79.62934099978736,11.882147000183977],[79.6313550000333,11.888081999584642],[79.62282599972019,11.890114999807452],[79.619408000379,11.883795999785605],[79.60852799956757,11.877254000271932],[79.60198199986945,11.882584999698054],[79.59977699980874,11.879805000100703],[79.60148600037866,11.87771199980898],[79.60070799957458,11.872557000405266],[79.60311099977287,11.866324999898893],[79.60242499961407,11.85651599991354],[79.61238100008313,11.860147000084055],[79.61235799992181,11.862383999821759],[79.61965900026269,11.860375999852579],[79.61960599961725,11.867611999893938],[79.6290360001114,11.867227000125979],[79.62680799988937,11.852393000436678],[79.63345299965624,11.852918000365491],[79.6398699997008,11.850407999729441],[79.65015400000715,11.849034000218978],[79.6557920001008,11.851644000070621],[79.66425299997604,11.860291000429356],[79.66291000009647,11.86680100026598]]],[[[79.71027512309848,11.88295679831765],[79.70857999996707,11.868234999845413],[79.71281400006609,11.866796000035436],[79.71897099981186,11.852683000320269],[79.72185499970851,11.861481000447839],[79.73335300024081,11.862782000189213],[79.74555199982501,11.861324000402362],[79.74297299960432,11.846784999927877],[79.75361600027827,11.849479000055851],[79.75441863711046,11.861313716654763],[79.75082230040891,11.864542697387606],[79.753432019672,11.880509805982797],[79.75042861768662,11.882180326361038],[79.7484413767682,11.880952835405083],[79.74654862581849,11.882576914792821],[79.74044177047136,11.882454975716598],[79.73624129889686,11.882170122653065],[79.73358858754335,11.880147170555517],[79.72789256319129,11.881415104923178],[79.72307099193279,11.880128500629837],[79.71787889999132,11.882989468888923],[79.71027512309848,11.88295679831765]]],[[[79.64370700037784,11.825253999872245],[79.64093000001952,11.822665000089728],[79.64699600006543,11.819751999755056],[79.6463010003909,11.816203999814775],[79.65876000027384,11.81313400033389],[79.6700209997694,11.814905000165652],[79.67079200025069,11.822810999627961],[79.6601410001071,11.826255000168146],[79.65930200008728,11.82822600022979],[79.66133899959522,11.838697000166462],[79.65788300030027,11.841158000341466],[79.64878099964346,11.843606999963129],[79.64661400043582,11.842434999875366],[79.64607199972306,11.834406000136823],[79.64370700037784,11.825253999872245]]],[[[79.8063279237947,11.831599317654423],[79.8011469996344,11.83394100027698],[79.79946100012512,11.837524000032602],[79.79795099973893,11.834055000138221],[79.79344899987149,11.832857999796886],[79.80188000016193,11.828991000434371],[79.79700500018066,11.823106999788251],[79.79568499956315,11.827777000208414],[79.79269400012805,11.82609800012267],[79.78225699996062,11.832071000376402],[79.78032699999113,11.831816000308208],[79.77423100036043,11.825603999824807],[79.77353699983274,11.821993999723361],[79.76446499966005,11.822835999881534],[79.76448799982137,11.831162999872618],[79.75492899967367,11.83751799975596],[79.7387160002433,11.842775000266101],[79.73883799957406,11.839330999725917],[79.73424500000681,11.839574000140033],[79.72930899991047,11.836725000058777],[79.73273499962062,11.833287999841389],[79.73158999987862,11.82417699966885],[79.73341400035588,11.821851000323477],[79.73297900008083,11.813129000103345],[79.73651899965216,11.808593999613436],[79.72668500031256,11.808934000004172],[79.72522000020291,11.805049999857658],[79.7257539996474,11.802054000192015],[79.72318299979565,11.801579999917124],[79.72286999975074,11.796597000351312],[79.71385999973927,11.79375599973963],[79.71333652236268,11.790707308795334],[79.71602280540822,11.788129796952603],[79.72118436086964,11.784026819981818],[79.7228010001661,11.785572000047807],[79.72449500004427,11.782614000335911],[79.72865300023585,11.7806499996978],[79.74178299958584,11.778829000258213],[79.75514999997256,11.774195999745643],[79.75779000030832,11.782473000128903],[79.76345099966397,11.790417999591057],[79.76991299998502,11.790428000052202],[79.7701029997537,11.781293999718343],[79.78085299996604,11.779972999954055],[79.78418779493086,11.78737398332271],[79.7843980483313,11.787554691296009],[79.78440635087247,11.787716023375822],[79.78451640450851,11.7877659537358],[79.7876198830512,11.787092487428424],[79.78799048467317,11.787000645963076],[79.78803293267379,11.786962404991073],[79.78828005827813,11.786628118892622],[79.78958898104668,11.786333530667946],[79.79061889634505,11.788331985232958],[79.79653987891231,11.788210386100502],[79.8063279237947,11.831599317654423]]],[[[79.70172899969361,11.820245000006821],[79.69393900018474,11.82105699968082],[79.69333600025624,11.812747999620512],[79.70397900003087,11.812053999992145],[79.70172899969361,11.820245000006821]]],[[[79.6833720003176,11.812162999622785],[79.67600300043819,11.813713000054975],[79.67535400018704,11.806259999899112],[79.6757349997705,11.801548000240075],[79.6905440001056,11.802743999635936],[79.69056700026692,11.807453000055943],[79.68831599988357,11.811791999601155],[79.6833720003176,11.812162999622785]]]]}},{"type":"Feature","properties":{"blockName":"Mahe Taluk","districtName":"Mahe","state":"Puducherry"},"geometry":{"type":"MultiPolygon","coordinates":[[[[75.5345156260953,11.709770225815305],[75.53882858666998,11.71065497434762],[75.54017988189611,11.70945173271133],[75.54288999967378,11.709190000318301],[75.5406040003744,11.714092999792172],[75.55751799975593,11.718223999637928],[75.55924999958785,11.721127000410775],[75.5587839996819,11.725095999980454],[75.55522900031815,11.729221999595666],[75.54502099991925,11.733960999600527],[75.5464480000752,11.739225000433464],[75.54612000023786,11.757653000385687],[75.54363299976319,11.759300999941217],[75.5357440001855,11.758312000198714],[75.53337099957201,11.7557049995861],[75.53309600038017,11.752666999782264],[75.54061900016677,11.74378200013922],[75.5397339998243,11.73506700024194],[75.53796400003864,11.73336199985647],[75.5322489999914,11.734015000292061],[75.53005999976921,11.731813000369698],[75.5278320004465,11.722136000176306],[75.53155498507454,11.715766241518907],[75.53081976142289,11.711441874842706],[75.5345156260953,11.709770225815305]]],[[[75.54017988189611,11.70945173271133],[75.53866110862333,11.708105425125325],[75.53518041574364,11.708410315983372],[75.53247341321753,11.703900948869716],[75.52712983947055,11.70000592483359],[75.53008623838923,11.701524723287378],[75.53501772658689,11.69514082638807],[75.53676227375996,11.696536464486314],[75.54013053159883,11.697404045860083],[75.54094707914442,11.701384715032646],[75.54413439968283,11.70358125966743],[75.54017988189611,11.70945173271133]]]]}},{"type":"Feature","properties":{"blockName":"Ozhukarai Taluk","districtName":"Puducherry","state":"Puducherry"},"geometry":{"type":"MultiPolygon","coordinates":[[[[79.87442487510793,12.041815891790009],[79.85004399993073,12.050200999676463],[79.84572599955527,12.038282000414029],[79.84484100011213,12.026532999997983],[79.8409040002195,12.013247999795396],[79.84226199989143,12.010642000128257],[79.8573153550197,12.004801885498694],[79.87442487510793,12.041815891790009]]],[[[79.803822202133,12.018898432116998],[79.80707599965774,12.024180000306842],[79.7915119995792,12.026974999696506],[79.79087800001975,12.01851499986742],[79.79310600024178,12.01726699987222],[79.80342100017907,12.01689299971224],[79.803822202133,12.018898432116998]]],[[[79.79121933860165,11.917988625974374],[79.79544419979004,11.920556812746781],[79.79953715471595,11.918734144165455],[79.80798580420156,11.919863014566545],[79.80901082538935,11.925592846232917],[79.80507661789164,11.925832112661908],[79.8049070588138,11.926975588052983],[79.80704828255227,11.927485127736531],[79.80826186099614,11.933048367188462],[79.82047700520968,11.931889162654784],[79.8316973463555,11.946968059428457],[79.83092456071995,11.949965453942582],[79.83308538698105,11.95494731406734],[79.82929199982601,11.955168999649686],[79.82318100040288,11.961041999788506],[79.81961799977091,11.97763999988615],[79.81475799958207,11.978776000112362],[79.81030300008342,11.976369999775727],[79.80747199993289,11.971533999794303],[79.80671700018945,11.96222600042961],[79.80263499990537,11.952858000096683],[79.79838600001392,11.958189999568901],[79.79383100040042,11.960855000158176],[79.78775800003172,11.961229000318156],[79.78442400006759,11.955888999577724],[79.78047899980606,11.953599000093845],[79.77925900020273,11.949022000365062],[79.77091930358307,11.944492866152927],[79.77648025156242,11.939098245987338],[79.7928801894692,11.94070608361892],[79.79326366308766,11.934288423472026],[79.79607166307687,11.93430868519772],[79.7946554358997,11.923062568582736],[79.78519928042249,11.922597170323229],[79.78781486506404,11.921816521914991],[79.78926218720022,11.918802201260633],[79.79121933860165,11.917988625974374]]]]}},{"type":"Feature","properties":{"blockName":"Thirunallar Taluk","districtName":"Puducherry","state":"Puducherry"},"geometry":{"type":"Polygon","coordinates":[[[79.80049099995972,10.982718000435398],[79.79432699989121,10.983297000156483],[79.79100799971945,10.986365999591271],[79.79139699967186,10.992597000051546],[79.7893370000026,10.994911999788997],[79.76963799989386,10.99519000001851],[79.75421900020677,11.004356000029418],[79.74887800031951,11.00228399980682],[79.74717700011854,11.000341000137098],[79.7468799999121,10.996585999644196],[79.74867199981298,10.99052499982895],[79.74720799974943,10.98625699996063],[79.75524099967248,10.984585000197626],[79.75656899975957,10.98136800023309],[79.76086399997365,10.982298999998875],[79.75520299971873,10.973889999823655],[79.75699599966572,10.971068000088167],[79.76165000024736,10.969755999839549],[79.76264200012827,10.958647000158976],[79.75720200017224,10.958940000180917],[79.74974099964749,10.956438999959914],[79.74877900025069,10.963429000348128],[79.7437739996704,10.96760400042433],[79.73799100008466,10.965838999969947],[79.73252900001341,10.968522999636775],[79.7206950001742,10.967047999965303],[79.71993300010791,10.960820999689417],[79.72143600017131,10.950396000075386],[79.73191799971596,10.949367000286884],[79.73263500040503,10.953532999948038],[79.73627500009121,10.955785000377489],[79.7383270002909,10.950557000305366],[79.73733500040998,10.947474000224986],[79.72558599999394,10.941936000246244],[79.72561599957879,10.936388999852511],[79.72150399970985,10.9362600001989],[79.72134400042535,10.934090999999682],[79.72755399991723,10.93437000027535],[79.72553556781224,10.92975776960543],[79.72320012108878,10.931549246100872],[79.72036245516324,10.931158800038645],[79.71976968502298,10.92741882451918],[79.72307196859651,10.92601336402555],[79.72436298046722,10.923840961691099],[79.73620387271063,10.921173465483093],[79.7366741821678,10.922262062444247],[79.73932938374412,10.921004912746582],[79.74105063397963,10.918085568594165],[79.74361666147979,10.919984487993759],[79.74416266147773,10.91688693958065],[79.7473768267792,10.918520014886838],[79.74829179702886,10.913743676829256],[79.74697453304833,10.912665902309584],[79.74983430610843,10.912114300434666],[79.74835224496019,10.908398754099267],[79.75735096117796,10.908927628307424],[79.76552808375413,10.911356385988483],[79.76753496766469,10.907859325447532],[79.76506027711014,10.906300751778303],[79.76251621645031,10.900857394653087],[79.76440243562394,10.898248735690629],[79.76180920992715,10.885025049466492],[79.76696961695433,10.887243613102328],[79.76807668239303,10.885669096251831],[79.76888282028597,10.886940431855521],[79.77350730781603,10.8869924792196],[79.77071843191015,10.88931305205574],[79.77172817091844,10.893200859032447],[79.769780525351,10.895176258577521],[79.76775011787367,10.895146593540517],[79.76760075487101,10.892362244821811],[79.7659745350968,10.893051811691805],[79.76606238087425,10.895446872675109],[79.76846841178781,10.898313718903069],[79.76748357500702,10.900611092827717],[79.76923724580229,10.905325240067839],[79.77055085134077,10.902299211139734],[79.76928776341958,10.900587940680964],[79.7724011174177,10.89720444113209],[79.7726571247266,10.894872133042554],[79.77676599945136,10.894193263608258],[79.77457041439317,10.89102863296506],[79.78230030411578,10.891116981463597],[79.78181856697336,10.89782194622586],[79.78367692245206,10.89942574590151],[79.78142139578085,10.901332951654467],[79.78328389803352,10.903249727992602],[79.78487488236999,10.903792678389436],[79.78888038362288,10.900975466644525],[79.79361089492693,10.903624239866815],[79.79813095497963,10.900655598477158],[79.80075117202904,10.896979499104646],[79.7970782445654,10.897937553175609],[79.79885421944675,10.892890854629286],[79.79446754953784,10.891384531570907],[79.79295635125465,10.889317236601244],[79.78849737135664,10.888754391402074],[79.78775156268455,10.884139181278215],[79.79495161412575,10.88483582311477],[79.79506165247335,10.888838835044226],[79.7968514526325,10.890394913994157],[79.8005502652826,10.885271024837948],[79.79976738835433,10.882179125066614],[79.8021766154585,10.883106750576133],[79.80461898168073,10.882229109385946],[79.80969118589957,10.885998601554263],[79.81255855913025,10.882746554110213],[79.83017356835558,10.879690698267154],[79.82792575157225,10.88466929565152],[79.83050457192849,10.885316554815176],[79.82905251935836,10.886920338303014],[79.83064308191274,10.889486599626935],[79.83373828759198,10.88903639631269],[79.83209147514151,10.895868012598726],[79.8223299629575,10.895836432005808],[79.81657505639379,10.893843997502529],[79.8105086588476,10.896759511442326],[79.80770355557468,10.895234569719662],[79.80626725103286,10.897364899970228],[79.81103206427838,10.902982475560862],[79.80945315244111,10.905449938264098],[79.81004470669791,10.907140557590708],[79.80653032161712,10.910251537378599],[79.80746597717314,10.923874237506084],[79.8166182778113,10.925880559340385],[79.81169288701716,10.931974021084272],[79.80886098934326,10.942378606987177],[79.8134464777728,10.943458346525517],[79.81437775632844,10.94492687377624],[79.81317282936266,10.964171248604316],[79.80049099995972,10.982718000435398]]]}},{"type":"Feature","properties":{"blockName":"Puducherry Taluk","districtName":"Puducherry","state":"Puducherry"},"geometry":{"type":"Polygon","coordinates":[[[79.77808861170013,11.897321851022639],[79.78631868905632,11.890802340855373],[79.79722338615039,11.894079338190977],[79.79448585523807,11.885999703923233],[79.79439367922498,11.884573527546308],[79.7942674836575,11.88382326723007],[79.79421930337821,11.88307353751378],[79.794130612238,11.881874636905025],[79.79247865296753,11.874863364852445],[79.79064091444673,11.874115347445354],[79.79059191128772,11.871760962798248],[79.785894439277,11.866730418773841],[79.7830861254244,11.857051097430258],[79.77818664589705,11.856507904216471],[79.77543456934995,11.85998696212863],[79.77744900666636,11.862835085370932],[79.77871252896011,11.871368711796663],[79.77029732166415,11.870794849902438],[79.77094299981962,11.864978999880975],[79.76916499966507,11.85674100039688],[79.76677700015847,11.856153000260804],[79.76551100023255,11.85048599972913],[79.76393899968514,11.850344000375344],[79.76254300005945,11.847209999741722],[79.76740999967183,11.83897600044213],[79.77337599960276,11.836641999828487],[79.7757110002625,11.837572000447494],[79.77883899972011,11.847056999880692],[79.78065499982841,11.847879000015894],[79.78235600002944,11.855033999919215],[79.79373899975508,11.853405000340558],[79.79702800034198,11.854845000196633],[79.80141400025599,11.85299100013458],[79.80316199992643,11.84969800026255],[79.80858168060013,11.845211148575686],[79.80735778783168,11.842790603503602],[79.80809648826238,11.837413911322983],[79.82528263598493,11.879299012739295],[79.82655995477813,11.890004871527651],[79.83083433893364,11.902931777879303],[79.82983219829737,11.91115708073471],[79.83460194792161,11.923965925886819],[79.84010311256867,11.95461385894248],[79.83308538698105,11.95494731406734],[79.83092456071995,11.949965453942582],[79.8316973463555,11.946968059428457],[79.82047700520968,11.931889162654784],[79.80826186099614,11.933048367188462],[79.80704828255227,11.927485127736531],[79.8049070588138,11.926975588052983],[79.80507661789164,11.925832112661908],[79.80901082538935,11.925592846232917],[79.80798580420156,11.919863014566545],[79.79953715471595,11.918734144165455],[79.79544419979004,11.920556812746781],[79.79121933860165,11.917988625974374],[79.78955098109299,11.915542272158177],[79.78118412494746,11.912943963493149],[79.77808861170013,11.897321851022639]]]}}]}