{"type":"FeatureCollection","features":[{"type":"Feature","properties":{"blockName":"Namchi","districtName":"South District","state":"Sikkim"},"geometry":{"type":"Polygon","coordinates":[[[88.49481999984317,27.218179999907136],[88.49710800013418,27.23023800018359],[88.49708166438734,27.230300432019362],[88.49330900031015,27.239244000010615],[88.48339099979484,27.24644300014438],[88.46724699994917,27.250241999968353],[88.46147199983301,27.255658999763057],[88.44951599976366,27.260941999673605],[88.44602999998455,27.26621800016062],[88.44411499980743,27.27363799969396],[88.44175516796668,27.272997862261604],[88.43780979358718,27.271927622262012],[88.41489111623207,27.26018834981255],[88.40457308917678,27.23643251964512],[88.40777060173195,27.22414036198819],[88.40530098155511,27.213012245418838],[88.40234710793277,27.209286741789754],[88.39944165920525,27.21775378960575],[88.39426029167919,27.2239468287832],[88.38053240414717,27.226417267343038],[88.37670956689306,27.229854901582485],[88.37146684222103,27.231928399176354],[88.35372340441165,27.230032584236426],[88.34713216162004,27.22653219080803],[88.34078357030558,27.2286056461337],[88.33563360081007,27.224497807427895],[88.32559200017073,27.220219000406587],[88.33694500031157,27.194242000368092],[88.33145900003291,27.191592999617285],[88.33321400002615,27.188550999629],[88.33118399994169,27.187281000417897],[88.32988279155762,27.186994899095396],[88.3441611523154,27.16064627220777],[88.35877522459697,27.161256037735996],[88.36075732409131,27.151893982821093],[88.35787437370345,27.150090864601793],[88.35366388637931,27.15053544895187],[88.34379590435753,27.15552407917295],[88.33642482074896,27.155878010062168],[88.33313596765083,27.15788884199651],[88.32505277566514,27.149966937124475],[88.32678982159302,27.13258589462339],[88.33261631868822,27.129358958948842],[88.32862120190703,27.123093932638938],[88.32784441608698,27.12013840336465],[88.32750677012137,27.11884437696648],[88.32713436266079,27.117427981616117],[88.32782000039276,27.116324999998824],[88.32820757312106,27.106469933140943],[88.33115400035689,27.104581999859477],[88.34809900026869,27.110356999975636],[88.35522499973399,27.103012000303636],[88.35957299969425,27.100767000196925],[88.36830426079047,27.098768632435743],[88.36648013744843,27.1012673721915],[88.36478721765604,27.103580847578087],[88.36447868364439,27.11450247980565],[88.37371578225759,27.118729277234422],[88.37861336241679,27.124452681446144],[88.38815946628642,27.129592043438095],[88.40566286964577,27.132528947752803],[88.41075978813376,27.130884704665448],[88.41670915330485,27.125677744232576],[88.41933055656,27.11933213686865],[88.41707404243317,27.11936085402027],[88.41664585092536,27.11002971419998],[88.42356173458643,27.109677825671156],[88.44245851784638,27.10457197961324],[88.44667958929165,27.105307426296747],[88.45080075325222,27.109459306601764],[88.45669478493642,27.111356724133543],[88.46662994811368,27.111227239745347],[88.47386227982042,27.113411257723442],[88.47391499987742,27.113659000262714],[88.48097199975803,27.120426000259783],[88.48847999975226,27.12258099981335],[88.49390399986976,27.126507000098],[88.49903099978087,27.124594000013133],[88.50280800038894,27.12509199959618],[88.50326492793414,27.126699604303326],[88.50609600003042,27.130955000173174],[88.5147089997206,27.135722999716734],[88.52893099996572,27.15006600014584],[88.53712500011869,27.14988299980064],[88.53923800043344,27.15406400015354],[88.53394299996955,27.160006999923155],[88.53703300037273,27.165517999556073],[88.52771000031635,27.174755000143193],[88.52799199983099,27.17790000038474],[88.5062869998452,27.184843000404214],[88.49935899961821,27.193004999980815],[88.49361399998617,27.202038000153607],[88.49481999984317,27.218179999907136]]]}},{"type":"Feature","properties":{"blockName":"Rongli","districtName":"East District","state":"Sikkim"},"geometry":{"type":"Polygon","coordinates":[[[88.77342224094372,27.138027191401818],[88.7812957766788,27.140882492133358],[88.79299163795378,27.14769744847854],[88.79983520533051,27.159334182926273],[88.80688476601921,27.183378219729093],[88.80918121364215,27.205112457573932],[88.81361389196758,27.210655212268307],[88.82292175283669,27.215969085904646],[88.84089660689295,27.219959259112557],[88.85955047607365,27.22667312626379],[88.86753845233778,27.2269878386179],[88.88229370109349,27.224225998131374],[88.90930175767005,27.233070373598935],[88.91587066669797,27.23988723740615],[88.91917419403387,27.260885238962658],[88.92839050301933,27.28183174174154],[88.9289321898687,27.286634445223513],[88.92615509058504,27.291824341020572],[88.91317749034897,27.29864692721395],[88.90427398715485,27.30044555691694],[88.89555358862725,27.3052253726529],[88.88936744275333,27.313195757278436],[88.88083010302688,27.305313498119517],[88.87032336043478,27.305577266577643],[88.85778638213588,27.303551721734607],[88.81756021333325,27.30521396205478],[88.7943508031471,27.30828487884412],[88.78399804697233,27.311069832806595],[88.7677804960731,27.31174284135909],[88.76306822032217,27.30358181125166],[88.755717071086,27.295671888946572],[88.74633529853526,27.288770782945335],[88.73832823416075,27.28799199343581],[88.72784112197024,27.29202753564232],[88.72323528997669,27.292169132099843],[88.71728313870597,27.284947635425112],[88.71274816609503,27.273761394772578],[88.71003509854103,27.262485596932777],[88.7093165690045,27.24361766932003],[88.70161848830264,27.236948676540237],[88.67336253605225,27.226811815213125],[88.6602574137487,27.214331495102442],[88.6426689489129,27.214264804077516],[88.63262374558946,27.207467792804437],[88.62957203741968,27.20194125558453],[88.611198225218,27.196986427281843],[88.6009416488381,27.191252480317758],[88.6047289997436,27.19245699989068],[88.60531599983358,27.191116000103364],[88.62619000016844,27.187598999794034],[88.64472271538108,27.168942990226867],[88.64961999966329,27.16692199955071],[88.66156859381562,27.16286321166791],[88.66357400014004,27.16218200039907],[88.66670199959765,27.161975999892547],[88.68061099979786,27.176374000160024],[88.69151299982514,27.17999599991549],[88.69860100023601,27.178470999736874],[88.70905300019587,27.1738849995931],[88.718880000112,27.164928000227064],[88.72208612997099,27.14985906884101],[88.72483799967398,27.143749000216246],[88.73156000029383,27.138318999822047],[88.7395629997327,27.137138000218613],[88.75869799991284,27.148005000430487],[88.76220172532942,27.145630718283087],[88.77342224094372,27.138027191401818]]]}},{"type":"Feature","properties":{"blockName":"Mangan","districtName":"North District","state":"Sikkim"},"geometry":{"type":"Polygon","coordinates":[[[88.70309990643557,27.518057686113366],[88.68163748328328,27.519647197360314],[88.66326044971004,27.525767691825592],[88.62750878130527,27.52888357831455],[88.61937834163723,27.539121498258567],[88.61726219819195,27.55336555707487],[88.61447780450715,27.556258883840485],[88.6099113915975,27.557482982553665],[88.60556773266478,27.557371700443696],[88.57370572024286,27.54506842536756],[88.57299349405457,27.544538491758033],[88.57495142696683,27.529916949707513],[88.53416246242773,27.526398684052083],[88.53182984317277,27.523117716209697],[88.52300404230277,27.478666458690157],[88.50872912594843,27.46440418230719],[88.50999574820526,27.459117521256644],[88.50882614481077,27.447722237691153],[88.50709817484096,27.444525158609224],[88.50969656804222,27.438342799780457],[88.5122991826612,27.432454630776647],[88.52269991406985,27.431437339261834],[88.54149004672831,27.430015831265678],[88.54892745893517,27.43305050987317],[88.57107100432347,27.426427471550596],[88.58709019715491,27.44664241811313],[88.60376595713325,27.462208634121225],[88.60790164064827,27.463837587834462],[88.62412072039501,27.46487536230819],[88.64680125007771,27.446017288567077],[88.6481986544444,27.4424154785915],[88.67251721469773,27.451338294726554],[88.67929249385355,27.45166515242488],[88.68049076133963,27.45101474473472],[88.67528974362682,27.443086094947375],[88.64449129643623,27.40602672325474],[88.656658962741,27.395744848046377],[88.65286688859607,27.391503245078752],[88.66144600003292,27.390812000073822],[88.67775700038533,27.399873999785314],[88.68941500020213,27.39784199960866],[88.69744900017128,27.398118999792075],[88.7213289997336,27.416429999744764],[88.73407700035335,27.419050000057496],[88.7562939996684,27.414456999590925],[88.76985199986996,27.413442999594793],[88.78481300002,27.422625000343544],[88.78853330197035,27.421802190818482],[88.78510284432087,27.428329468430263],[88.78299713121271,27.440841674903425],[88.78504180913222,27.493858337292465],[88.77447509794746,27.507221220582892],[88.77154861587599,27.51493792084841],[88.75257828336117,27.51251547191157],[88.7470313782955,27.511628721488364],[88.74381417778216,27.508525084664996],[88.73760164579937,27.504645534363988],[88.7292812873016,27.506751576624026],[88.71985155570479,27.51351307187082],[88.70780101440533,27.51498464422599],[88.70309990643557,27.518057686113366]]]}},{"type":"Feature","properties":{"blockName":"Ravong","districtName":"South District","state":"Sikkim"},"geometry":{"type":"Polygon","coordinates":[[[88.43780979358718,27.271927622262012],[88.4249803035982,27.271889780588936],[88.42265394991989,27.270532187410595],[88.40347506911922,27.27102744586],[88.39465517679503,27.279948008294014],[88.39087056702311,27.288305211116665],[88.38572201036254,27.293830731203343],[88.39608020383838,27.29627512359815],[88.40655168761037,27.291546841713398],[88.4122944371386,27.29514771999135],[88.4130672272708,27.30561833321957],[88.41171525125787,27.314826184980518],[88.41532337627285,27.316617104795625],[88.41815899264344,27.323566979232737],[88.41191197795547,27.329161000679676],[88.42457448812218,27.330104497424657],[88.42819948531803,27.333366942830196],[88.43172442843968,27.344352585203694],[88.43659523218429,27.34612607885549],[88.44133707584541,27.35341975331903],[88.4434430974211,27.353389778015867],[88.44097594588328,27.358018242348066],[88.43278626517406,27.36032969875663],[88.4271396639644,27.378966295558143],[88.41983243401967,27.384391314607512],[88.41350704071743,27.384471308404216],[88.41124138588134,27.388361189217562],[88.41276476008568,27.392016662638923],[88.41613888959813,27.391974640917],[88.41835771673527,27.3998496740233],[88.43771538365809,27.401239613117696],[88.4351500000725,27.404160999630506],[88.42926800041795,27.41288900012728],[88.422118999892,27.418314000290934],[88.41926599962625,27.423231000410397],[88.41708399972686,27.42954600024774],[88.41680100016606,27.43899299972719],[88.41860999995157,27.446269999860647],[88.41135399988724,27.458106999838208],[88.4081729997842,27.475387999956297],[88.40126799971847,27.47870299994355],[88.37818099985333,27.49724999998756],[88.36727899982606,27.510039999846185],[88.36378499967805,27.51694099972741],[88.35831500013722,27.521004000034623],[88.34521500037204,27.526056000084395],[88.3377689996397,27.527330000379266],[88.32183799972398,27.526800000219907],[88.29358700004008,27.518538999675172],[88.28422499998385,27.512593999813305],[88.2789840002115,27.508903999619918],[88.27091200028866,27.497811999823966],[88.26866099990531,27.489496000340182],[88.26914199960368,27.461501999917402],[88.27719899973408,27.419289000287165],[88.27736700028692,27.411585000247612],[88.28177600036219,27.40549499999429],[88.28666700018198,27.404877000273416],[88.29804200043804,27.410108999630665],[88.30294800005021,27.414269999960595],[88.30831100005264,27.41656899985952],[88.3189390000349,27.415039000349623],[88.32815599969967,27.417244000410335],[88.33409099999972,27.416796000435113],[88.33634200038307,27.410191999860956],[88.34153699983273,27.405955999669686],[88.34561199979402,27.41082400022748],[88.35057800037447,27.413878999915937],[88.35330999955687,27.411708999670623],[88.35757400014006,27.402634000258956],[88.36016800015312,27.39900600022679],[88.36090900015029,27.389669000424078],[88.36084699998912,27.378007999569547],[88.35189800009266,27.37375300030078],[88.3417820003391,27.37178600042364],[88.33322100034894,27.368459999929087],[88.33053599973664,27.364631999667097],[88.32530999975677,27.349039000049856],[88.32223500004528,27.34567599964771],[88.30752599982509,27.33732400030243],[88.30294800005021,27.333856999600926],[88.29939299978719,27.326475000021276],[88.30160622774525,27.324196931843005],[88.30270399959,27.323067000241906],[88.30778500007773,27.321052999996027],[88.31323999982618,27.31541599994847],[88.31359099982484,27.305385999664225],[88.3090590003726,27.299228999918455],[88.29319800008767,27.294620999659458],[88.28287499978148,27.287922000100252],[88.28095200013473,27.2812819996646],[88.28653699958295,27.275300999941237],[88.29194599990802,27.27287899976608],[88.30655700010556,27.260648999651664],[88.3082279998224,27.256258000406433],[88.30812100028402,27.245821000239005],[88.3058089997856,27.23667700034332],[88.31025699986071,27.225800999716398],[88.32248699997513,27.22291899991194],[88.32559200017073,27.220219000406587],[88.33563360081007,27.224497807427895],[88.34078357030558,27.2286056461337],[88.34713216162004,27.22653219080803],[88.35372340441165,27.230032584236426],[88.37146684222103,27.231928399176354],[88.37670956689306,27.229854901582485],[88.38053240414717,27.226417267343038],[88.39426029167919,27.2239468287832],[88.39944165920525,27.21775378960575],[88.40234710793277,27.209286741789754],[88.40530098155511,27.213012245418838],[88.40777060173195,27.22414036198819],[88.40457308917678,27.23643251964512],[88.41489111623207,27.26018834981255],[88.43780979358718,27.271927622262012]]]}},{"type":"Feature","properties":{"blockName":"Soreng","districtName":"West District","state":"Sikkim"},"geometry":{"type":"Polygon","coordinates":[[[88.32559200017073,27.220219000406587],[88.32248699997513,27.22291899991194],[88.31025699986071,27.225800999716398],[88.3058089997856,27.23667700034332],[88.30812100028402,27.245821000239005],[88.30371523057352,27.24437895262662],[88.30229727669803,27.243695876163827],[88.29650615623416,27.243553590825627],[88.2828086792772,27.240540772938346],[88.27834977762018,27.240604875714496],[88.27671378671192,27.24281641474579],[88.27651789908185,27.247915631001604],[88.27554110583742,27.249144624724693],[88.27387694096814,27.249289215924648],[88.26494110085116,27.246542052373854],[88.25647558458064,27.257313818877662],[88.25488376477398,27.25875969220607],[88.25285783322249,27.258398222300173],[88.24284928896355,27.252544337251436],[88.23744918473216,27.2515000408942],[88.23472011104434,27.250745829856214],[88.23112005384746,27.246278569000822],[88.2274619283254,27.24598848278231],[88.21671242274016,27.247094687569813],[88.21407624901974,27.247869375271478],[88.20818362207655,27.24549366320207],[88.20244607782428,27.242963014131874],[88.1959848626114,27.24100046679814],[88.18602136269578,27.240558875391855],[88.18143369161163,27.236875469927043],[88.17401967976446,27.234133382149935],[88.16664663833177,27.233683186030248],[88.15681591971895,27.239331072371158],[88.15444015728747,27.240804436175836],[88.148623648063,27.240395166403857],[88.14150584142152,27.24315737291448],[88.14002757721096,27.24103417608643],[88.13748381602534,27.23706296778181],[88.13416074552202,27.235126150951146],[88.13300585953283,27.235310779069266],[88.1271852242188,27.24158805414544],[88.12422871018686,27.241311112417975],[88.1222885020128,27.240803391163638],[88.11535917888307,27.23955717092673],[88.11184831374874,27.239280230098586],[88.09864719421267,27.251889181140825],[88.08685819465,27.26944659868161],[88.08329925985299,27.275817645168217],[88.07729354496121,27.279892147804446],[88.07217755904719,27.278706837750406],[88.06201974081841,27.27833643218065],[88.06031979372358,27.27899392113261],[88.05972126072766,27.279225415620488],[88.05682962378819,27.281373791667193],[88.04333529918478,27.282485019168348],[88.03709819592507,27.279205559489014],[88.0337944185776,27.27875542182528],[88.03124148880374,27.280105828521243],[88.02943942908644,27.280255871411384],[88.02490868508778,27.27879557655467],[88.0210189823402,27.249130249061807],[88.0100250248351,27.23004150371247],[88.00530517319527,27.21350340385908],[88.03170000005503,27.220211000037693],[88.04061900036663,27.220578999920974],[88.05441299976019,27.215670000170405],[88.06587200029264,27.213452999556353],[88.0758819996546,27.204302000237192],[88.08258800043592,27.20041800009068],[88.08303799960407,27.198378000444393],[88.07645399995221,27.193922000000327],[88.07507300011889,27.189843999900745],[88.08071100021255,27.174006999823234],[88.08628800019113,27.167508999640688],[88.09084299980464,27.16462699983623],[88.09054599959825,27.1485310004054],[88.09339100039443,27.14110799983439],[88.10021200018372,27.135875999577763],[88.13441500005229,27.12268800025106],[88.14409600043012,27.11650500020562],[88.1512530004257,27.116692999882105],[88.15976700004705,27.111338000248566],[88.16589400020803,27.113987000100053],[88.18006099971541,27.129946000407642],[88.1864549995986,27.134339999791223],[88.19595299963129,27.13404799981538],[88.20305599983459,27.135866000015938],[88.21730799966451,27.1330410001421],[88.22127500004126,27.134762000366095],[88.22892800042695,27.124917999666025],[88.23431399969138,27.12103499956561],[88.23991399983129,27.119422999871574],[88.24745899973311,27.12001600023825],[88.25893400010409,27.125014999642588],[88.28473700021243,27.13084999982766],[88.28263100022053,27.14224199996835],[88.28473700021243,27.148523000036448],[88.28715500020314,27.150432999983025],[88.28955800040143,27.150770000235354],[88.29296099995025,27.153891000269482],[88.2967070000281,27.1629679997734],[88.29898799999626,27.163999999700252],[88.30258899968265,27.168757999681986],[88.30339099979489,27.173362999802634],[88.31206499960012,27.17778999980868],[88.3146819997745,27.18139299958733],[88.32219700009153,27.18530500012571],[88.32988279155762,27.186994899095396],[88.33118399994169,27.187281000417897],[88.33321400002615,27.188550999629],[88.33145900003291,27.191592999617285],[88.33694500031157,27.194242000368092],[88.32559200017073,27.220219000406587]]]}},{"type":"Feature","properties":{"blockName":"Gyalshing","districtName":"West District","state":"Sikkim"},"geometry":{"type":"Polygon","coordinates":[[[88.30160622774525,27.324196931843005],[88.29926758932783,27.324227226405412],[88.29681140861965,27.32674963678636],[88.27646344603124,27.3165769842405],[88.27521949928052,27.324212659186912],[88.26786406387549,27.327617680411663],[88.25735802815052,27.329111975037677],[88.24166709326181,27.328704715250467],[88.23927097017918,27.33420503813204],[88.22912749343914,27.34636388388617],[88.22179945228294,27.326199131185035],[88.19969579722334,27.33118420908403],[88.19786645387381,27.329365027174333],[88.19482241062582,27.33965651793403],[88.18368932889945,27.34175361014104],[88.18220928313195,27.343873626067023],[88.17439020044748,27.345669089257115],[88.1596908445569,27.352537194635886],[88.13925168261909,27.358416445962234],[88.11592596760937,27.362481317758636],[88.12490312437973,27.373628404627198],[88.15395314202397,27.36926636265258],[88.1711483009534,27.36135396631255],[88.17704695875022,27.360919232236824],[88.18129333441993,27.363446059188334],[88.17921193628189,27.365675413789347],[88.16704975674094,27.371326311959763],[88.1679869222587,27.37939945042433],[88.17014011867161,27.383420023415397],[88.18399950867047,27.378486194282516],[88.1877671293496,27.375870145590795],[88.1902456294323,27.37142972140458],[88.19282521241365,27.37581443259006],[88.18577635139758,27.385820803187585],[88.1875330430156,27.392052032075696],[88.20616285623089,27.397718868930724],[88.20621723463773,27.40249695886763],[88.21366923025084,27.40820588669237],[88.22475778024744,27.400541655573022],[88.23600578723733,27.389196123402428],[88.23445837325539,27.383520355380142],[88.23502416373424,27.3779964639657],[88.23855886270144,27.37373011165539],[88.23725869213501,27.37080236513708],[88.24337053422283,27.370547299418376],[88.2561523286671,27.364333279057632],[88.2620684899689,27.36518293784235],[88.26525710822904,27.367348867756107],[88.27243376110926,27.368003198289045],[88.28338098444493,27.36658618510444],[88.28642864656484,27.37426743319554],[88.29303496109463,27.379704439308455],[88.27932969690806,27.39677912415732],[88.28666700018198,27.404877000273416],[88.28177600036219,27.40549499999429],[88.27736700028692,27.411585000247612],[88.27719899973408,27.419289000287165],[88.26914199960368,27.461501999917402],[88.26866099990531,27.489496000340182],[88.27091200028866,27.497811999823966],[88.2789840002115,27.508903999619918],[88.28422499998385,27.512593999813305],[88.26592999986968,27.52548799997129],[88.24408000039176,27.534546000397654],[88.24031100015259,27.54011199986894],[88.23461900026672,27.55682399982777],[88.21229599966074,27.581049000011376],[88.16628300016038,27.599807999939287],[88.12958500034756,27.61109199959617],[88.11312521525656,27.62008411658877],[88.07877349809854,27.59177398558103],[88.07476806609344,27.584123611215716],[88.07642364513515,27.57624053996898],[88.07585906964039,27.570287704314126],[88.07292175343622,27.563282012554907],[88.0655517580073,27.560365676634717],[88.06282043421572,27.552433014072392],[88.05303955063482,27.542718887166984],[88.0595245358287,27.52843475366103],[88.05509948735153,27.52263832090182],[88.05326080364324,27.511911391897286],[88.04077911386509,27.494720458882114],[88.0395507811437,27.485807418377703],[88.05190277069636,27.470363617187218],[88.05827331536125,27.459070206125148],[88.06415557941654,27.443199157715014],[88.06587982169646,27.431636810690293],[88.06461334243187,27.42709159839859],[88.04476165812406,27.411582947095383],[88.03806304887064,27.38634300262754],[88.03701782261447,27.370986938396527],[88.03999328626122,27.363739013344855],[88.0506515502289,27.35571861292368],[88.05609893811555,27.34147643998574],[88.0540313715506,27.33627319375296],[88.03622436516235,27.310110093406138],[88.02865600626973,27.29294967618665],[88.02802276573811,27.290546416983602],[88.02490868508778,27.27879557655467],[88.02943942908644,27.280255871411384],[88.03124148880374,27.280105828521243],[88.0337944185776,27.27875542182528],[88.03709819592507,27.279205559489014],[88.04333529918478,27.282485019168348],[88.05682962378819,27.281373791667193],[88.05972126072766,27.279225415620488],[88.06031979372358,27.27899392113261],[88.06026491619298,27.28461146075034],[88.07266524700361,27.301026093579424],[88.07200815735064,27.318311535449027],[88.08249209673295,27.313420913344544],[88.09052632512987,27.315544115568514],[88.09346187956214,27.314408588385675],[88.09466378390658,27.308511848842784],[88.09922607342463,27.301844104322015],[88.1042276385947,27.29664454800752],[88.11303474166004,27.292873294067306],[88.12482629259938,27.292012468400742],[88.16912189006325,27.29593424906642],[88.17179455467499,27.27579067270142],[88.17682486037904,27.26364695534278],[88.21620683018114,27.26594175001179],[88.23397535637764,27.26831355362765],[88.24376961557533,27.268684811754724],[88.2545582506628,27.266863295204985],[88.27644296756898,27.273538611118056],[88.28104229926277,27.278230488446354],[88.28936625504866,27.27315810796034],[88.29122792362983,27.271380008880328],[88.29311411942115,27.27176423433201],[88.29194599990802,27.27287899976608],[88.28653699958295,27.275300999941237],[88.28095200013473,27.2812819996646],[88.28287499978148,27.287922000100252],[88.29319800008767,27.294620999659458],[88.3090590003726,27.299228999918455],[88.31359099982484,27.305385999664225],[88.31323999982618,27.31541599994847],[88.30778500007773,27.321052999996027],[88.30270399959,27.323067000241906],[88.30160622774525,27.324196931843005]]]}},{"type":"Feature","properties":{"blockName":"Chungthang","districtName":"North District","state":"Sikkim"},"geometry":{"type":"Polygon","coordinates":[[[88.77154861587599,27.51493792084841],[88.76844024681998,27.523134231359734],[88.76923370337278,27.5279254909687],[88.78789520240173,27.54292869540302],[88.79147338898576,27.55126953146373],[88.79895782494373,27.560121535880228],[88.8064270021045,27.577709197621402],[88.80650317018524,27.592189544312077],[88.81494140642081,27.608583450465915],[88.83306121860039,27.618318557655357],[88.8418502803662,27.627336502277785],[88.84477996852081,27.637775420699143],[88.84140014629975,27.654947280892372],[88.84555816627642,27.664180755237737],[88.83812713655817,27.673954009869703],[88.83838653521047,27.678310394209404],[88.8490753176718,27.68884849526188],[88.8553771972999,27.703729629319014],[88.85550689662603,27.714759826804595],[88.8479385377334,27.730978011725938],[88.84632110613421,27.743007659975603],[88.8506698606256,27.75545120231118],[88.85123443612036,27.778188705844173],[88.85453033450739,27.785852432443846],[88.86238098159708,27.791923522652496],[88.87408447272031,27.798101425340576],[88.8772048953897,27.806400299034635],[88.87894439736613,27.818044662431305],[88.87641143793758,27.82894706715348],[88.87308502195623,27.862396239994553],[88.86885833784208,27.871498107551645],[88.84897613504063,27.893482208537137],[88.83785247820936,27.90227699268911],[88.8362426755591,27.905799865571396],[88.8428344723331,27.92986488355757],[88.84355926474831,27.95535278280471],[88.83883667017625,27.980632782177224],[88.84355926474831,27.994897841961915],[88.84315490707337,28.00080490122525],[88.83132171662396,28.015697479155392],[88.81291961714669,28.02873420711802],[88.79717254657584,28.047393798684936],[88.7889785769998,28.053518295133244],[88.77478790283948,28.058998108076253],[88.76134490973988,28.06834983787479],[88.722038268951,28.078651428021033],[88.69157409706696,28.0807228086108],[88.68529510518499,28.07962799103899],[88.68050384557608,28.07294845550689],[88.67458343497759,28.073675155384137],[88.66847228986433,28.089124679860163],[88.6501922607643,28.10029220562086],[88.64482116686344,28.106050490937434],[88.63973999010852,28.121452331559908],[88.63536071802275,28.1264762880503],[88.63056182856559,28.128759384338196],[88.62222289996691,28.127983093145303],[88.61736297622042,28.124523162913704],[88.6268310549093,28.113294601065036],[88.62052917438194,28.102771758809695],[88.61425781234823,28.097305298101105],[88.60511779824787,28.096103668049864],[88.59124755882783,28.08913612373317],[88.57197570791266,28.087465285894268],[88.56259155305776,28.08190345747863],[88.55735778833133,28.062595367482288],[88.55690002441668,28.04997253450489],[88.55398559595852,28.039525985336013],[88.55096435502105,28.036972045623486],[88.54559326201951,28.03519821202792],[88.53612518333063,28.035259247216516],[88.50852966351323,28.046588897359754],[88.4948043822165,28.046731948920353],[88.47503662084341,28.035873413127547],[88.44661712687895,28.009067535838142],[88.43593597426587,28.003326415881418],[88.42070770279832,27.999389648013903],[88.41643524139334,27.992446899804634],[88.40071868931614,27.984392165965744],[88.3900909420434,27.984161376546353],[88.37032318156963,27.991907119517975],[88.35812377908917,27.991281509733938],[88.34446716282935,27.9877300258201],[88.33308410644639,27.9783325196301],[88.32161712622946,27.97698211653153],[88.31056976338391,27.968946457313223],[88.30143737823249,27.96749687158342],[88.29245758015327,27.96902656532376],[88.28350067161875,27.961360931261993],[88.27444458045306,27.961284637276265],[88.25942993124642,27.946746826604794],[88.25221252468833,27.94728088360597],[88.2467422481563,27.951419830760642],[88.23807525676773,27.96373558033281],[88.22836303732436,27.965984344102253],[88.21595764153199,27.96144676165875],[88.20586395305907,27.961408615115545],[88.20154571526263,27.943429947034474],[88.1908111573091,27.945945739304477],[88.1724319455779,27.955675125007076],[88.1614990232614,27.959346770936804],[88.1452484132837,27.960479735951083],[88.13616180452374,27.95487785353015],[88.13356018095766,27.949699401606154],[88.13692474348221,27.934850692605437],[88.13238525357667,27.927223205986195],[88.12525939980151,27.919700622585708],[88.12421417264602,27.914457321448253],[88.12943267857531,27.900451660315923],[88.13867187530684,27.88926696739668],[88.1391601559165,27.883729935088468],[88.13596344016071,27.879232406650317],[88.16004180948198,27.867694854833758],[88.19374847441264,27.85480117753235],[88.19932556162541,27.842845916705755],[88.17394256559697,27.82229614265293],[88.18956756579058,27.800039291680037],[88.19216156040773,27.790506362878375],[88.190193176474,27.787370681411858],[88.17513275177515,27.776275634712817],[88.17555999719616,27.76959228515591],[88.17278289791244,27.760972976721575],[88.17200469925751,27.7462940219516],[88.1576995845682,27.744359970536266],[88.15257263142183,27.740205764584402],[88.14928206871258,27.717350192657307],[88.15819421978745,27.71768068541536],[88.16782585188162,27.715881903726938],[88.17367683571746,27.713993179042006],[88.19411029865142,27.71417306143769],[88.2173342167008,27.710395618363123],[88.23092651434723,27.70436970110086],[88.2536462140016,27.69612038364886],[88.25947279923037,27.693807673585297],[88.2694498042651,27.68934175182045],[88.28293873023824,27.683280859923798],[88.29475151417108,27.676980721383245],[88.31024260171478,27.669075596961306],[88.33446373031694,27.633635951937663],[88.35847133378508,27.621228683756783],[88.36263049680002,27.619890425103108],[88.36686016126748,27.618340858144165],[88.38920688778768,27.6170730316951],[88.39837116559687,27.618974769570002],[88.41242534695226,27.6188619801963],[88.43735093969417,27.609641008225992],[88.44153148858737,27.610507937591308],[88.44539653282379,27.609404574661426],[88.45359989581857,27.606724972679388],[88.45667615098364,27.603020822552992],[88.46716699176329,27.597740434273646],[88.4894895912717,27.594351530698646],[88.50005929899748,27.591277870977024],[88.50929997421451,27.58897476567296],[88.51231899652453,27.589086486652093],[88.52763772270282,27.58283011361891],[88.53602388009807,27.581154300730418],[88.54262099995924,27.577467505720847],[88.55536797175455,27.565513360952878],[88.55827517416003,27.559256988819016],[88.55738064909775,27.55735773307299],[88.55928151822752,27.548084892703685],[88.55738064909775,27.543392611579804],[88.5596169671494,27.539594100987017],[88.5668849713644,27.538923773313513],[88.56845039247168,27.54115819289632],[88.57370572024286,27.54506842536756],[88.60556773266478,27.557371700443696],[88.6099113915975,27.557482982553665],[88.61447780450715,27.556258883840485],[88.61726219819195,27.55336555707487],[88.61937834163723,27.539121498258567],[88.62750878130527,27.52888357831455],[88.66326044971004,27.525767691825592],[88.68163748328328,27.519647197360314],[88.70309990643557,27.518057686113366],[88.70780101440533,27.51498464422599],[88.71985155570479,27.51351307187082],[88.7292812873016,27.506751576624026],[88.73760164579937,27.504645534363988],[88.74381417778216,27.508525084664996],[88.7470313782955,27.511628721488364],[88.75257828336117,27.51251547191157],[88.77154861587599,27.51493792084841]]]}},{"type":"Feature","properties":{"blockName":"Gangtok","districtName":"East District","state":"Sikkim"},"geometry":{"type":"Polygon","coordinates":[[[88.49708166438734,27.230300432019362],[88.50170634527166,27.23111856057318],[88.50445001315762,27.23133399856522],[88.50748653087874,27.231920212647765],[88.52017234158035,27.24169664998044],[88.54963009295449,27.254138717427907],[88.5552640460989,27.25481312442622],[88.55726091066254,27.253277704702384],[88.55877080942537,27.24821984736809],[88.5599218337257,27.2479547434167],[88.5620284497532,27.244024325662167],[88.56344701336906,27.242621510074684],[88.56466811192426,27.2416471746931],[88.5655244517921,27.24273839406169],[88.56589050014651,27.250589887413412],[88.55938170000553,27.25801913377603],[88.56044624279991,27.261210077683018],[88.56574626867541,27.26515273610994],[88.56996306474372,27.264804858557454],[88.59052549405635,27.270208932396372],[88.59222411015463,27.26891908155045],[88.59553004587497,27.273308181427467],[88.5981372632242,27.282404600891653],[88.6061208606892,27.284897366920006],[88.64354785724788,27.285776516273245],[88.65769105619734,27.28737354225524],[88.66597238861488,27.288713578868624],[88.66926032530381,27.291960529854634],[88.67027186295616,27.306640177102565],[88.67235818128512,27.310654089714546],[88.68614367938733,27.317807354825618],[88.69494153832142,27.31914130932404],[88.6995405642457,27.32172419281727],[88.70425411883258,27.32777758526737],[88.7184069441252,27.329375417941208],[88.73073088742058,27.32483028568919],[88.74380334814606,27.320038279642915],[88.74944827391874,27.318341994587456],[88.7615188925829,27.312833577807396],[88.7677804960731,27.31174284135909],[88.78399804697233,27.311069832806595],[88.7943508031471,27.30828487884412],[88.81756021333325,27.30521396205478],[88.85778638213588,27.303551721734607],[88.87032336043478,27.305577266577643],[88.88083010302688,27.305313498119517],[88.88936744275333,27.313195757278436],[88.88257598839118,27.32514953602231],[88.86940002469146,27.333126068413378],[88.86317443814988,27.345373153848016],[88.8574981692052,27.349548340083857],[88.84151458772811,27.349145888971634],[88.83674621586522,27.35120773315043],[88.81188201894008,27.37512588465188],[88.79792022673712,27.396238326737432],[88.79414367668937,27.411127090642765],[88.78853330197035,27.421802190818482],[88.78481300002,27.422625000343544],[88.76985199986996,27.413442999594793],[88.7562939996684,27.414456999590925],[88.73407700035335,27.419050000057496],[88.7213289997336,27.416429999744764],[88.69744900017128,27.398118999792075],[88.68941500020213,27.39784199960866],[88.67775700038533,27.399873999785314],[88.66144600003292,27.390812000073822],[88.65286688859607,27.391503245078752],[88.65160400032443,27.391604999770948],[88.64343999975625,27.390625000443492],[88.64009900036865,27.388264000383344],[88.61837799964502,27.38747399992519],[88.602280000122,27.390475999867533],[88.59628299966079,27.392096999976616],[88.59330700001811,27.3960299996848],[88.58455700030538,27.394188000176143],[88.55741100031747,27.39208999965382],[88.55532796156957,27.39240423168139],[88.54638700006007,27.393752999901096],[88.53636200000636,27.39634900000641],[88.53524681189089,27.396235677334687],[88.53153999977121,27.395858999892994],[88.52579500013923,27.39684100021202],[88.52558336717868,27.396706324936986],[88.52575557835729,27.39667686764335],[88.51633055471137,27.38911220856164],[88.50381909107824,27.38214335393269],[88.49376180896036,27.37835303166713],[88.48856419615875,27.378060493815795],[88.48361200009379,27.366047000168976],[88.48285700035035,27.360163000422176],[88.4843140000911,27.352341000336935],[88.4908369996279,27.342201000375894],[88.48883800007371,27.333350999648985],[88.48528299981064,27.328475999667717],[88.47652399968291,27.323473000078934],[88.46959700040128,27.321606000316706],[88.4642939995685,27.317333000217843],[88.45704699991916,27.31505400034189],[88.45439099974487,27.30563400030894],[88.44953899992498,27.300598000097693],[88.45081300021985,27.295689000347124],[88.44513700017245,27.280917999965766],[88.44411499980743,27.27363799969396],[88.44602999998455,27.26621800016062],[88.44951599976366,27.260941999673605],[88.46147199983301,27.255658999763057],[88.46724699994917,27.250241999968353],[88.48339099979484,27.24644300014438],[88.49330900031015,27.239244000010615],[88.49708166438734,27.230300432019362]]]}},{"type":"Feature","properties":{"blockName":"Pakyong","districtName":"East District","state":"Sikkim"},"geometry":{"type":"Polygon","coordinates":[[[88.7677804960731,27.31174284135909],[88.7615188925829,27.312833577807396],[88.74944827391874,27.318341994587456],[88.74380334814606,27.320038279642915],[88.73073088742058,27.32483028568919],[88.7184069441252,27.329375417941208],[88.70425411883258,27.32777758526737],[88.6995405642457,27.32172419281727],[88.69494153832142,27.31914130932404],[88.68614367938733,27.317807354825618],[88.67235818128512,27.310654089714546],[88.67027186295616,27.306640177102565],[88.66926032530381,27.291960529854634],[88.66597238861488,27.288713578868624],[88.65769105619734,27.28737354225524],[88.64354785724788,27.285776516273245],[88.6061208606892,27.284897366920006],[88.5981372632242,27.282404600891653],[88.59553004587497,27.273308181427467],[88.59222411015463,27.26891908155045],[88.59052549405635,27.270208932396372],[88.56996306474372,27.264804858557454],[88.56574626867541,27.26515273610994],[88.56044624279991,27.261210077683018],[88.55938170000553,27.25801913377603],[88.56589050014651,27.250589887413412],[88.5655244517921,27.24273839406169],[88.56466811192426,27.2416471746931],[88.56171053311465,27.237878382181634],[88.55420009056178,27.231926548371575],[88.54887808075887,27.230667137778255],[88.54656720531233,27.23206648468056],[88.54285580125429,27.235494875688005],[88.53998471921949,27.236054612830173],[88.53711363628537,27.234235464195365],[88.53571310857313,27.23024733514643],[88.53389241310447,27.226748974185853],[88.52920064819142,27.223110676916235],[88.52135768490928,27.22115159736836],[88.51953700203109,27.2180030726837],[88.52114760777596,27.21499448340876],[88.53025104644871,27.21716346292351],[88.53431257996164,27.21968228500947],[88.54061496321003,27.216393824915144],[88.55062873792599,27.218073037240913],[88.55945207375424,27.219542349599806],[88.56113270610956,27.218912647001105],[88.56295338898775,27.216813626647593],[88.56078891417712,27.212311408244943],[88.5531864745762,27.199947088987017],[88.55285352037373,27.19556690139143],[88.55384516502238,27.19118548262395],[88.5561990469485,27.18569773316392],[88.56621599986858,27.188482000044303],[88.57381887564065,27.187682893950466],[88.58580755077793,27.190856948589385],[88.59229300002198,27.192573999890215],[88.59423100036042,27.19027499999129],[88.59868599985907,27.194201000275996],[88.6009416488381,27.191252480317758],[88.611198225218,27.196986427281843],[88.62957203741968,27.20194125558453],[88.63262374558946,27.207467792804437],[88.6426689489129,27.214264804077516],[88.6602574137487,27.214331495102442],[88.67336253605225,27.226811815213125],[88.70161848830264,27.236948676540237],[88.7093165690045,27.24361766932003],[88.71003509854103,27.262485596932777],[88.71274816609503,27.273761394772578],[88.71728313870597,27.284947635425112],[88.72323528997669,27.292169132099843],[88.72784112197024,27.29202753564232],[88.73832823416075,27.28799199343581],[88.74633529853526,27.288770782945335],[88.755717071086,27.295671888946572],[88.76306822032217,27.30358181125166],[88.7677804960731,27.31174284135909]]]}},{"type":"Feature","properties":{"blockName":"Rangpo","districtName":"East District","state":"Sikkim"},"geometry":{"type":"Polygon","coordinates":[[[88.52799199983099,27.17790000038474],[88.53625499956865,27.177483000040468],[88.54807999989214,27.18344099960251],[88.5561990469485,27.18569773316392],[88.55384516502238,27.19118548262395],[88.55285352037373,27.19556690139143],[88.5531864745762,27.199947088987017],[88.56078891417712,27.212311408244943],[88.56295338898775,27.216813626647593],[88.56113270610956,27.218912647001105],[88.55945207375424,27.219542349599806],[88.55062873792599,27.218073037240913],[88.54061496321003,27.216393824915144],[88.53431257996164,27.21968228500947],[88.53025104644871,27.21716346292351],[88.52114760777596,27.21499448340876],[88.51953700203109,27.2180030726837],[88.52135768490928,27.22115159736836],[88.52920064819142,27.223110676916235],[88.53389241310447,27.226748974185853],[88.53571310857313,27.23024733514643],[88.53711363628537,27.234235464195365],[88.53998471921949,27.236054612830173],[88.54285580125429,27.235494875688005],[88.54656720531233,27.23206648468056],[88.54887808075887,27.230667137778255],[88.55420009056178,27.231926548371575],[88.56171053311465,27.237878382181634],[88.56466811192426,27.2416471746931],[88.56344701336906,27.242621510074684],[88.5620284497532,27.244024325662167],[88.5599218337257,27.2479547434167],[88.55877080942537,27.24821984736809],[88.55726091066254,27.253277704702384],[88.5552640460989,27.25481312442622],[88.54963009295449,27.254138717427907],[88.52017234158035,27.24169664998044],[88.50748653087874,27.231920212647765],[88.50445001315762,27.23133399856522],[88.50170634527166,27.23111856057318],[88.49708166438734,27.230300432019362],[88.49710800013418,27.23023800018359],[88.49481999984317,27.218179999907136],[88.49361399998617,27.202038000153607],[88.49935899961821,27.193004999980815],[88.5062869998452,27.184843000404214],[88.52799199983099,27.17790000038474]]]}},{"type":"Feature","properties":{"blockName":"Dzongu","districtName":"North District","state":"Sikkim"},"geometry":{"type":"Polygon","coordinates":[[[88.52558336717868,27.396706324936986],[88.52318116557836,27.397117219783922],[88.50877460196637,27.42108484119251],[88.50969656804222,27.438342799780457],[88.50709817484096,27.444525158609224],[88.50882614481077,27.447722237691153],[88.50999574820526,27.459117521256644],[88.50872912594843,27.46440418230719],[88.52300404230277,27.478666458690157],[88.53182984317277,27.523117716209697],[88.53416246242773,27.526398684052083],[88.57495142696683,27.529916949707513],[88.57299349405457,27.544538491758033],[88.5668849713644,27.538923773313513],[88.5596169671494,27.539594100987017],[88.55738064909775,27.543392611579804],[88.55928151822752,27.548084892703685],[88.55738064909775,27.55735773307299],[88.55827517416003,27.559256988819016],[88.55536797175455,27.565513360952878],[88.54262099995924,27.577467505720847],[88.53602388009807,27.581154300730418],[88.52763772270282,27.58283011361891],[88.51231899652453,27.589086486652093],[88.50929997421451,27.58897476567296],[88.50005929899748,27.591277870977024],[88.4894895912717,27.594351530698646],[88.46716699176329,27.597740434273646],[88.45667615098364,27.603020822552992],[88.45359989581857,27.606724972679388],[88.44539653282379,27.609404574661426],[88.44153148858737,27.610507937591308],[88.43735093969417,27.609641008225992],[88.41242534695226,27.6188619801963],[88.39837116559687,27.618974769570002],[88.38920688778768,27.6170730316951],[88.36686016126748,27.618340858144165],[88.36263049680002,27.619890425103108],[88.35847133378508,27.621228683756783],[88.33446373031694,27.633635951937663],[88.31024260171478,27.669075596961306],[88.29475151417108,27.676980721383245],[88.28293873023824,27.683280859923798],[88.2694498042651,27.68934175182045],[88.25947279923037,27.693807673585297],[88.2536462140016,27.69612038364886],[88.23092651434723,27.70436970110086],[88.2173342167008,27.710395618363123],[88.19411029865142,27.71417306143769],[88.17367683571746,27.713993179042006],[88.16782585188162,27.715881903726938],[88.15819421978745,27.71768068541536],[88.14928206871258,27.717350192657307],[88.14770507782714,27.70638847314956],[88.14857482926504,27.69830703843911],[88.1435775754448,27.686792372569982],[88.14114379864742,27.674711227341334],[88.13652038580722,27.66524696357658],[88.12713623005305,27.658510207779898],[88.1165008547307,27.647686005404864],[88.11409759642697,27.64111900293966],[88.11596679683026,27.62242507975367],[88.11312521525656,27.62008411658877],[88.12958500034756,27.61109199959617],[88.16628300016038,27.599807999939287],[88.21229599966074,27.581049000011376],[88.23461900026672,27.55682399982777],[88.24031100015259,27.54011199986894],[88.24408000039176,27.534546000397654],[88.26592999986968,27.52548799997129],[88.28422499998385,27.512593999813305],[88.29358700004008,27.518538999675172],[88.32183799972398,27.526800000219907],[88.3377689996397,27.527330000379266],[88.34521500037204,27.526056000084395],[88.35831500013722,27.521004000034623],[88.36378499967805,27.51694099972741],[88.36727899982606,27.510039999846185],[88.37818099985333,27.49724999998756],[88.40126799971847,27.47870299994355],[88.4081729997842,27.475387999956297],[88.41135399988724,27.458106999838208],[88.41860999995157,27.446269999860647],[88.41680100016606,27.43899299972719],[88.41708399972686,27.42954600024774],[88.41926599962625,27.423231000410397],[88.422118999892,27.418314000290934],[88.42926800041795,27.41288900012728],[88.4351500000725,27.404160999630506],[88.43771538365809,27.401239613117696],[88.43917100024152,27.39958199980947],[88.4460599995694,27.393230000064477],[88.4562760003372,27.388249999737752],[88.47302200006533,27.385264999680032],[88.48108699966537,27.380765999950995],[88.48855064779423,27.378059731271605],[88.48856419615875,27.378060493815795],[88.49376180896036,27.37835303166713],[88.50381909107824,27.38214335393269],[88.51633055471137,27.38911220856164],[88.52575557835729,27.39667686764335],[88.52558336717868,27.396706324936986]]]}},{"type":"Feature","properties":{"blockName":"Kabi","districtName":"North District","state":"Sikkim"},"geometry":{"type":"Polygon","coordinates":[[[88.50969656804222,27.438342799780457],[88.50877460196637,27.42108484119251],[88.52318116557836,27.397117219783922],[88.52558336717868,27.396706324936986],[88.52579500013923,27.39684100021202],[88.53153999977121,27.395858999892994],[88.53524681189089,27.396235677334687],[88.53636200000636,27.39634900000641],[88.54638700006007,27.393752999901096],[88.55532796156957,27.39240423168139],[88.56780449757957,27.39336851004873],[88.58193473639903,27.394463867213744],[88.59068697182636,27.396306729172238],[88.5912282998462,27.395592403966305],[88.59330700001811,27.3960299996848],[88.59628299966079,27.392096999976616],[88.602280000122,27.390475999867533],[88.61837799964502,27.38747399992519],[88.64009900036865,27.388264000383344],[88.64343999975625,27.390625000443492],[88.65160400032443,27.391604999770948],[88.65286688859607,27.391503245078752],[88.656658962741,27.395744848046377],[88.64449129643623,27.40602672325474],[88.67528974362682,27.443086094947375],[88.68049076133963,27.45101474473472],[88.67929249385355,27.45166515242488],[88.67251721469773,27.451338294726554],[88.6481986544444,27.4424154785915],[88.64680125007771,27.446017288567077],[88.62412072039501,27.46487536230819],[88.60790164064827,27.463837587834462],[88.60376595713325,27.462208634121225],[88.58709019715491,27.44664241811313],[88.57107100432347,27.426427471550596],[88.54892745893517,27.43305050987317],[88.54149004672831,27.430015831265678],[88.52269991406985,27.431437339261834],[88.5122991826612,27.432454630776647],[88.50969656804222,27.438342799780457]]]}},{"type":"Feature","properties":{"blockName":"Jorethang","districtName":"South District","state":"Sikkim"},"geometry":{"type":"MultiPolygon","coordinates":[[[[88.36830426079047,27.098768632435743],[88.37114700013399,27.098118000345494],[88.37791400013106,27.099113000364753],[88.3947599999741,27.098118000345494],[88.41821299963027,27.090417999591068],[88.43633299976818,27.083338000448407],[88.43911700044924,27.08132700034082],[88.44107763042837,27.081981138418826],[88.45344500018666,27.085131000395393],[88.46167800033948,27.089375000056236],[88.46736900017925,27.095571999847948],[88.47197000011545,27.104518999652157],[88.47386227982042,27.113411257723442],[88.46662994811368,27.111227239745347],[88.45669478493642,27.111356724133543],[88.45080075325222,27.109459306601764],[88.44667958929165,27.105307426296747],[88.44245851784638,27.10457197961324],[88.42356173458643,27.109677825671156],[88.41664585092536,27.11002971419998],[88.41707404243317,27.11936085402027],[88.41933055656,27.11933213686865],[88.41670915330485,27.125677744232576],[88.41075978813376,27.130884704665448],[88.40566286964577,27.132528947752803],[88.38815946628642,27.129592043438095],[88.37861336241679,27.124452681446144],[88.37371578225759,27.118729277234422],[88.36447868364439,27.11450247980565],[88.36478721765604,27.103580847578087],[88.36648013744843,27.1012673721915],[88.36830426079047,27.098768632435743]]],[[[88.32988279155762,27.186994899095396],[88.32219700009153,27.18530500012571],[88.3146819997745,27.18139299958733],[88.31206499960012,27.17778999980868],[88.30339099979489,27.173362999802634],[88.30258899968265,27.168757999681986],[88.29898799999626,27.163999999700252],[88.2967070000281,27.1629679997734],[88.29296099995025,27.153891000269482],[88.28955800040143,27.150770000235354],[88.28715500020314,27.150432999983025],[88.28473700021243,27.148523000036448],[88.28263100022053,27.14224199996835],[88.2853942355556,27.130957504785044],[88.30227699968384,27.124434999875405],[88.3072430002643,27.127667999678465],[88.31185899999292,27.128274999791472],[88.31861100019756,27.12502300001148],[88.32614100030696,27.119026000449594],[88.32713436266079,27.117427981616117],[88.32750677012137,27.11884437696648],[88.32784441608698,27.12013840336465],[88.32862120190703,27.123093932638938],[88.33261631868822,27.129358958948842],[88.32678982159302,27.13258589462339],[88.32505277566514,27.149966937124475],[88.33313596765083,27.15788884199651],[88.33642482074896,27.155878010062168],[88.34379590435753,27.15552407917295],[88.35366388637931,27.15053544895187],[88.35787437370345,27.150090864601793],[88.36075732409131,27.151893982821093],[88.35877522459697,27.161256037735996],[88.3441611523154,27.16064627220777],[88.32988279155762,27.186994899095396]]]]}},{"type":"Feature","properties":{"blockName":"Yangang","districtName":"South District","state":"Sikkim"},"geometry":{"type":"Polygon","coordinates":[[[88.44411499980743,27.27363799969396],[88.44513700017245,27.280917999965766],[88.45081300021985,27.295689000347124],[88.44953899992498,27.300598000097693],[88.45439099974487,27.30563400030894],[88.45704699991916,27.31505400034189],[88.4642939995685,27.317333000217843],[88.46959700040128,27.321606000316706],[88.47652399968291,27.323473000078934],[88.48528299981064,27.328475999667717],[88.48883800007371,27.333350999648985],[88.4908369996279,27.342201000375894],[88.4843140000911,27.352341000336935],[88.48285700035035,27.360163000422176],[88.48361200009379,27.366047000168976],[88.48856419615875,27.378060493815795],[88.48855064779423,27.378059731271605],[88.48108699966537,27.380765999950995],[88.47302200006533,27.385264999680032],[88.4562760003372,27.388249999737752],[88.4460599995694,27.393230000064477],[88.43917100024152,27.39958199980947],[88.43771538365809,27.401239613117696],[88.41835771673527,27.3998496740233],[88.41613888959813,27.391974640917],[88.41276476008568,27.392016662638923],[88.41124138588134,27.388361189217562],[88.41350704071743,27.384471308404216],[88.41983243401967,27.384391314607512],[88.4271396639644,27.378966295558143],[88.43278626517406,27.36032969875663],[88.44097594588328,27.358018242348066],[88.4434430974211,27.353389778015867],[88.44133707584541,27.35341975331903],[88.43659523218429,27.34612607885549],[88.43172442843968,27.344352585203694],[88.42819948531803,27.333366942830196],[88.42457448812218,27.330104497424657],[88.41191197795547,27.329161000679676],[88.41815899264344,27.323566979232737],[88.41532337627285,27.316617104795625],[88.41171525125787,27.314826184980518],[88.4130672272708,27.30561833321957],[88.4122944371386,27.29514771999135],[88.40655168761037,27.291546841713398],[88.39608020383838,27.29627512359815],[88.38572201036254,27.293830731203343],[88.39087056702311,27.288305211116665],[88.39465517679503,27.279948008294014],[88.40347506911922,27.27102744586],[88.42265394991989,27.270532187410595],[88.4249803035982,27.271889780588936],[88.43780979358718,27.271927622262012],[88.44175516796668,27.272997862261604],[88.44411499980743,27.27363799969396]]]}},{"type":"Feature","properties":{"blockName":"Dentam","districtName":"West District","state":"Sikkim"},"geometry":{"type":"Polygon","coordinates":[[[88.30371523057352,27.24437895262662],[88.30553905298495,27.246099927669604],[88.30565149162311,27.25653696291056],[88.30397933807603,27.260928403722914],[88.29656646836787,27.266285076095414],[88.29433261715661,27.268413968330037],[88.28936625504866,27.27315810796034],[88.28104229926277,27.278230488446354],[88.27644296756898,27.273538611118056],[88.2545582506628,27.266863295204985],[88.24376961557533,27.268684811754724],[88.23397535637764,27.26831355362765],[88.21620683018114,27.26594175001179],[88.17682486037904,27.26364695534278],[88.17179455467499,27.27579067270142],[88.16912189006325,27.29593424906642],[88.12482629259938,27.292012468400742],[88.11303474166004,27.292873294067306],[88.1042276385947,27.29664454800752],[88.09922607342463,27.301844104322015],[88.09466378390658,27.308511848842784],[88.09346187956214,27.314408588385675],[88.09052632512987,27.315544115568514],[88.08249209673295,27.313420913344544],[88.07200815735064,27.318311535449027],[88.07266524700361,27.301026093579424],[88.06026491619298,27.28461146075034],[88.06031979372358,27.27899392113261],[88.06201974081841,27.27833643218065],[88.07217755904719,27.278706837750406],[88.07729354496121,27.279892147804446],[88.08329925985299,27.275817645168217],[88.08685819465,27.26944659868161],[88.09864719421267,27.251889181140825],[88.11184831374874,27.239280230098586],[88.11535917888307,27.23955717092673],[88.1222885020128,27.240803391163638],[88.12422871018686,27.241311112417975],[88.1271852242188,27.24158805414544],[88.13300585953283,27.235310779069266],[88.13416074552202,27.235126150951146],[88.13748381602534,27.23706296778181],[88.14002757721096,27.24103417608643],[88.14150584142152,27.24315737291448],[88.148623648063,27.240395166403857],[88.15444015728747,27.240804436175836],[88.15681591971895,27.239331072371158],[88.16664663833177,27.233683186030248],[88.17401967976446,27.234133382149935],[88.18143369161163,27.236875469927043],[88.18602136269578,27.240558875391855],[88.1959848626114,27.24100046679814],[88.20244607782428,27.242963014131874],[88.20818362207655,27.24549366320207],[88.21407624901974,27.247869375271478],[88.21671242274016,27.247094687569813],[88.2274619283254,27.24598848278231],[88.23112005384746,27.246278569000822],[88.23472011104434,27.250745829856214],[88.23744918473216,27.2515000408942],[88.24284928896355,27.252544337251436],[88.25285783322249,27.258398222300173],[88.25488376477398,27.25875969220607],[88.25647558458064,27.257313818877662],[88.26494110085116,27.246542052373854],[88.27387694096814,27.249289215924648],[88.27554110583742,27.249144624724693],[88.27651789908185,27.247915631001604],[88.27671378671192,27.24281641474579],[88.27834977762018,27.240604875714496],[88.2828086792772,27.240540772938346],[88.29650615623416,27.243553590825627],[88.30229727669803,27.243695876163827],[88.30371523057352,27.24437895262662]]]}},{"type":"Feature","properties":{"blockName":"Yuksom","districtName":"West District","state":"Sikkim"},"geometry":{"type":"Polygon","coordinates":[[[88.28666700018198,27.404877000273416],[88.27932969690806,27.39677912415732],[88.29303496109463,27.379704439308455],[88.28642864656484,27.37426743319554],[88.28338098444493,27.36658618510444],[88.27243376110926,27.368003198289045],[88.26525710822904,27.367348867756107],[88.2620684899689,27.36518293784235],[88.2561523286671,27.364333279057632],[88.24337053422283,27.370547299418376],[88.23725869213501,27.37080236513708],[88.23855886270144,27.37373011165539],[88.23502416373424,27.3779964639657],[88.23445837325539,27.383520355380142],[88.23600578723733,27.389196123402428],[88.22475778024744,27.400541655573022],[88.21366923025084,27.40820588669237],[88.20621723463773,27.40249695886763],[88.20616285623089,27.397718868930724],[88.1875330430156,27.392052032075696],[88.18577635139758,27.385820803187585],[88.19282521241365,27.37581443259006],[88.1902456294323,27.37142972140458],[88.1877671293496,27.375870145590795],[88.18399950867047,27.378486194282516],[88.17014011867161,27.383420023415397],[88.1679869222587,27.37939945042433],[88.16704975674094,27.371326311959763],[88.17921193628189,27.365675413789347],[88.18129333441993,27.363446059188334],[88.17704695875022,27.360919232236824],[88.1711483009534,27.36135396631255],[88.15395314202397,27.36926636265258],[88.12490312437973,27.373628404627198],[88.11592596760937,27.362481317758636],[88.13925168261909,27.358416445962234],[88.1596908445569,27.352537194635886],[88.17439020044748,27.345669089257115],[88.18220928313195,27.343873626067023],[88.18368932889945,27.34175361014104],[88.19482241062582,27.33965651793403],[88.19786645387381,27.329365027174333],[88.19969579722334,27.33118420908403],[88.22179945228294,27.326199131185035],[88.22912749343914,27.34636388388617],[88.23927097017918,27.33420503813204],[88.24166709326181,27.328704715250467],[88.25735802815052,27.329111975037677],[88.26786406387549,27.327617680411663],[88.27521949928052,27.324212659186912],[88.27646344603124,27.3165769842405],[88.29681140861965,27.32674963678636],[88.29926758932783,27.324227226405412],[88.30160622774525,27.324196931843005],[88.29939299978719,27.326475000021276],[88.30294800005021,27.333856999600926],[88.30752599982509,27.33732400030243],[88.32223500004528,27.34567599964771],[88.32530999975677,27.349039000049856],[88.33053599973664,27.364631999667097],[88.33322100034894,27.368459999929087],[88.3417820003391,27.37178600042364],[88.35189800009266,27.37375300030078],[88.36084699998912,27.378007999569547],[88.36090900015029,27.389669000424078],[88.36016800015312,27.39900600022679],[88.35757400014006,27.402634000258956],[88.35330999955687,27.411708999670623],[88.35057800037447,27.413878999915937],[88.34561199979402,27.41082400022748],[88.34153699983273,27.405955999669686],[88.33634200038307,27.410191999860956],[88.33409099999972,27.416796000435113],[88.32815599969967,27.417244000410335],[88.3189390000349,27.415039000349623],[88.30831100005264,27.41656899985952],[88.30294800005021,27.414269999960595],[88.29804200043804,27.410108999630665],[88.28666700018198,27.404877000273416]]]}}]}